{"type":"FeatureCollection","features":[{"type":"Feature","geometry":{"type":"MultiPolygon","coordinates":[[[[12.614751647,55.703679789],[12.615231695,55.703130313],[12.614563266,55.702035419],[12.616296049,55.701698078],[12.616405793,55.698692789],[12.616154877,55.698418315],[12.61599805,55.698554073],[12.616233793,55.698769026],[12.61606943,55.701642424],[12.61447647,55.701957273],[12.614005195,55.701694488],[12.613995885,55.701574039],[12.613782593,55.701579296],[12.612784566,55.702501714],[12.613126839,55.702619808],[12.613618225,55.702165651],[12.614237445,55.702300509],[12.614641573,55.702990783],[12.614139584,55.703465071],[12.613046106,55.703553438],[12.612380084,55.70333776],[12.612847612,55.702877398],[12.612641443,55.70276821],[12.611801049,55.703612572],[12.61173329,55.703748238],[12.612706478,55.703903216],[12.61314344,55.704965967],[12.612564691,55.70771723],[12.612749344,55.707729613],[12.613331613,55.704961544],[12.612823575,55.703894432],[12.614751647,55.703679789]]],[[[12.648251398,55.64803655],[12.648449254,55.647982863],[12.648692359,55.647961287],[12.649374654,55.647936193],[12.649913657,55.647915363],[12.650186495,55.648031508],[12.650367946,55.648164713],[12.650516115,55.648122063],[12.650508123,55.648036267],[12.65036305,55.647930656],[12.650200676,55.647820781],[12.649375534,55.6477641],[12.648165776,55.647843133],[12.647274098,55.647162287],[12.648302997,55.646017259],[12.647056416,55.646088848],[12.646985346,55.646162166],[12.638638484,55.645003041],[12.638535901,55.644905146],[12.638339171,55.644891759],[12.638302593,55.644951363],[12.634314847,55.644394519],[12.633915824,55.645163351],[12.629106397,55.644405645],[12.625997232,55.643802054],[12.627299417,55.641432162],[12.62375967,55.640690996],[12.621081494,55.639987682],[12.620906037,55.639628998],[12.619456093,55.639340164],[12.619112157,55.63974639],[12.618991578,55.639763121],[12.618696958,55.639935754],[12.618681065,55.640010285],[12.618354083,55.640106881],[12.618098509,55.640607097],[12.59843277,55.637805378],[12.592499905,55.637932749],[12.593462946,55.633626413],[12.591956893,55.622875711],[12.584734562,55.620335427],[12.579377307,55.618226139],[12.571881138,55.6157593],[12.569185355,55.615494611],[12.565170505,55.615498539],[12.515476126,55.615587758],[12.515309499,55.615578413],[12.515923883,55.616092361],[12.518619716,55.618153137],[12.52245744,55.621080035],[12.525271568,55.623345096],[12.528702286,55.626038051],[12.532558595,55.629274075],[12.534645008,55.631001104],[12.538730478,55.633140164],[12.543305286,55.635597378],[12.54709646,55.63762093],[12.548567075,55.638369183],[12.549996004,55.639186996],[12.551160634,55.639566439],[12.55159965,55.639809078],[12.552124875,55.640122427],[12.552486426,55.640400156],[12.552758138,55.640592789],[12.552848495,55.640636133],[12.553182025,55.640818033],[12.553397663,55.640971527],[12.553565166,55.641024734],[12.55380957,55.641134369],[12.553944852,55.641220259],[12.55420814,55.64136327],[12.554349364,55.641403023],[12.55445384,55.641394213],[12.55451394,55.641409999],[12.554566166,55.641532688],[12.554684565,55.641670253],[12.555075483,55.64200846],[12.555090414,55.64213572],[12.554276297,55.642220197],[12.554314621,55.643655107],[12.554590794,55.6436644],[12.554696414,55.643817049],[12.562036818,55.653223574],[12.562220434,55.653176506],[12.56263903,55.654080746],[12.563080153,55.65422354],[12.563547239,55.654988042],[12.563434643,55.65509506],[12.566417218,55.658967885],[12.568191263,55.661319665],[12.571092473,55.663454635],[12.571475599,55.663752996],[12.572448754,55.664444083],[12.572448426,55.664444229],[12.574151272,55.665729954],[12.574168152,55.665828047],[12.574237186,55.665882905],[12.574207764,55.665893879],[12.575527595,55.666829683],[12.575559272,55.66682772],[12.575530441,55.666846846],[12.57939115,55.669739732],[12.579400377,55.669746796],[12.579402034,55.669764958],[12.577824853,55.670585213],[12.577555716,55.670418095],[12.577337241,55.670468976],[12.576284297,55.669861774],[12.576481573,55.669722502],[12.575527043,55.6691866],[12.572355411,55.667365298],[12.572209407,55.6673473],[12.571127478,55.666852166],[12.571237183,55.666759958],[12.570935738,55.666620385],[12.570800529,55.666720753],[12.570526613,55.666595213],[12.570365225,55.666696343],[12.570215853,55.666641351],[12.570387632,55.666510249],[12.568540432,55.665681329],[12.568610875,55.665590267],[12.568336299,55.665457324],[12.568119187,55.665522984],[12.566654719,55.664860921],[12.56664625,55.664623804],[12.566162659,55.664645289],[12.566052567,55.66458915],[12.566032742,55.66451555],[12.565941126,55.664518215],[12.565325221,55.664239423],[12.565650023,55.664059371],[12.56549528,55.66394519],[12.565792554,55.663751102],[12.565147794,55.663443477],[12.564700869,55.663723509],[12.563577852,55.663207253],[12.563944235,55.662907314],[12.563615324,55.662753687],[12.563195244,55.663040351],[12.562872457,55.66324259],[12.562681154,55.663159139],[12.564053122,55.662229143],[12.566106483,55.663163394],[12.5662414,55.663203975],[12.56636689,55.663140983],[12.565899213,55.662472165],[12.564635977,55.66084735],[12.564051547,55.660048402],[12.561037816,55.659661256],[12.560309359,55.659875273],[12.560446637,55.660086397],[12.560181249,55.660128508],[12.560179868,55.660128904],[12.560193076,55.660144932],[12.559801068,55.660263467],[12.559767581,55.660277571],[12.559761353,55.660275476],[12.559760989,55.660275586],[12.559760089,55.660275051],[12.559571049,55.660211473],[12.557780574,55.660682399],[12.557718708,55.660792532],[12.557417321,55.660737642],[12.557419763,55.660764528],[12.556812365,55.660924687],[12.556799027,55.661009801],[12.556665534,55.661123401],[12.556694769,55.661476065],[12.556721586,55.661503933],[12.556718877,55.661521221],[12.554898756,55.661515274],[12.552278191,55.661275092],[12.552390272,55.660982996],[12.552685405,55.660359329],[12.551947237,55.660305999],[12.551056714,55.66018848],[12.550535037,55.661059853],[12.550391439,55.660959112],[12.550379419,55.660981867],[12.550205062,55.661098411],[12.549863143,55.661138363],[12.549238905,55.661254296],[12.548905482,55.661188917],[12.54877586,55.661192669],[12.548733059,55.661348239],[12.547690492,55.661360592],[12.546854081,55.661370494],[12.545354983,55.660958797],[12.544900507,55.660807239],[12.544415245,55.660519845],[12.543955112,55.660491962],[12.543755014,55.660313568],[12.54361966,55.660261411],[12.543264086,55.659906013],[12.543051496,55.659940764],[12.541629789,55.660195451],[12.541318373,55.660794971],[12.541269514,55.66112117],[12.541882324,55.662122119],[12.54232839,55.662434019],[12.542370418,55.662609962],[12.539594926,55.662995653],[12.537973445,55.663170454],[12.535510084,55.663280902],[12.535483479,55.663271907],[12.531586509,55.663423526],[12.53159077,55.663403861],[12.530855968,55.663434721],[12.527659054,55.66332984],[12.527418913,55.663411425],[12.527373602,55.663429322],[12.527483108,55.663427279],[12.527498105,55.663827714],[12.52780425,55.66427858],[12.527977628,55.66437848],[12.527841053,55.66441977],[12.528043759,55.664416584],[12.52808296,55.664439172],[12.527718815,55.665251787],[12.527197754,55.666424183],[12.527494379,55.666469755],[12.527670967,55.666504289],[12.527635971,55.66661124],[12.52736193,55.666659997],[12.527409515,55.666669556],[12.527476589,55.666712259],[12.527638071,55.66671721],[12.52764835,55.666719187],[12.527495064,55.666719653],[12.527256569,55.667129728],[12.527323122,55.667167885],[12.527370287,55.667178559],[12.527369706,55.667178646],[12.527368466,55.667180778],[12.527426215,55.667189265],[12.527362751,55.667190606],[12.527323122,55.667167885],[12.5272447,55.667150137],[12.527256569,55.667129728],[12.527118133,55.667050358],[12.527071141,55.667149836],[12.526897084,55.667120309],[12.526942517,55.66724245],[12.526795205,55.66720259],[12.525497032,55.667229992],[12.52394309,55.667480769],[12.520732073,55.669722212],[12.520697354,55.669746444],[12.517423198,55.670032507],[12.517901732,55.671329703],[12.518342535,55.671908108],[12.523703096,55.671385806],[12.523853737,55.671365027],[12.523952641,55.671631606],[12.52428603,55.672498285],[12.523990454,55.672772713],[12.523544676,55.67284816],[12.523029969,55.672970588],[12.522941999,55.673506827],[12.522899931,55.673846736],[12.521540965,55.673983279],[12.519389044,55.674188755],[12.520383532,55.676664539],[12.521913632,55.676410195],[12.522209318,55.676971336],[12.522359616,55.67753152],[12.520855121,55.677667101],[12.52188972,55.680182778],[12.524269205,55.680181128],[12.524726021,55.680614468],[12.525597891,55.681117983],[12.526356433,55.681270655],[12.52634968,55.681296508],[12.524446522,55.681533695],[12.524082476,55.68155428],[12.521518521,55.682047433],[12.518325663,55.682618364],[12.518328042,55.682621072],[12.517828972,55.682706974],[12.51708566,55.682834908],[12.517079694,55.68282565],[12.512396235,55.683654081],[12.510812913,55.68392386],[12.50792809,55.684422758],[12.507893307,55.684439112],[12.507879507,55.684463604],[12.504368579,55.685198759],[12.502854693,55.685440541],[12.50076667,55.685754798],[12.499502556,55.685981239],[12.499551514,55.686019303],[12.500394734,55.686391872],[12.500406405,55.686486401],[12.500754519,55.686690172],[12.500924702,55.686768216],[12.50114422,55.686916262],[12.501585943,55.687078424],[12.502504438,55.687312897],[12.50255544,55.687346502],[12.504102074,55.688029773],[12.50858104,55.688919816],[12.508792268,55.688964725],[12.509593046,55.689037549],[12.510423738,55.689113089],[12.511637314,55.689413973],[12.514107828,55.69001698],[12.515373023,55.690239818],[12.516097858,55.690546964],[12.516164636,55.690497542],[12.516491661,55.690644127],[12.516938173,55.690745702],[12.517503121,55.690848681],[12.518574747,55.691608775],[12.518487285,55.692070974],[12.51849223,55.692321428],[12.5189177,55.692616439],[12.51994999,55.694000071],[12.521059472,55.695256409],[12.522486104,55.695853286],[12.525176793,55.696800018],[12.525884134,55.697112096],[12.526343283,55.697305597],[12.527743225,55.697912691],[12.528024653,55.697994868],[12.528309565,55.698115637],[12.528498734,55.698187573],[12.529405998,55.698625739],[12.529865143,55.698783056],[12.529990501,55.698843595],[12.530110212,55.698911425],[12.530226402,55.698980326],[12.530430986,55.699066499],[12.530586744,55.699156508],[12.530898518,55.699263356],[12.530537202,55.699520671],[12.529356616,55.700404138],[12.528356021,55.701150903],[12.528337086,55.701199783],[12.52830776,55.701476552],[12.528811032,55.70189981],[12.5287849,55.701911926],[12.528835464,55.701955606],[12.528193294,55.702186228],[12.527300732,55.702600056],[12.527266392,55.702583203],[12.52721577,55.702605292],[12.526008855,55.701966034],[12.525709912,55.701819315],[12.5245183,55.701306262],[12.524034588,55.701665569],[12.524005772,55.701692388],[12.524000709,55.701690733],[12.523987142,55.701700811],[12.522037094,55.701064496],[12.519431073,55.701558956],[12.51892101,55.702008838],[12.518876778,55.701948994],[12.518866237,55.70195594],[12.518265721,55.701144234],[12.518258007,55.701133806],[12.517793999,55.70061183],[12.515474839,55.701384894],[12.515273348,55.701217269],[12.514783988,55.700826761],[12.513102172,55.701346565],[12.511904154,55.701733408],[12.511646429,55.701806774],[12.511403235,55.701899103],[12.510942245,55.70200723],[12.510148013,55.702233311],[12.507928863,55.700232798],[12.507627743,55.69997265],[12.50760694,55.699942571],[12.507275023,55.699643328],[12.507014478,55.699500128],[12.506952072,55.699352164],[12.506612821,55.699046298],[12.506564473,55.699020015],[12.50613376,55.699115013],[12.505485639,55.698651784],[12.504952162,55.698410092],[12.504497196,55.698198273],[12.503506032,55.697916397],[12.50271522,55.69841511],[12.502397896,55.698675756],[12.502322968,55.698723582],[12.501939713,55.698968202],[12.501555096,55.699213689],[12.501288922,55.699314537],[12.501252066,55.699337777],[12.501202784,55.699917834],[12.501210999,55.700240544],[12.501205469,55.700390581],[12.497271892,55.700248532],[12.497170574,55.700844052],[12.49709917,55.701444368],[12.4970933,55.701447829],[12.4970995,55.701448054],[12.497039466,55.701874873],[12.496952325,55.702291376],[12.494162338,55.702277867],[12.494189172,55.702578264],[12.493963489,55.702589068],[12.491591661,55.702710421],[12.491568169,55.702628751],[12.491292636,55.702135467],[12.490847637,55.702133346],[12.490222565,55.702221059],[12.49005531,55.702265371],[12.489767982,55.702493502],[12.488665347,55.703410061],[12.483736232,55.70733397],[12.483537524,55.707492134],[12.483002864,55.707917695],[12.482976837,55.707940516],[12.48364901,55.708508865],[12.484839363,55.709713313],[12.484395744,55.709858276],[12.483930135,55.710060535],[12.484079736,55.7102857],[12.484638155,55.710949644],[12.484753058,55.711500498],[12.48485069,55.711822179],[12.485000038,55.712489943],[12.485213361,55.713707052],[12.485284528,55.714048186],[12.48527334,55.714049253],[12.485274241,55.714054394],[12.485166884,55.714059407],[12.484583971,55.714115009],[12.484634379,55.714573142],[12.48464864,55.714676427],[12.484750332,55.715412927],[12.484316322,55.715552912],[12.483210678,55.715947106],[12.483416965,55.716057201],[12.484195455,55.716430397],[12.484910421,55.716222597],[12.48518916,55.716123547],[12.485196484,55.716139453],[12.485237173,55.716127627],[12.485632502,55.717086357],[12.485852178,55.717563411],[12.486495749,55.71742949],[12.486540921,55.717493073],[12.486546607,55.717492388],[12.486581642,55.717550391],[12.486761894,55.717804106],[12.487032161,55.718736275],[12.487144299,55.719340906],[12.487204257,55.719741358],[12.487209198,55.719774353],[12.487324317,55.720543212],[12.487310996,55.721199127],[12.487314153,55.721312421],[12.487297815,55.721848334],[12.487267111,55.723359782],[12.487266447,55.723392387],[12.487249713,55.724216257],[12.487243449,55.724524573],[12.487889251,55.723682788],[12.487898419,55.723677256],[12.487908409,55.723664264],[12.488308428,55.723429863],[12.488389929,55.723380686],[12.488402476,55.723374753],[12.48857668,55.723272673],[12.488795719,55.723169494],[12.488920032,55.723111573],[12.489140603,55.723008803],[12.489186878,55.722987242],[12.490283413,55.722717855],[12.49057205,55.722568136],[12.492577894,55.721435067],[12.493699986,55.720608998],[12.493707409,55.720611897],[12.493725932,55.720598169],[12.494667544,55.720970931],[12.494575251,55.721024534],[12.492961497,55.722038722],[12.492799597,55.722153226],[12.49256532,55.722287694],[12.492049104,55.722612097],[12.492257571,55.722634258],[12.49402431,55.723032354],[12.496275759,55.722336855],[12.496491091,55.722082055],[12.498189326,55.721299195],[12.49903553,55.720962586],[12.499036574,55.720970221],[12.499463758,55.724095467],[12.499773122,55.724135945],[12.500056123,55.724121593],[12.500658044,55.724091065],[12.500672207,55.724090346],[12.500889551,55.724165722],[12.501242726,55.724106648],[12.50206036,55.724057329],[12.50260378,55.724042849],[12.502643191,55.724238928],[12.50302159,55.724172627],[12.503025058,55.724172019],[12.503311319,55.724154626],[12.503315248,55.724174587],[12.50341641,55.724688526],[12.503485461,55.725044254],[12.503521073,55.725396902],[12.503553891,55.725690084],[12.50357768,55.725926798],[12.503989941,55.726217307],[12.504048515,55.726258582],[12.503921302,55.726317208],[12.503888275,55.726332429],[12.504125523,55.726451421],[12.503963925,55.726721902],[12.503775945,55.727032497],[12.503924253,55.72783608],[12.504075391,55.728643172],[12.504663552,55.729221777],[12.504691076,55.729220065],[12.5051385,55.729192235],[12.505208442,55.729187884],[12.505244151,55.729185662],[12.505253251,55.729236376],[12.505263593,55.729294014],[12.505304309,55.729291632],[12.506213398,55.729238428],[12.50621949,55.729272971],[12.506262108,55.729514634],[12.506349817,55.730018113],[12.506364875,55.730101535],[12.506365399,55.730101488],[12.506789554,55.730063425],[12.506792836,55.73007748],[12.506804669,55.730128156],[12.508479938,55.729960416],[12.508013085,55.730655845],[12.508017944,55.730657744],[12.508347183,55.730786431],[12.508428043,55.730818036],[12.508443816,55.730824201],[12.50822302,55.731005014],[12.507232012,55.731816548],[12.506398751,55.732498206],[12.505513388,55.733223185],[12.504626268,55.733947238],[12.504338726,55.734183346],[12.504321045,55.734197863],[12.504155472,55.734333809],[12.503995773,55.734464897],[12.50384279,55.734590494],[12.503901401,55.73461656],[12.504079511,55.734695769],[12.504168604,55.73473539],[12.504180166,55.734740532],[12.503891453,55.734834559],[12.503760735,55.73487713],[12.503587822,55.734800633],[12.502750768,55.73548818],[12.502523958,55.735674855],[12.50251989,55.735678205],[12.502420597,55.73575996],[12.502064396,55.735637657],[12.501630533,55.735488686],[12.500847772,55.735238905],[12.500202576,55.735027944],[12.499499995,55.734829035],[12.499498472,55.734830629],[12.499268813,55.735060728],[12.498809205,55.735552541],[12.498616913,55.735753934],[12.49850683,55.735867312],[12.498469001,55.735862288],[12.495860718,55.738476011],[12.490679934,55.738582809],[12.490510589,55.739552463],[12.490371589,55.74071278],[12.490193404,55.740738548],[12.489997132,55.740782879],[12.489892471,55.740813802],[12.490091132,55.740882147],[12.49009895,55.740887113],[12.490248054,55.740981817],[12.490329689,55.741033667],[12.490340784,55.741040715],[12.489774013,55.741112129],[12.489418709,55.741156897],[12.488537338,55.740857273],[12.487916903,55.740679989],[12.48744337,55.740556265],[12.487435098,55.741034751],[12.487434352,55.741077878],[12.48736417,55.741176924],[12.487362998,55.741176888],[12.487344077,55.741176291],[12.487251765,55.741173382],[12.487101808,55.741168658],[12.487079444,55.741167954],[12.487053328,55.741433794],[12.486971456,55.742310284],[12.486911819,55.742957157],[12.486464304,55.742956794],[12.486141785,55.742957013],[12.486058001,55.742977314],[12.485231207,55.742945413],[12.483802856,55.742879026],[12.48237928,55.742815359],[12.481174625,55.742758774],[12.481033968,55.742752166],[12.479488908,55.742682042],[12.478062407,55.742616167],[12.477427577,55.742585518],[12.476796599,55.742553333],[12.476216435,55.742523861],[12.476092242,55.742517523],[12.475940568,55.742534258],[12.475494447,55.742583482],[12.474831957,55.742655283],[12.474387042,55.74270305],[12.474133271,55.742701974],[12.473330587,55.742792019],[12.473013437,55.742741095],[12.472566797,55.742731834],[12.472529626,55.742731063],[12.472143896,55.742723034],[12.472091803,55.742721949],[12.472066811,55.743225416],[12.472049559,55.743567108],[12.471999377,55.744560991],[12.472080303,55.744705176],[12.47205093,55.745985957],[12.471583497,55.745986429],[12.471592553,55.746114444],[12.472032393,55.746123055],[12.472117489,55.74616856],[12.472091315,55.746608388],[12.471416942,55.746538838],[12.471324,55.748052907],[12.47131983,55.748140636],[12.471035108,55.748135325],[12.47098971,55.748845655],[12.471274354,55.748924409],[12.471229087,55.749721234],[12.471210207,55.750059825],[12.471186119,55.750504163],[12.470898286,55.75046176],[12.47059505,55.750587983],[12.470712239,55.750678643],[12.469131201,55.751321582],[12.469075499,55.751404884],[12.469016874,55.75148802],[12.468816724,55.751446101],[12.468593216,55.751795144],[12.468992972,55.751858307],[12.469323476,55.75191183],[12.470782946,55.752139087],[12.471791673,55.752177402],[12.471990611,55.752196519],[12.472770394,55.752162587],[12.472842905,55.751779606],[12.472926104,55.751305339],[12.472869645,55.751296449],[12.472891776,55.751206253],[12.472942268,55.751214091],[12.472988991,55.750950358],[12.473848345,55.751064107],[12.474008154,55.751084992],[12.474033057,55.750627881],[12.475113211,55.750648203],[12.475094473,55.750230595],[12.475075717,55.749730241],[12.475069885,55.749575613],[12.475026314,55.749532567],[12.475284084,55.749416578],[12.47543822,55.749355775],[12.475929644,55.749153352],[12.475998969,55.749172778],[12.476162551,55.749187942],[12.476797836,55.749161197],[12.477195185,55.74914516],[12.477127807,55.748637033],[12.477495559,55.748691642],[12.477724939,55.748870948],[12.478244521,55.748662167],[12.478645216,55.748673441],[12.479057476,55.74868505],[12.479533119,55.748698443],[12.480352743,55.748721506],[12.481749511,55.748760797],[12.48175326,55.748749034],[12.481753491,55.748728635],[12.481749509,55.748713288],[12.481738612,55.748694496],[12.481727031,55.748682039],[12.482151663,55.748645517],[12.482236501,55.748718995],[12.482195055,55.748871684],[12.482239601,55.748928233],[12.482272568,55.748973197],[12.482307958,55.749029502],[12.482333709,55.749073649],[12.482370561,55.749156496],[12.48239312,55.749213214],[12.482405493,55.749256248],[12.482591796,55.749353851],[12.483136907,55.749123937],[12.483241908,55.74907737],[12.48348484,55.748989099],[12.483966388,55.748823959],[12.4843814,55.748835736],[12.484762687,55.748846566],[12.486408143,55.748893265],[12.486498784,55.749724267],[12.488657603,55.749663596],[12.488654163,55.749622336],[12.490435229,55.749580788],[12.490511571,55.750245223],[12.490524453,55.750356655],[12.490544954,55.750524841],[12.490565359,55.750694781],[12.490586637,55.750866666],[12.490634441,55.751044876],[12.490680614,55.751657165],[12.490713837,55.751961188],[12.490788033,55.752652587],[12.490828591,55.753028132],[12.490989817,55.753145719],[12.490849377,55.753216456],[12.490894001,55.753641559],[12.49125533,55.753767361],[12.491888671,55.75396044],[12.492047547,55.754008468],[12.492843254,55.754219752],[12.492942181,55.754249033],[12.493474251,55.754406529],[12.494011778,55.754585435],[12.494292398,55.754662231],[12.494749732,55.754753171],[12.495277816,55.754849277],[12.495292096,55.754487001],[12.495603689,55.754500321],[12.49557101,55.753361122],[12.500300397,55.753202956],[12.500482689,55.757221308],[12.501892845,55.757558368],[12.502239799,55.756422944],[12.504354211,55.757959728],[12.505581843,55.757392851],[12.507213744,55.756733232],[12.508069005,55.756784176],[12.505230113,55.757934721],[12.505736965,55.757990987],[12.504046348,55.760585892],[12.505623712,55.761042286],[12.505658078,55.761224036],[12.506355077,55.761358604],[12.50658425,55.761622385],[12.507465897,55.761906144],[12.507930728,55.762124572],[12.508082943,55.762294004],[12.508301746,55.762442224],[12.508725503,55.762584587],[12.509313132,55.762645027],[12.50989903,55.762686205],[12.510691616,55.762740779],[12.511383459,55.762817538],[12.511909709,55.762956958],[12.512364178,55.763059811],[12.512515906,55.76284307],[12.512524064,55.7625532],[12.512793867,55.762506862],[12.512792645,55.76287377],[12.513614195,55.762869569],[12.514705792,55.762982347],[12.515265967,55.762957447],[12.516583097,55.763132127],[12.517105898,55.763233005],[12.518270215,55.762852078],[12.518415532,55.76294446],[12.51957809,55.762544262],[12.519619196,55.76262032],[12.519184394,55.763115514],[12.518969593,55.763391999],[12.51915081,55.76350266],[12.519542773,55.762912148],[12.519872202,55.762767539],[12.52014696,55.763336849],[12.520370708,55.763738014],[12.521276232,55.763905136],[12.52172996,55.764612966],[12.522573642,55.764441779],[12.523268019,55.764077907],[12.525951415,55.766217821],[12.526340216,55.767145361],[12.526409908,55.767974728],[12.526043633,55.768425923],[12.527007815,55.768699563],[12.527546234,55.768961768],[12.528083684,55.769223497],[12.528443947,55.769305937],[12.529598082,55.769570034],[12.530491322,55.769604133],[12.530729654,55.769486526],[12.539390581,55.773863135],[12.540213152,55.773704903],[12.541273705,55.773610404],[12.542100173,55.773613956],[12.543253909,55.773653713],[12.544910984,55.77370632],[12.545885346,55.77373297],[12.54671721,55.773617635],[12.54774585,55.773350518],[12.548873072,55.772742702],[12.549803492,55.77228666],[12.550456768,55.772167332],[12.55165768,55.772013898],[12.552616245,55.771867465],[12.553697847,55.771827033],[12.554828742,55.771794295],[12.556710267,55.771821982],[12.559188808,55.772179305],[12.562021516,55.772334557],[12.563705871,55.772331334],[12.564753637,55.772629627],[12.565769597,55.773111452],[12.566575891,55.773425874],[12.567120368,55.773711375],[12.568292952,55.774133845],[12.569822672,55.774564182],[12.571461353,55.774945677],[12.573066084,55.775309878],[12.572868557,55.775452588],[12.57248382,55.775673793],[12.572010997,55.776171484],[12.571863289,55.776504493],[12.571619782,55.776675932],[12.571144232,55.776790203],[12.570669832,55.776740084],[12.569795151,55.776564638],[12.569973653,55.77743687],[12.575846902,55.777752278],[12.57659879,55.777737973],[12.576916312,55.778251319],[12.578442148,55.778382173],[12.57925139,55.775092941],[12.580428575,55.775122898],[12.581499222,55.775039799],[12.583946464,55.775648999],[12.585486133,55.776290984],[12.5868753,55.777004844],[12.58591813,55.778311258],[12.589741504,55.77891723],[12.589107818,55.78025645],[12.591830122,55.780767071],[12.592362521,55.782699048],[12.59060905,55.782734784],[12.590518489,55.782949943],[12.590502392,55.783074811],[12.590539432,55.783177392],[12.590680231,55.783308038],[12.590816271,55.783386991],[12.590924792,55.783466748],[12.591069403,55.783638748],[12.591140628,55.783812893],[12.591126311,55.784056922],[12.590940773,55.784539202],[12.591511993,55.784509711],[12.59280268,55.784366374],[12.592896209,55.784647865],[12.591488095,55.784821919],[12.591098035,55.786967307],[12.589796997,55.787362309],[12.589899091,55.788152576],[12.590244268,55.788135631],[12.590222461,55.788941295],[12.589130054,55.788884131],[12.588755727,55.789112244],[12.588562332,55.789802829],[12.590783421,55.789988491],[12.590486095,55.790838037],[12.589948093,55.791804411],[12.587343841,55.796393099],[12.586394881,55.797874521],[12.585988248,55.798959692],[12.586061545,55.79909154],[12.585227596,55.798997054],[12.584803036,55.799513256],[12.58482101,55.799708658],[12.584348162,55.800240263],[12.583813802,55.800913608],[12.58380956,55.801137647],[12.583477659,55.801581168],[12.583194817,55.801477462],[12.582730023,55.801826893],[12.58318208,55.802149579],[12.583961423,55.802518694],[12.584817688,55.802913548],[12.585403049,55.8030644],[12.585213034,55.803699708],[12.58534841,55.803721543],[12.585326284,55.803850345],[12.585769772,55.803809409],[12.586104769,55.803939577],[12.586670879,55.803881064],[12.586902901,55.803972252],[12.587294989,55.803373022],[12.587809285,55.802235094],[12.588563701,55.800474039],[12.589481217,55.797865876],[12.589826983,55.796608353],[12.590038751,55.796088885],[12.589991026,55.7960723],[12.589969924,55.795976096],[12.590164436,55.79556011],[12.591001938,55.794387839],[12.591003356,55.794385854],[12.591708275,55.793399103],[12.591849365,55.79314209],[12.592182258,55.792697151],[12.592304597,55.792440956],[12.592451491,55.792227013],[12.59276778,55.791764848],[12.592937373,55.791378893],[12.593252426,55.790974838],[12.593639711,55.790660635],[12.59378683,55.790505398],[12.594139104,55.790133684],[12.594410357,55.789698723],[12.594549551,55.789368673],[12.594812059,55.788998785],[12.595178907,55.788701626],[12.595380023,55.788722079],[12.595447754,55.788503348],[12.595626652,55.788359935],[12.595374832,55.788130693],[12.595451796,55.787204453],[12.595565801,55.78701808],[12.595372019,55.786898703],[12.595392278,55.786551907],[12.595449896,55.786548872],[12.595430734,55.786211231],[12.595346195,55.786052158],[12.59510756,55.785828732],[12.594935212,55.785791885],[12.594897924,55.785687164],[12.594643283,55.785355698],[12.594314036,55.78500421],[12.594137798,55.784723848],[12.593953952,55.78387842],[12.593610662,55.782412049],[12.593356435,55.780931025],[12.59321897,55.780317259],[12.593181881,55.78016174],[12.593112724,55.779768116],[12.593038981,55.779567461],[12.592989651,55.779436123],[12.592690589,55.778643241],[12.592389671,55.777735791],[12.592305762,55.777079013],[12.592268914,55.776713212],[12.592250092,55.776348861],[12.592216744,55.776146754],[12.59231017,55.775882773],[12.592350435,55.775201595],[12.592362149,55.774848847],[12.59244393,55.774618469],[12.592676478,55.774289735],[12.592799354,55.774085664],[12.59309582,55.77386968],[12.5937398,55.773515058],[12.594685817,55.773085153],[12.595442741,55.7726775],[12.595738942,55.772540269],[12.596331253,55.772038003],[12.59650894,55.771957911],[12.596537087,55.771813786],[12.596445934,55.771752448],[12.596705531,55.771218302],[12.596781973,55.770610768],[12.596700301,55.769804783],[12.59662908,55.768791094],[12.596810372,55.767807225],[12.597047554,55.766950365],[12.597769953,55.765614952],[12.598262723,55.764974448],[12.598806431,55.764571313],[12.599854583,55.764045413],[12.601285757,55.763321097],[12.601633883,55.763094854],[12.60160267,55.762936198],[12.600103752,55.762960208],[12.60003857,55.762910786],[12.600031058,55.762021088],[12.600059531,55.761987619],[12.599994448,55.761849464],[12.599990395,55.760867517],[12.60115654,55.760846348],[12.601184101,55.760512281],[12.600000551,55.760498631],[12.599996496,55.759612157],[12.601180697,55.759634598],[12.601345723,55.759526282],[12.600879862,55.759271418],[12.598775544,55.758124426],[12.598050568,55.757689976],[12.597569681,55.757157141],[12.59750494,55.757085404],[12.597169869,55.756714125],[12.59394575,55.752831225],[12.592296728,55.750921125],[12.591945899,55.750497267],[12.591653962,55.750291938],[12.5911232,55.749985538],[12.590741628,55.749843244],[12.590515237,55.749415651],[12.590339056,55.749173761],[12.590290604,55.749130049],[12.590211128,55.749070613],[12.590029416,55.748811443],[12.589782393,55.74829797],[12.589640921,55.747765768],[12.589594508,55.7472609],[12.589512354,55.747208015],[12.589417636,55.747075666],[12.589332978,55.746939787],[12.589334536,55.746509122],[12.589258461,55.746192023],[12.589065904,55.745661584],[12.588878711,55.745259543],[12.588805721,55.744795727],[12.588572218,55.744519013],[12.588139352,55.744289839],[12.587717061,55.743612026],[12.587610229,55.743367656],[12.587422423,55.743170422],[12.587195757,55.743016577],[12.587027475,55.742791442],[12.587018625,55.742633568],[12.586184839,55.741647824],[12.585393748,55.740591246],[12.585295557,55.740505204],[12.584368586,55.739793398],[12.584158257,55.739560858],[12.583891361,55.739006871],[12.583632878,55.738382606],[12.582998996,55.736718827],[12.582709324,55.735744145],[12.582648681,55.735315027],[12.582750861,55.735226999],[12.582791131,55.735160286],[12.582510348,55.734945803],[12.582422405,55.734051264],[12.58240477,55.73278132],[12.582358669,55.732406078],[12.582252375,55.732229921],[12.581992745,55.73220145],[12.580510135,55.732327428],[12.580434475,55.731613677],[12.5811929,55.731540482],[12.581546661,55.731573848],[12.581576271,55.731474005],[12.581516787,55.730839433],[12.581396404,55.730627008],[12.581415393,55.730530262],[12.581476705,55.730400725],[12.581519634,55.730148023],[12.581580709,55.729686225],[12.581899602,55.729104347],[12.58204799,55.729028904],[12.583193496,55.728750033],[12.584046412,55.728694917],[12.585321694,55.728632128],[12.585976924,55.728600575],[12.586428579,55.728499722],[12.586975257,55.728211706],[12.587978325,55.727286528],[12.586253624,55.726450269],[12.585382101,55.727214175],[12.583696206,55.72685505],[12.583576203,55.726829487],[12.583661267,55.726697641],[12.583504836,55.726631494],[12.584009428,55.726121747],[12.583501709,55.726040272],[12.583652086,55.725771043],[12.585426643,55.726039377],[12.58541936,55.725808192],[12.586567448,55.725814161],[12.58713485,55.725797574],[12.587468842,55.725673141],[12.587499032,55.725448652],[12.587740098,55.725418669],[12.587205474,55.724906819],[12.586522074,55.72476626],[12.585972328,55.724753661],[12.585389926,55.724828015],[12.58515956,55.72353273],[12.585074543,55.723377332],[12.58500282,55.723314066],[12.584147943,55.722621377],[12.584128594,55.722550667],[12.584049948,55.722263293],[12.583987913,55.722264386],[12.583722823,55.722251633],[12.583357152,55.722108945],[12.583132663,55.721990181],[12.583074166,55.721780535],[12.583120456,55.721498786],[12.583320016,55.720354111],[12.583532064,55.719130302],[12.583552276,55.719023571],[12.583775698,55.717967091],[12.583884048,55.717518474],[12.58410501,55.717351188],[12.58443174,55.717273049],[12.586735014,55.71756551],[12.587010578,55.71772993],[12.587060366,55.717759636],[12.587601848,55.718082711],[12.58817952,55.718311422],[12.591079971,55.718717681],[12.591513854,55.71870498],[12.591884597,55.718665537],[12.592289929,55.718562333],[12.59260828,55.718393078],[12.592398978,55.718096603],[12.591278617,55.718346334],[12.590992377,55.717944319],[12.590613198,55.717931864],[12.589131328,55.717730134],[12.588933737,55.717703232],[12.584086894,55.717043272],[12.584026838,55.716926897],[12.584204041,55.716194973],[12.58422222,55.715966365],[12.584413166,55.71576975],[12.584642117,55.715695456],[12.585503217,55.71607493],[12.585608934,55.716020329],[12.585976524,55.715619466],[12.586032563,55.715558354],[12.586989952,55.714560347],[12.586818462,55.714322005],[12.587786302,55.714120109],[12.588235255,55.714629924],[12.588471816,55.714695914],[12.588818203,55.714624449],[12.589099953,55.714750897],[12.589168329,55.714800408],[12.589276053,55.7148307],[12.589397746,55.714814283],[12.589786651,55.714725591],[12.589711986,55.714589327],[12.589813538,55.714504907],[12.588760185,55.713032032],[12.588717899,55.712972904],[12.588485895,55.712648479],[12.588481202,55.712630663],[12.588414949,55.712335283],[12.588880073,55.711833481],[12.58935373,55.711372271],[12.589493316,55.711236349],[12.589572086,55.711159645],[12.589817739,55.710920432],[12.59006276,55.710582429],[12.590183759,55.710677329],[12.591184672,55.710826663],[12.591608819,55.710071222],[12.592577654,55.710383102],[12.590873969,55.712079958],[12.590033558,55.712112362],[12.59000321,55.71253475],[12.590507585,55.712531696],[12.591074235,55.713366014],[12.591147838,55.713469397],[12.591831579,55.714390806],[12.592209449,55.714987711],[12.593766051,55.717173735],[12.593583661,55.717247222],[12.593834122,55.71754986],[12.59403294,55.717493601],[12.595738891,55.719332324],[12.595540359,55.719397476],[12.595675728,55.719588142],[12.595898489,55.719680684],[12.598572067,55.719123034],[12.598690207,55.719287682],[12.600949941,55.718833997],[12.601052078,55.718990213],[12.603973902,55.718427944],[12.604774574,55.719680645],[12.600307727,55.720603742],[12.600737325,55.721727832],[12.601221383,55.722896622],[12.60115437,55.72333401],[12.601136303,55.723582901],[12.601223143,55.723715863],[12.601420009,55.723847519],[12.601664945,55.723954068],[12.602043534,55.723961911],[12.602407168,55.723934591],[12.602847537,55.723829152],[12.603600136,55.723631853],[12.604289344,55.723525556],[12.604557532,55.723483425],[12.60494247,55.723345984],[12.605710805,55.723209666],[12.606020737,55.723110514],[12.606206263,55.723409443],[12.606295991,55.723527633],[12.606376287,55.723687718],[12.60645148,55.723865596],[12.605284385,55.72432168],[12.604675153,55.724572078],[12.604581041,55.72458725],[12.604454468,55.724593754],[12.60305743,55.725031623],[12.603043977,55.725250018],[12.603302623,55.725322988],[12.603945913,55.72510505],[12.604054004,55.725002353],[12.604261809,55.724797204],[12.604490628,55.724728874],[12.604824209,55.724794899],[12.609670976,55.722993696],[12.615765694,55.720616782],[12.620354964,55.723803062],[12.622808275,55.724419463],[12.625853835,55.724986412],[12.629150368,55.72519521],[12.632346054,55.725090818],[12.640008537,55.722385489],[12.621802263,55.714545648],[12.621785037,55.714359702],[12.62003396,55.713606324],[12.617668281,55.71255085],[12.617634201,55.71253466],[12.617261274,55.712357491],[12.616047721,55.712605603],[12.615237048,55.712771339],[12.606314007,55.714595136],[12.605345529,55.71479639],[12.605191515,55.714825459],[12.604897077,55.714857127],[12.604790402,55.715026397],[12.604699571,55.715159511],[12.602522272,55.715721068],[12.602421868,55.715736153],[12.602125186,55.715710791],[12.601052188,55.714611079],[12.600923372,55.714534399],[12.600877094,55.714539622],[12.600832663,55.714716052],[12.600800406,55.714830722],[12.600814622,55.715080588],[12.600850458,55.715435451],[12.600959633,55.715578334],[12.601164069,55.715817133],[12.598978826,55.716234835],[12.598543761,55.715740652],[12.59848828,55.715668719],[12.598417233,55.715576601],[12.598002219,55.715038503],[12.597562919,55.714527989],[12.597880343,55.714452699],[12.598316781,55.714349182],[12.599837527,55.714031899],[12.600317493,55.713996776],[12.60045744,55.714260465],[12.600735562,55.714195699],[12.601000784,55.713900184],[12.601933829,55.713688833],[12.60221228,55.713718392],[12.602575549,55.71439639],[12.602487258,55.714526339],[12.602513893,55.714634045],[12.602688355,55.714713825],[12.603005445,55.71470923],[12.603310394,55.714572918],[12.605613783,55.714090153],[12.609573836,55.71327088],[12.615660057,55.71199165],[12.615792282,55.711840346],[12.615662568,55.711567043],[12.611785235,55.709729598],[12.611632905,55.709663328],[12.611305983,55.709289695],[12.611294578,55.709166209],[12.611421379,55.708956107],[12.611216436,55.708885489],[12.61098494,55.709092777],[12.611026503,55.709203583],[12.610278153,55.709355328],[12.610406192,55.709610996],[12.606709245,55.710403716],[12.606641276,55.710392732],[12.606649253,55.710366721],[12.599749758,55.711815603],[12.599530456,55.711551114],[12.597588906,55.711963657],[12.59774371,55.712179242],[12.596261871,55.712535948],[12.595354272,55.71130953],[12.603287813,55.709688263],[12.604162537,55.709082823],[12.604848123,55.708579347],[12.604829103,55.708518325],[12.605320842,55.708155375],[12.605248567,55.708022037],[12.595447191,55.710036853],[12.595353005,55.709827955],[12.595052346,55.709819833],[12.594855854,55.708987423],[12.598941641,55.708249573],[12.598940466,55.707910952],[12.602211532,55.707120694],[12.603338186,55.706003905],[12.599024336,55.706867127],[12.598922178,55.706734662],[12.597744108,55.706642226],[12.597752072,55.706565795],[12.596478851,55.706416872],[12.596427575,55.706511505],[12.59203583,55.70603908],[12.592439754,55.705205684],[12.592622607,55.704402279],[12.594923581,55.704667594],[12.598654003,55.705078969],[12.598666984,55.70549974],[12.598920899,55.705498275],[12.598919575,55.705441506],[12.598936104,55.705441116],[12.598970853,55.705419727],[12.599020708,55.705027356],[12.598963247,55.704255148],[12.59763057,55.703325893],[12.59461092,55.703025052],[12.594803649,55.702806127],[12.594845109,55.702506927],[12.594930731,55.702003313],[12.594777624,55.701748792],[12.595512388,55.701818655],[12.595644149,55.701755383],[12.595372274,55.701438882],[12.59745841,55.702562356],[12.59756822,55.702582836],[12.597668632,55.702566347],[12.597719345,55.702531002],[12.597700241,55.702453687],[12.596917693,55.701833329],[12.596471253,55.701477363],[12.596276741,55.701330106],[12.596450451,55.701251122],[12.596793851,55.701203808],[12.596172862,55.699412994],[12.596061264,55.699074006],[12.595601835,55.697678378],[12.594904325,55.695812339],[12.59637816,55.6957014],[12.597230929,55.69876317],[12.597294692,55.69899684],[12.597340571,55.699010328],[12.59738912,55.699051426],[12.597489082,55.699057664],[12.597564151,55.699035953],[12.597604621,55.69898775],[12.597610487,55.698941638],[12.597558783,55.698752026],[12.598362722,55.698684123],[12.597932704,55.697667289],[12.5980754,55.69765717],[12.597565884,55.695605961],[12.598774277,55.695510266],[12.599147021,55.698195875],[12.599625409,55.702654529],[12.600877023,55.703484567],[12.600754555,55.703522022],[12.600688392,55.703584909],[12.600750917,55.703677877],[12.600855993,55.703712037],[12.601022807,55.703695619],[12.601072276,55.703651514],[12.601169436,55.703729921],[12.60189358,55.704040472],[12.602195305,55.704126416],[12.602633327,55.704194812],[12.602709512,55.704175644],[12.602735056,55.704127492],[12.602725343,55.704087148],[12.602675016,55.704061539],[12.602596343,55.704053692],[12.602499038,55.704103952],[12.602193509,55.704041822],[12.601248179,55.703673436],[12.600916925,55.7005508],[12.600904804,55.700421948],[12.600892374,55.700289848],[12.6005086,55.695541248],[12.600493079,55.695438558],[12.60041474,55.695405421],[12.6004409,55.695280625],[12.60062885,55.69507312],[12.600724892,55.694889574],[12.600757539,55.6945626],[12.600808402,55.694433536],[12.60085869,55.694230071],[12.600753048,55.694172931],[12.600602877,55.69417734],[12.600390878,55.694396183],[12.600189531,55.694798981],[12.600123954,55.694836343],[12.600035379,55.694828312],[12.598529832,55.694216922],[12.598547221,55.693723845],[12.599672991,55.693549062],[12.600038508,55.693839543],[12.600096044,55.693919358],[12.600134807,55.693999724],[12.600396225,55.694045204],[12.60048195,55.693954097],[12.600479426,55.693858492],[12.60045415,55.693788361],[12.600476252,55.69375582],[12.600410181,55.69365145],[12.600386612,55.693531658],[12.600289582,55.693431741],[12.60008594,55.69326408],[12.599721895,55.693125933],[12.599345419,55.69292082],[12.599147189,55.692787912],[12.598996104,55.692622434],[12.598810863,55.691857245],[12.598901368,55.691455431],[12.599324679,55.691175554],[12.599745259,55.691095785],[12.600338732,55.691069013],[12.599895166,55.688936209],[12.599744933,55.688929594],[12.599653309,55.689312632],[12.599180867,55.689339361],[12.598839868,55.68909764],[12.598868262,55.688911226],[12.599350934,55.688748228],[12.599442092,55.688183297],[12.598842853,55.687326264],[12.597991687,55.686324762],[12.597654555,55.685914413],[12.59588504,55.683760429],[12.594977361,55.682668836],[12.594815902,55.682474654],[12.593786438,55.681236509],[12.594492197,55.681056718],[12.594580947,55.681165382],[12.594838057,55.681105921],[12.596273264,55.682866343],[12.596984999,55.682675615],[12.595328113,55.680676276],[12.595098806,55.68037134],[12.59543447,55.680309574],[12.594688828,55.679410791],[12.594381892,55.679496474],[12.593961295,55.679071708],[12.591757857,55.679672976],[12.591227213,55.679817796],[12.587960745,55.680669479],[12.58782109,55.680455828],[12.590553402,55.679677865],[12.591553085,55.679416286],[12.592981051,55.679044427],[12.59361021,55.678878014],[12.592719152,55.678149591],[12.590483962,55.676949179],[12.589730297,55.676650482],[12.589321709,55.676512547],[12.588515588,55.676240405],[12.588644486,55.676089194],[12.588412114,55.676013376],[12.588495525,55.675921306],[12.587963347,55.675766879],[12.587886252,55.675837638],[12.587470077,55.675717663],[12.587293262,55.675238544],[12.587227453,55.675167199],[12.587127334,55.675058654],[12.586285333,55.674644303],[12.585423911,55.67417745],[12.584610519,55.674063138],[12.583494662,55.67350102],[12.583591265,55.673409184],[12.582059881,55.672882772],[12.58070301,55.672254815],[12.580600992,55.672287465],[12.580409607,55.672204042],[12.580073071,55.672399311],[12.579795026,55.672229405],[12.580066785,55.672043446],[12.578037848,55.670901399],[12.578105595,55.670802435],[12.578138758,55.670824072],[12.57978801,55.669999345],[12.583578897,55.672347956],[12.585554837,55.671309543],[12.587224003,55.670522116],[12.587209423,55.670513045],[12.587458127,55.670366114],[12.587851447,55.670550179],[12.587865482,55.670542207],[12.589709523,55.671649343],[12.589715522,55.671646153],[12.590738187,55.672273105],[12.590762915,55.672271504],[12.590749637,55.672278938],[12.590921151,55.672404524],[12.590683375,55.672553588],[12.590676441,55.672549467],[12.587567691,55.670609506],[12.585870576,55.671517315],[12.583964615,55.672565188],[12.585060889,55.673158674],[12.585585328,55.673442711],[12.585796566,55.673436534],[12.585960132,55.673540564],[12.586117735,55.67357948],[12.587410396,55.674238067],[12.58744551,55.674411142],[12.586774726,55.674866019],[12.587118099,55.675040956],[12.587806095,55.674563811],[12.589101801,55.675254936],[12.589855348,55.674862911],[12.589911965,55.674850373],[12.589808978,55.674777219],[12.590083109,55.674616854],[12.590142711,55.674636872],[12.590224504,55.674688883],[12.590283076,55.674659771],[12.590261916,55.674676906],[12.590384086,55.674867192],[12.589459712,55.675446637],[12.591265448,55.676170901],[12.591696914,55.676239284],[12.592402085,55.675756758],[12.592424975,55.675757927],[12.592682897,55.675879106],[12.591987194,55.676359012],[12.59518309,55.677705481],[12.596094452,55.677171906],[12.596649595,55.677327099],[12.595730681,55.677965614],[12.59629388,55.67820556],[12.596693167,55.678371399],[12.598421962,55.677807751],[12.598446835,55.677698517],[12.596257184,55.676095751],[12.594252383,55.674793311],[12.593993062,55.674820641],[12.59333243,55.675403055],[12.592915628,55.675687304],[12.592794141,55.675832321],[12.592528552,55.675666004],[12.592525093,55.675628312],[12.592565964,55.675654025],[12.593538259,55.674918246],[12.593531639,55.674910919],[12.593956046,55.674644849],[12.5937603,55.674400315],[12.592378198,55.6735363],[12.592597375,55.673440075],[12.594055077,55.674320951],[12.594042381,55.674326758],[12.595959158,55.675489268],[12.59600159,55.675490833],[12.59644897,55.675790461],[12.596543247,55.675821137],[12.599054521,55.677531193],[12.600239797,55.677139983],[12.60025172,55.677147841],[12.600266028,55.677131325],[12.600755285,55.676969834],[12.60084752,55.676848785],[12.600901775,55.676679505],[12.600948374,55.676613312],[12.601055008,55.67661018],[12.601148252,55.676752398],[12.601156563,55.676842752],[12.6011439,55.676879363],[12.601125216,55.677024869],[12.601161984,55.677250284],[12.601022831,55.677345551],[12.60100515,55.677331899],[12.600857398,55.677381537],[12.600809429,55.677382946],[12.600811091,55.677401016],[12.600461698,55.677524523],[12.600428885,55.677516427],[12.600383824,55.677549461],[12.599778066,55.677762032],[12.599698117,55.677764379],[12.599669043,55.677796942],[12.599342383,55.677906188],[12.598904516,55.678113827],[12.598859554,55.67806079],[12.598672237,55.678116114],[12.598654585,55.678098514],[12.597775296,55.678369244],[12.597875004,55.678504414],[12.596794203,55.678901089],[12.597821819,55.680015159],[12.600098748,55.679505689],[12.599126942,55.678260529],[12.599476269,55.678072724],[12.600570269,55.679315177],[12.60072717,55.679364928],[12.601032759,55.679288005],[12.601057578,55.679296338],[12.601629192,55.679148182],[12.601678509,55.679074253],[12.602353227,55.678914006],[12.602475238,55.67893307],[12.602609497,55.678911008],[12.602713104,55.679033215],[12.600750579,55.679533363],[12.601364384,55.680273674],[12.600921845,55.680415375],[12.600571369,55.67997704],[12.598851708,55.680434091],[12.599388096,55.681680105],[12.59947354,55.681657882],[12.599499295,55.681810027],[12.599185303,55.68190336],[12.59989414,55.682730735],[12.600172303,55.682652472],[12.600257476,55.682769138],[12.600261334,55.682811082],[12.600274575,55.682814645],[12.600261977,55.682818073],[12.600734132,55.683364991],[12.600898736,55.683321244],[12.601112828,55.683578532],[12.600980658,55.683617114],[12.601295336,55.684070517],[12.603593621,55.683428197],[12.60334708,55.68317608],[12.603660431,55.683075744],[12.603683755,55.683070577],[12.604256765,55.683736988],[12.605624685,55.683564263],[12.605643205,55.683510713],[12.605221473,55.683006316],[12.605840855,55.682855593],[12.606465552,55.683526284],[12.606560336,55.683536747],[12.60665512,55.683547211],[12.606572513,55.6836689],[12.60666385,55.68375281],[12.60460978,55.684026016],[12.605333446,55.684949637],[12.6051897,55.685039763],[12.605504748,55.685438048],[12.605732066,55.685411079],[12.605757946,55.685536087],[12.605784481,55.686379493],[12.605193075,55.686396881],[12.605252072,55.68737258],[12.605756257,55.687544381],[12.605771922,55.687728488],[12.605766516,55.688329945],[12.605797616,55.688382976],[12.605799694,55.688561426],[12.604064124,55.688588102],[12.604033528,55.688645801],[12.603937725,55.688697301],[12.603935033,55.688746065],[12.605807365,55.688800566],[12.605823103,55.688893416],[12.605572039,55.688896741],[12.605557103,55.689124376],[12.606974918,55.689468103],[12.607336486,55.689416897],[12.60781284,55.689249017],[12.60819906,55.688178459],[12.608222037,55.687804533],[12.608089765,55.687634543],[12.607812851,55.68759974],[12.609233657,55.684044627],[12.609612742,55.684033468],[12.609766745,55.684054705],[12.609797558,55.684059085],[12.609801812,55.684105213],[12.609756961,55.684278332],[12.609700258,55.684322952],[12.609706578,55.684391485],[12.609022985,55.685717284],[12.608937531,55.68577993],[12.608961386,55.685873717],[12.608805486,55.686161775],[12.608672802,55.686371839],[12.608616884,55.686425024],[12.608580079,55.686520599],[12.608630313,55.686570659],[12.608374532,55.687199601],[12.608481445,55.687346566],[12.608644695,55.687386284],[12.609324957,55.687459682],[12.609422846,55.687586627],[12.609692401,55.687550294],[12.609882063,55.687942575],[12.610233226,55.687958006],[12.610231495,55.688104089],[12.610337915,55.689020234],[12.610529673,55.689152529],[12.610748145,55.689340836],[12.610628551,55.689445784],[12.610378909,55.689542389],[12.610349485,55.689523693],[12.610257354,55.689314715],[12.606462841,55.689990296],[12.606597061,55.690364537],[12.606575695,55.690399948],[12.606654502,55.690453282],[12.60668418,55.690508061],[12.610099653,55.689885829],[12.610361186,55.690374078],[12.609199052,55.690588318],[12.609039421,55.690593016],[12.608964456,55.690647965],[12.607260059,55.690969355],[12.607138256,55.690950334],[12.607062595,55.690997767],[12.606722265,55.691068054],[12.607069632,55.692376389],[12.608996782,55.692010774],[12.609026159,55.692040049],[12.611032397,55.691664537],[12.611164731,55.691653107],[12.611303306,55.691709303],[12.611308854,55.691769416],[12.611252207,55.691827091],[12.611194688,55.691852955],[12.607093517,55.692627092],[12.607592514,55.694500134],[12.607603401,55.694510983],[12.607733139,55.69452392],[12.607827133,55.694470892],[12.609518866,55.694158619],[12.609623548,55.694328673],[12.60963742,55.694325868],[12.610054122,55.695065526],[12.607756346,55.69548871],[12.608188827,55.697328297],[12.608348312,55.697279287],[12.608565081,55.697137167],[12.608549416,55.697130353],[12.608614114,55.697073638],[12.608728979,55.697117911],[12.608746197,55.697115711],[12.60875176,55.697104466],[12.608659854,55.69705546],[12.610482802,55.695848887],[12.610437149,55.695747314],[12.61269068,55.6953073],[12.613197935,55.696178274],[12.612569978,55.69631128],[12.612345947,55.696311853],[12.611674306,55.696434085],[12.611551601,55.696491939],[12.611555568,55.696562471],[12.609963001,55.696819247],[12.609421067,55.697189218],[12.609273458,55.697167828],[12.609244905,55.697177694],[12.609245096,55.697194944],[12.609296623,55.697211168],[12.609307989,55.697204042],[12.609806196,55.697271154],[12.609581337,55.697732301],[12.609551561,55.69772916],[12.609537443,55.697760511],[12.609621181,55.697772372],[12.609630934,55.697739844],[12.609602939,55.697737209],[12.609842088,55.697275532],[12.611185235,55.697473964],[12.611203998,55.697484853],[12.611312557,55.697599513],[12.611539638,55.697627717],[12.619276903,55.698025259],[12.619352344,55.698043849],[12.619392944,55.698084286],[12.628875181,55.697387743],[12.629110263,55.697339154],[12.629305695,55.69726051],[12.629481786,55.697172029],[12.629565015,55.697075888],[12.630038453,55.696021009],[12.630367437,55.695055528],[12.630387554,55.695024648],[12.630404299,55.694973964],[12.630406353,55.69492023],[12.630407873,55.694880407],[12.630390126,55.694821227],[12.630368108,55.694782075],[12.630326394,55.694728795],[12.630284598,55.694691095],[12.630236926,55.694656162],[12.630197935,55.694632223],[12.630122365,55.694593792],[12.630012924,55.694554141],[12.625451239,55.692857152],[12.625430407,55.692848799],[12.625300742,55.692633005],[12.625305993,55.692450518],[12.625162065,55.692395945],[12.625218629,55.692257003],[12.62524238,55.692138642],[12.625189068,55.692003504],[12.62483714,55.691432176],[12.624860807,55.69143608],[12.624836026,55.691390388],[12.624863038,55.691384855],[12.624826723,55.691373232],[12.624749219,55.69123032],[12.624643075,55.691225992],[12.624467037,55.690895211],[12.62446083,55.690828197],[12.624469185,55.690775685],[12.62442136,55.690687503],[12.624286175,55.690512306],[12.62414953,55.69046408],[12.62408293,55.690458583],[12.62410102,55.690368452],[12.624824016,55.690182824],[12.62483444,55.69015265],[12.625195247,55.690052389],[12.62514045,55.69003161],[12.624830991,55.690115421],[12.624679788,55.690052694],[12.623269885,55.690385545],[12.619659945,55.689797781],[12.619703718,55.689699426],[12.619741885,55.689683368],[12.619750935,55.689638303],[12.61974818,55.689608518],[12.619928085,55.689267224],[12.619871918,55.689231551],[12.620252576,55.688488614],[12.619730937,55.688421883],[12.619307971,55.689136201],[12.618986111,55.68908597],[12.618983356,55.689056186],[12.618839051,55.689067909],[12.617602276,55.68884308],[12.617453842,55.688810128],[12.617403181,55.688834021],[12.616288496,55.688642908],[12.616194744,55.688772599],[12.616033814,55.68874748],[12.61614006,55.688609952],[12.616033924,55.688605617],[12.61593615,55.68854877],[12.615673904,55.688571434],[12.615569143,55.68858199],[12.61552616,55.688545925],[12.615450513,55.688585488],[12.614236465,55.688606341],[12.614217601,55.688609393],[12.61416582,55.688576502],[12.614083056,55.688613723],[12.613562761,55.688580361],[12.613561085,55.68858145],[12.613625478,55.687159308],[12.613615563,55.687156569],[12.613633816,55.687143005],[12.613692616,55.687115274],[12.614063769,55.687147667],[12.614479218,55.687161419],[12.614880971,55.687192906],[12.615175631,55.68722755],[12.615422002,55.687237618],[12.616069326,55.687270526],[12.616650667,55.687253382],[12.616925238,55.687236619],[12.617469592,55.687151234],[12.617724072,55.687083066],[12.618061667,55.686752467],[12.619732835,55.687240436],[12.61973923,55.687309574],[12.619760921,55.687378261],[12.619869609,55.687392385],[12.619943702,55.687364199],[12.620045198,55.687300542],[12.619969614,55.687146788],[12.619987267,55.687142006],[12.622448444,55.687852758],[12.622459368,55.687841557],[12.622925543,55.687970347],[12.622832033,55.688104793],[12.623378061,55.6882802],[12.623465915,55.688313519],[12.62448906,55.688606507],[12.62460247,55.688686952],[12.624710351,55.688707706],[12.624814915,55.688692644],[12.624913953,55.68861789],[12.625131928,55.688683273],[12.625279865,55.6886789],[12.625315496,55.68860602],[12.625392291,55.68851995],[12.625816311,55.688064477],[12.62621331,55.688232309],[12.625694685,55.688810291],[12.626392762,55.689711434],[12.626104622,55.689803754],[12.626147999,55.689814442],[12.626438353,55.689745999],[12.626547345,55.689778691],[12.627357205,55.689599112],[12.628186185,55.688940113],[12.628786798,55.689018113],[12.628904646,55.689146309],[12.629429583,55.689322314],[12.629432905,55.689358129],[12.630398258,55.689712634],[12.63054509,55.689696316],[12.631860804,55.690172121],[12.6321255,55.690283995],[12.632847331,55.690525981],[12.635862482,55.687850827],[12.635964821,55.687811879],[12.635959275,55.687752186],[12.633660462,55.686958393],[12.633653811,55.686886763],[12.631718625,55.686227968],[12.631865325,55.68611246],[12.630601372,55.685638538],[12.630220222,55.685772102],[12.629608028,55.685534114],[12.62849265,55.685160102],[12.628484902,55.685076532],[12.62835745,55.685009391],[12.628274301,55.685014552],[12.627737522,55.684817157],[12.627260569,55.684669817],[12.626856544,55.684540852],[12.626777967,55.684492552],[12.626613453,55.684317849],[12.626603497,55.684210402],[12.626496733,55.684201588],[12.626470069,55.684142521],[12.626293274,55.68406395],[12.626150882,55.684128018],[12.625919543,55.68414683],[12.625901868,55.684163713],[12.624979924,55.683839416],[12.62077973,55.681050571],[12.620873897,55.680978135],[12.62088959,55.680975595],[12.620883984,55.680914998],[12.62152961,55.680221457],[12.621504795,55.680185733],[12.621550571,55.680099312],[12.621634127,55.680072538],[12.621692868,55.680010041],[12.623493599,55.677966734],[12.623494101,55.677975941],[12.625302712,55.675962092],[12.625265103,55.675935991],[12.627003204,55.673978899],[12.627095525,55.673932487],[12.627049918,55.673857393],[12.627212265,55.673732469],[12.627290359,55.673741078],[12.627365427,55.673717016],[12.627361391,55.673673454],[12.627202177,55.673623564],[12.627891194,55.672926116],[12.627986539,55.672912374],[12.62799673,55.672813788],[12.628542657,55.672240695],[12.628600467,55.672238984],[12.628666447,55.672116908],[12.628775007,55.672037253],[12.62891091,55.672044149],[12.629309626,55.671759339],[12.62940093,55.671702035],[12.629689065,55.671475098],[12.630379935,55.671006907],[12.630572635,55.671001201],[12.630646686,55.670966247],[12.630918482,55.67098004],[12.631972188,55.671090792],[12.632424488,55.671175675],[12.632737949,55.671294576],[12.632710281,55.671316368],[12.633156622,55.671543481],[12.63331054,55.671827327],[12.633493527,55.671966108],[12.630651249,55.673876888],[12.630496363,55.674016444],[12.624946598,55.680458891],[12.624700536,55.680988632],[12.624804685,55.681263461],[12.625062724,55.681500391],[12.626865392,55.682269691],[12.635391072,55.685034516],[12.636901427,55.683473466],[12.638732638,55.684630493],[12.637714509,55.685587946],[12.637767807,55.685605812],[12.639045564,55.684610091],[12.64028815,55.683372642],[12.640223097,55.683307875],[12.638941308,55.684335276],[12.638711225,55.684274809],[12.637000445,55.683275375],[12.639266584,55.680436806],[12.635444462,55.679695274],[12.635346727,55.678812497],[12.635080238,55.678907913],[12.635006873,55.679600489],[12.63417773,55.679381968],[12.634084716,55.679306933],[12.634602454,55.678766494],[12.63461179,55.677754925],[12.634910796,55.677639097],[12.633969701,55.676638614],[12.633773343,55.676356025],[12.633304702,55.675889235],[12.634697252,55.675895115],[12.636292872,55.67714109],[12.637310886,55.676983324],[12.637360709,55.6770703],[12.638699967,55.67688314],[12.638712583,55.676794312],[12.63932935,55.676693449],[12.640576792,55.678661364],[12.640719198,55.678733795],[12.640367358,55.679116603],[12.640499071,55.679160761],[12.640865997,55.67874123],[12.641238466,55.678818623],[12.64425254,55.679024648],[12.643266595,55.680070709],[12.643479511,55.680215487],[12.644556333,55.679220507],[12.644724059,55.67907466],[12.647991169,55.676359379],[12.647635688,55.676128182],[12.648013605,55.675816195],[12.648066277,55.675507785],[12.647980176,55.675345436],[12.646352948,55.674479387],[12.644500246,55.672245834],[12.644180833,55.67191022],[12.643979895,55.671741699],[12.643536591,55.671623036],[12.643092611,55.671533579],[12.641627605,55.671488649],[12.641042629,55.670685445],[12.643949753,55.670040098],[12.64447404,55.670784751],[12.644841691,55.671343831],[12.644978887,55.671564654],[12.644977195,55.671615684],[12.644852116,55.671750671],[12.64496807,55.671890695],[12.64528355,55.671594372],[12.644637901,55.670628653],[12.644013529,55.669670054],[12.643055658,55.669551171],[12.641629555,55.667495753],[12.641134437,55.667483316],[12.641062764,55.667597896],[12.641270171,55.667615001],[12.641459212,55.667655917],[12.642998729,55.669897971],[12.641297167,55.670266485],[12.640448393,55.67021414],[12.639949749,55.66957363],[12.639367816,55.669587028],[12.639060716,55.669235527],[12.639321817,55.66909206],[12.639065863,55.668700264],[12.638848764,55.668505073],[12.638777142,55.668324951],[12.63995948,55.667463921],[12.640192817,55.667464748],[12.640288612,55.667388228],[12.640331831,55.667336537],[12.639272481,55.667232273],[12.63639009,55.666926166],[12.636143435,55.666929605],[12.63602529,55.66706107],[12.636273724,55.667150641],[12.636459544,55.667083087],[12.637328036,55.667200794],[12.638117126,55.668162292],[12.637191882,55.668837306],[12.63629483,55.669515433],[12.636226058,55.670169608],[12.636190764,55.670423523],[12.634629107,55.670343396],[12.633771935,55.670368805],[12.633462904,55.670464472],[12.632884327,55.670827648],[12.632709573,55.67091606],[12.632079804,55.670792754],[12.631457112,55.670745678],[12.630928749,55.670673964],[12.630899382,55.670565631],[12.631368074,55.670202297],[12.631555721,55.670142137],[12.631588199,55.670075653],[12.632202955,55.669620627],[12.631517602,55.669424858],[12.631616081,55.668545868],[12.634081343,55.665741795],[12.634190034,55.66559421],[12.634191937,55.665587186],[12.634205993,55.665589092],[12.634489265,55.66533132],[12.634406184,55.665311472],[12.634278367,55.66526787],[12.634278525,55.66526728],[12.633298035,55.665015189],[12.632077711,55.664899919],[12.632135314,55.664689422],[12.632286153,55.664696424],[12.632432264,55.664022847],[12.632753353,55.663666641],[12.632754314,55.663666569],[12.635139789,55.664251114],[12.635496649,55.664327334],[12.635829317,55.663370617],[12.63604957,55.662919581],[12.637029453,55.663000444],[12.63747492,55.66342695],[12.639106076,55.665068975],[12.639321423,55.665274765],[12.639435586,55.66540158],[12.639449679,55.665533627],[12.639438232,55.665613686],[12.639440449,55.665729356],[12.639377299,55.665784277],[12.639455871,55.665856648],[12.639645954,55.665920972],[12.63974403,55.665874658],[12.639785711,55.665680526],[12.639808571,55.665559289],[12.63968815,55.665365148],[12.639432511,55.66509304],[12.63903587,55.664588823],[12.639547555,55.663766555],[12.639939066,55.66310852],[12.640431276,55.662302016],[12.640798828,55.661707989],[12.641897347,55.660518691],[12.642156547,55.660214654],[12.643675731,55.658970895],[12.644593386,55.658325972],[12.644746039,55.658240179],[12.644983895,55.6580706],[12.646309812,55.657237748],[12.646889772,55.656838124],[12.648166352,55.655930245],[12.649078163,55.655372565],[12.650091581,55.655179883],[12.651873061,55.655155496],[12.65180383,55.655047628],[12.651535835,55.65507473],[12.651111208,55.655053922],[12.650332941,55.654957611],[12.65003654,55.654861286],[12.649892774,55.654769975],[12.649792044,55.654596128],[12.64949253,55.654284811],[12.648655978,55.653118937],[12.648207419,55.65223748],[12.648026516,55.651522812],[12.648029357,55.651090402],[12.648045582,55.650638013],[12.648105473,55.650373352],[12.648422219,55.649326743],[12.64860188,55.648805195],[12.648810831,55.648779857],[12.649030431,55.648778098],[12.649191026,55.648778096],[12.650135073,55.648659171],[12.650337363,55.648562333],[12.650483306,55.648405038],[12.65051834,55.648236707],[12.650340446,55.648232447],[12.650293874,55.648367664],[12.650211366,55.648480053],[12.649999315,55.648562842],[12.648431966,55.648705102],[12.648372957,55.64843442],[12.648743833,55.648423379],[12.648698578,55.648209643],[12.648319719,55.648225701],[12.648252285,55.648046082],[12.648251398,55.64803655]],[[12.606195321,55.712405602],[12.606359575,55.712192094],[12.606443712,55.712194342],[12.606176569,55.712541589],[12.605437428,55.712581176],[12.605614149,55.712555328],[12.6060827,55.712525264],[12.606195321,55.712405602]],[[12.600149407,55.713328821],[12.600272972,55.713346086],[12.600137669,55.713328629],[12.600138553,55.713328448],[12.600149407,55.713328821]],[[12.59811043,55.713742702],[12.598088055,55.713754522],[12.598097225,55.713744116],[12.59811043,55.713742702]],[[12.5975976,55.7137961],[12.597458219,55.713810729],[12.59757853,55.71379526],[12.5975976,55.7137961]],[[12.594865395,55.71394474],[12.594719592,55.714034068],[12.594626063,55.714031869],[12.594865395,55.71394474]]]]},"properties":{"gid":1,"id":1,"opland":"Renseanlæg Lynetten"}},{"type":"Feature","geometry":{"type":"MultiPolygon","coordinates":[[[[12.484910421,55.716222597],[12.484250874,55.716456962],[12.484252565,55.716457904],[12.484223611,55.71646665],[12.484250874,55.716456962],[12.484195455,55.716430397],[12.483416965,55.716057201],[12.483197274,55.715951884],[12.483210678,55.715947106],[12.484316322,55.715552912],[12.484742904,55.71540082],[12.48469908,55.715161158],[12.484634379,55.714573142],[12.484583971,55.714115009],[12.484580864,55.714086769],[12.485166884,55.714059407],[12.485274241,55.714054394],[12.48527334,55.714049253],[12.485213361,55.713707052],[12.485000038,55.712489943],[12.48485069,55.711822179],[12.484753058,55.711500498],[12.484659922,55.711193629],[12.4845571,55.711004166],[12.484079736,55.7102857],[12.483930135,55.710060535],[12.484395744,55.709858276],[12.484773347,55.709694244],[12.484499889,55.709397707],[12.483586564,55.708472693],[12.48295685,55.70795804],[12.482976837,55.707940516],[12.483002864,55.707917695],[12.483141147,55.707796447],[12.483127146,55.707791082],[12.483140803,55.707792579],[12.484224369,55.706932947],[12.48967783,55.70256508],[12.489767982,55.702493502],[12.49005531,55.702265371],[12.490252457,55.702108838],[12.4902868,55.702200277],[12.490822075,55.702131721],[12.490824143,55.702133235],[12.490847637,55.702133346],[12.491292636,55.702135467],[12.491568169,55.702628751],[12.491608952,55.702701762],[12.493963489,55.702589068],[12.494189172,55.702578264],[12.494162338,55.702277867],[12.496952325,55.702291376],[12.497039466,55.701874873],[12.4970995,55.701448054],[12.4970933,55.701447829],[12.49709917,55.701444368],[12.497170574,55.700844052],[12.497271892,55.700248532],[12.497277757,55.700214056],[12.501165788,55.700353272],[12.501202784,55.699917834],[12.501252066,55.699337777],[12.501288922,55.699314537],[12.50271522,55.69841511],[12.503506032,55.697916397],[12.503557865,55.697883708],[12.504717893,55.698225765],[12.505460492,55.698604755],[12.505980178,55.698956694],[12.506005427,55.699001898],[12.506189964,55.69908417],[12.5064869,55.698977845],[12.506564473,55.699020015],[12.506612821,55.699046298],[12.506723453,55.699106438],[12.506914701,55.699263556],[12.506952072,55.699352164],[12.507014478,55.699500128],[12.507275023,55.699643328],[12.507326731,55.699671748],[12.50752279,55.699820897],[12.50760694,55.699942571],[12.507627743,55.69997265],[12.507928863,55.700232798],[12.508772196,55.700961359],[12.510188562,55.702184003],[12.510942245,55.70200723],[12.511403235,55.701899103],[12.511646429,55.701806774],[12.511651494,55.701804851],[12.511983934,55.701692161],[12.513102172,55.701346565],[12.514783988,55.700826761],[12.515273348,55.701217269],[12.515404286,55.701321757],[12.517861959,55.70057594],[12.518876778,55.701948994],[12.51892101,55.702008838],[12.519431073,55.701558956],[12.519536576,55.701465899],[12.521979197,55.701045603],[12.522037094,55.701064496],[12.523987142,55.701700811],[12.524000709,55.701690733],[12.524034588,55.701665569],[12.5245183,55.701306262],[12.524547603,55.701284495],[12.525169879,55.701554266],[12.525709912,55.701819315],[12.526008855,55.701966034],[12.527266392,55.702583203],[12.527300732,55.702600056],[12.528193294,55.702186228],[12.5287849,55.701911926],[12.528811032,55.70189981],[12.52830776,55.701476552],[12.528337086,55.701199783],[12.528343649,55.70113784],[12.52937947,55.700345132],[12.530537202,55.699520671],[12.530898518,55.699263356],[12.530586744,55.699156508],[12.530436909,55.699105159],[12.530226402,55.698980326],[12.530110212,55.698911425],[12.529990501,55.698843595],[12.529865143,55.698783056],[12.529405998,55.698625739],[12.528498734,55.698187573],[12.528309565,55.698115637],[12.528024653,55.697994868],[12.527743225,55.697912691],[12.526343283,55.697305597],[12.525884134,55.697112096],[12.525176793,55.696800018],[12.522486104,55.695853286],[12.521059472,55.695256409],[12.51994999,55.694000071],[12.5189177,55.692616439],[12.518487285,55.692070974],[12.518588088,55.691538266],[12.517503121,55.690848681],[12.515373023,55.690239818],[12.514107828,55.69001698],[12.510423738,55.689113089],[12.50858104,55.688919816],[12.504102074,55.688029773],[12.499551514,55.686019303],[12.499502556,55.685981239],[12.50076667,55.685754798],[12.502854693,55.685440541],[12.504368579,55.685198759],[12.507879507,55.684463604],[12.507893307,55.684439112],[12.50792809,55.684422758],[12.510812913,55.68392386],[12.512396235,55.683654081],[12.517079694,55.68282565],[12.51708566,55.682834908],[12.517828972,55.682706974],[12.518328042,55.682621072],[12.518325663,55.682618364],[12.521518521,55.682047433],[12.524082476,55.68155428],[12.524446522,55.681533695],[12.52634968,55.681296508],[12.526356433,55.681270655],[12.525597891,55.681117983],[12.524726021,55.680614468],[12.524269205,55.680181128],[12.52188972,55.680182778],[12.520855121,55.677667101],[12.522359616,55.67753152],[12.522209318,55.676971336],[12.521913632,55.676410195],[12.520383532,55.676664539],[12.519389044,55.674188755],[12.521540965,55.673983279],[12.522899931,55.673846736],[12.522941999,55.673506827],[12.523029969,55.672970588],[12.523544676,55.67284816],[12.523990454,55.672772713],[12.52428603,55.672498285],[12.523952641,55.671631606],[12.523853737,55.671365027],[12.523703096,55.671385806],[12.518342535,55.671908108],[12.517901732,55.671329703],[12.517423198,55.670032507],[12.520697354,55.669746444],[12.520732073,55.669722212],[12.52394309,55.667480769],[12.525497032,55.667229992],[12.526795205,55.66720259],[12.526942517,55.66724245],[12.527277592,55.667192404],[12.527426215,55.667189265],[12.527361897,55.667179812],[12.527370287,55.667178559],[12.527523389,55.666851744],[12.527564272,55.666798983],[12.52764835,55.666719187],[12.52759533,55.666708989],[12.527600067,55.666708125],[12.527635971,55.66661124],[12.527670967,55.666504289],[12.527494379,55.666469755],[12.527197754,55.666424183],[12.527191934,55.666423535],[12.527197535,55.666421748],[12.527197754,55.666424183],[12.527718815,55.665251787],[12.52808296,55.664439172],[12.527829945,55.664246978],[12.527703019,55.663921569],[12.527657605,55.663912785],[12.527483108,55.663427279],[12.527373602,55.663429322],[12.527418913,55.663411425],[12.527659054,55.66332984],[12.530855968,55.663434721],[12.53159077,55.663403861],[12.531586509,55.663423526],[12.535483479,55.663271907],[12.535510084,55.663280902],[12.537973445,55.663170454],[12.539594926,55.662995653],[12.542370418,55.662609962],[12.54232839,55.662434019],[12.541882324,55.662122119],[12.541269514,55.66112117],[12.541318373,55.660794971],[12.541629789,55.660195451],[12.543306805,55.660015235],[12.543766234,55.660428972],[12.545354983,55.660958797],[12.546854081,55.661370494],[12.547690492,55.661360592],[12.548733059,55.661348239],[12.549863143,55.661138363],[12.550535037,55.661059853],[12.551056714,55.66018848],[12.552616167,55.660394271],[12.552278191,55.661275092],[12.554898756,55.661515274],[12.556718877,55.661521221],[12.556847385,55.660928249],[12.557919558,55.660828586],[12.557987001,55.660708524],[12.559219416,55.660341279],[12.559810794,55.660312053],[12.560622734,55.660087505],[12.559694094,55.659539368],[12.558211437,55.659316675],[12.558388498,55.658835783],[12.562070304,55.65938622],[12.563057284,55.659155338],[12.562114456,55.657900921],[12.562077051,55.657851155],[12.562217146,55.657782747],[12.559953403,55.654828297],[12.559947111,55.65480653],[12.558679303,55.653187371],[12.558567966,55.653045172],[12.552474957,55.654508622],[12.552475537,55.654509392],[12.549396778,55.655296291],[12.548885145,55.654647162],[12.55027474,55.654289656],[12.552377608,55.653748604],[12.550787465,55.652314026],[12.55152723,55.652039719],[12.553187834,55.653541306],[12.558381122,55.652195849],[12.558557357,55.651988535],[12.558607215,55.651821654],[12.558559813,55.651657594],[12.556461334,55.650027389],[12.555239908,55.649112544],[12.552983087,55.647330799],[12.552496787,55.647532168],[12.549523547,55.648620104],[12.549535326,55.648630738],[12.546803715,55.649636297],[12.546652007,55.649576352],[12.546599227,55.649531927],[12.545606124,55.649873144],[12.547073707,55.651083142],[12.547081529,55.651089594],[12.547179564,55.651454387],[12.547182447,55.651464019],[12.545209173,55.65159411],[12.543284595,55.649903512],[12.541506406,55.650486279],[12.541125826,55.650161201],[12.541106224,55.650162325],[12.543329948,55.649371433],[12.543834111,55.648745672],[12.545333651,55.646726289],[12.544387588,55.645899312],[12.544397431,55.645898623],[12.5444025,55.645890516],[12.544409363,55.645896443],[12.54488346,55.645702842],[12.545612876,55.645637355],[12.547346297,55.647171167],[12.5469228,55.647311871],[12.547317075,55.648411626],[12.550660741,55.64713827],[12.553165283,55.646269907],[12.553676996,55.646134695],[12.553991772,55.646331511],[12.555201672,55.647238687],[12.555550911,55.64711744],[12.555120968,55.64657444],[12.554851554,55.646245836],[12.554302599,55.645841232],[12.553287332,55.645123073],[12.55267861,55.644696834],[12.552260375,55.644412255],[12.552207662,55.644332012],[12.552124312,55.64427836],[12.552112585,55.644285708],[12.55204656,55.644240897],[12.552003772,55.64427017],[12.551398457,55.643881207],[12.550540882,55.643443479],[12.550576696,55.643428422],[12.550496203,55.643360667],[12.550508142,55.643355649],[12.549937939,55.64289791],[12.549079062,55.64221724],[12.549042931,55.642232428],[12.548714632,55.641857008],[12.548641267,55.641684839],[12.548669853,55.641575074],[12.549702947,55.640582897],[12.549639744,55.640427312],[12.548878195,55.640153057],[12.547827566,55.64102611],[12.54657843,55.641877119],[12.545188205,55.642435886],[12.543373347,55.642889486],[12.542241614,55.643013775],[12.541330068,55.64305101],[12.540897965,55.642638652],[12.541332013,55.641247144],[12.54133219,55.641247085],[12.541333726,55.641241649],[12.541338567,55.641226123],[12.541338122,55.641226078],[12.541541476,55.640505777],[12.541541607,55.64050517],[12.544319569,55.640498994],[12.54441184,55.640441178],[12.544422249,55.640376543],[12.546153725,55.639398184],[12.542010883,55.637247865],[12.542005744,55.637251173],[12.542009227,55.637229533],[12.541242702,55.6368381],[12.540832238,55.636611],[12.541283639,55.636211944],[12.541274533,55.636111108],[12.541128686,55.636115322],[12.541007318,55.636210738],[12.540799127,55.636244325],[12.540502939,55.636023113],[12.540603961,55.635882331],[12.540564928,55.635809934],[12.540195165,55.635673565],[12.539810371,55.635730633],[12.537637985,55.634883477],[12.537379529,55.634900128],[12.537207556,55.634794804],[12.53719846,55.634693967],[12.536856994,55.634510817],[12.536852033,55.634455816],[12.537438053,55.634108033],[12.537447647,55.63403423],[12.53732925,55.633982504],[12.537215816,55.633985778],[12.536908256,55.63417847],[12.536610282,55.634297358],[12.536304541,55.634149939],[12.535651889,55.633939002],[12.535544742,55.633831805],[12.535357397,55.633736111],[12.535332929,55.633644909],[12.534989829,55.633443419],[12.534976608,55.633296746],[12.533778171,55.632798249],[12.533128858,55.632623966],[12.532929964,55.632399931],[12.532565728,55.632143898],[12.531901573,55.631804604],[12.531375613,55.631737044],[12.530930155,55.63184179],[12.530537209,55.63234941],[12.530694904,55.632657353],[12.530803237,55.633499781],[12.530862884,55.633801355],[12.531119856,55.634850887],[12.531149357,55.635539342],[12.530862914,55.635786553],[12.529587614,55.635878436],[12.529264618,55.636080744],[12.529122363,55.636305418],[12.529450604,55.636341919],[12.529798058,55.636230813],[12.531217048,55.636291033],[12.532202302,55.636225877],[12.532287771,55.636453181],[12.53231781,55.636966999],[12.532010716,55.63698504],[12.531977001,55.637092342],[12.53193877,55.63708821],[12.53189046,55.637273417],[12.532244828,55.637419448],[12.532205913,55.637889297],[12.531961779,55.638245582],[12.532064284,55.638481588],[12.532036098,55.639070607],[12.531760371,55.639436992],[12.531576715,55.640104017],[12.53163803,55.640423925],[12.531281432,55.641877146],[12.531156722,55.641935885],[12.530809002,55.641954403],[12.530910922,55.641578473],[12.531879095,55.638229583],[12.531581287,55.637990015],[12.531103042,55.637911888],[12.528906655,55.637719509],[12.528907436,55.6377086],[12.527020595,55.637505575],[12.522605864,55.637016772],[12.522314718,55.637335195],[12.52232265,55.63730063],[12.521801834,55.637471841],[12.520033421,55.637320454],[12.519127252,55.637181046],[12.517080411,55.636642407],[12.509203132,55.634497028],[12.50896005,55.634503989],[12.508690295,55.634576047],[12.506950446,55.636013636],[12.506546929,55.636043565],[12.506495031,55.636008286],[12.506519474,55.635962367],[12.506598079,55.635909621],[12.506477312,55.635578052],[12.505884631,55.634808991],[12.505845564,55.634372002],[12.505427746,55.633953997],[12.504937773,55.633135187],[12.504662332,55.632601872],[12.504563166,55.632256799],[12.504076128,55.63139451],[12.504151829,55.630967123],[12.503980822,55.630327737],[12.503629228,55.629706401],[12.503610372,55.628985351],[12.50403626,55.628908745],[12.50343298,55.628784253],[12.500751177,55.628848011],[12.500310145,55.628499815],[12.50449151,55.628650902],[12.50458615,55.628535498],[12.503739298,55.62838893],[12.502857522,55.627969106],[12.502121847,55.627348655],[12.502046444,55.62650406],[12.503061229,55.625679622],[12.500308716,55.625851497],[12.498251359,55.625931391],[12.498113554,55.625375947],[12.502879358,55.625285073],[12.502812713,55.625136074],[12.499451465,55.625126483],[12.499326262,55.624918794],[12.497297808,55.624901256],[12.496942105,55.623931428],[12.496487614,55.623686688],[12.496573696,55.62337498],[12.496220186,55.622985617],[12.496318426,55.622590221],[12.495884772,55.622512053],[12.495578535,55.622068083],[12.495171493,55.621989153],[12.494891866,55.621544423],[12.495419401,55.620880497],[12.494120979,55.620374284],[12.494413353,55.620064141],[12.494124371,55.619514045],[12.493826568,55.619607734],[12.493784282,55.619677891],[12.493112261,55.619926123],[12.492932115,55.619776196],[12.492687143,55.619857176],[12.491349212,55.619080144],[12.490651279,55.618737902],[12.490120553,55.618513797],[12.489629076,55.618448514],[12.4890135,55.618037918],[12.487982059,55.617781867],[12.487772666,55.61731742],[12.487469305,55.617261489],[12.487468464,55.617257367],[12.48496636,55.616636161],[12.484765447,55.616577957],[12.484391232,55.615954497],[12.481436166,55.616289245],[12.475830554,55.616949825],[12.475795851,55.617637121],[12.475541503,55.617720471],[12.473015018,55.617834748],[12.472835959,55.618182946],[12.470963432,55.618367977],[12.468557574,55.62354353],[12.472545939,55.624943572],[12.471753036,55.626692796],[12.471698681,55.626940285],[12.471679427,55.62702582],[12.471666236,55.627084408],[12.471520712,55.627107515],[12.471056192,55.62812566],[12.470430242,55.629035171],[12.47046862,55.629156297],[12.470287204,55.629433272],[12.47003566,55.62977874],[12.469586356,55.630524543],[12.469609117,55.630528678],[12.469101094,55.631268614],[12.468867615,55.631576062],[12.468178315,55.632752998],[12.467771143,55.633277695],[12.466983911,55.634634223],[12.466402474,55.635412159],[12.464909803,55.639834474],[12.463726528,55.641583882],[12.463441687,55.641533642],[12.46136214,55.645090915],[12.459571236,55.64855567],[12.457820019,55.65094341],[12.455364058,55.655225849],[12.454719736,55.656846204],[12.454422323,55.658582082],[12.454612661,55.661336056],[12.454940933,55.661735568],[12.455156443,55.662449546],[12.455718205,55.664461801],[12.45358393,55.66466736],[12.453627418,55.664478622],[12.453626664,55.664478876],[12.453482287,55.664928808],[12.455299186,55.664941764],[12.456754752,55.664935962],[12.456841181,55.664937859],[12.456806189,55.664979466],[12.456982385,55.665402293],[12.457027269,55.665429487],[12.457072234,55.665439781],[12.457142938,55.665438677],[12.457143011,55.66545735],[12.45765922,55.6654588],[12.457761061,55.666476016],[12.457335119,55.666471992],[12.457272679,55.667371801],[12.458124581,55.66737985],[12.458054174,55.668169339],[12.457600831,55.66819645],[12.457570997,55.668822719],[12.457988882,55.668848509],[12.457866446,55.670229895],[12.456820965,55.67024803],[12.456795682,55.67069811],[12.456790885,55.671050019],[12.457737916,55.671130273],[12.457690455,55.67123465],[12.457672424,55.671388811],[12.456973318,55.671330089],[12.456663405,55.671321002],[12.456060574,55.671280952],[12.455684756,55.671229408],[12.455394873,55.67230856],[12.455091282,55.67328823],[12.454575844,55.673265918],[12.454543853,55.673380724],[12.454508108,55.673598645],[12.454344407,55.674186134],[12.454083775,55.675121472],[12.453680842,55.675876091],[12.453287536,55.675892482],[12.453250438,55.676493022],[12.453100277,55.677025328],[12.451727471,55.677112766],[12.451685472,55.677846224],[12.452802416,55.677827268],[12.452849881,55.67894239],[12.452851952,55.678990959],[12.452857367,55.67909274],[12.453169632,55.67910044],[12.453148758,55.679171379],[12.453108125,55.67927456],[12.451762698,55.67919371],[12.451791253,55.679098396],[12.450725711,55.67903569],[12.45021655,55.678985842],[12.449232179,55.678985012],[12.449018413,55.679361894],[12.448523997,55.680902822],[12.448152221,55.680820689],[12.447988927,55.680825281],[12.447741973,55.680948999],[12.447510345,55.680951331],[12.446829724,55.680958171],[12.446112732,55.680965372],[12.4454823,55.680783135],[12.445345047,55.68074128],[12.44486465,55.680735886],[12.444345239,55.680730052],[12.44423079,55.680766314],[12.443824848,55.680886826],[12.443341224,55.680886214],[12.442767535,55.680877383],[12.442017654,55.680869974],[12.440958465,55.680853452],[12.440454147,55.680846258],[12.439697361,55.680831915],[12.438743513,55.680831983],[12.438461518,55.68083989],[12.437865509,55.680828141],[12.437317072,55.680820392],[12.436708817,55.68081254],[12.436099155,55.680788712],[12.435998026,55.68072177],[12.435657765,55.680774964],[12.433872784,55.680690535],[12.433876052,55.680727796],[12.433858036,55.6808115],[12.434021214,55.680933515],[12.434186713,55.681806372],[12.434211472,55.681946611],[12.434267135,55.68266536],[12.434297104,55.683052392],[12.43439742,55.68351922],[12.434492064,55.683932195],[12.434580336,55.684298432],[12.434479927,55.684552663],[12.434538549,55.684666622],[12.434550727,55.685239579],[12.434660497,55.685628739],[12.434814034,55.685895762],[12.434982827,55.686293389],[12.435118218,55.686751795],[12.434943007,55.686744898],[12.435050701,55.686965337],[12.435727503,55.687867119],[12.436200886,55.687970898],[12.436533624,55.688131513],[12.436933754,55.688290114],[12.437240374,55.688562503],[12.437782387,55.688948189],[12.438040828,55.689340887],[12.438486263,55.689821952],[12.438832804,55.69027416],[12.438945566,55.690398104],[12.439232551,55.690882465],[12.439515443,55.691151141],[12.439781973,55.69151728],[12.439824336,55.691796509],[12.440143221,55.692030545],[12.440636396,55.692368651],[12.441136138,55.692721664],[12.441462093,55.692877336],[12.44180355,55.693143447],[12.441952689,55.693263769],[12.442102298,55.693389412],[12.442304824,55.693543807],[12.442455059,55.693759613],[12.442980202,55.694079615],[12.443153264,55.694102187],[12.443361523,55.694237887],[12.443609133,55.694401265],[12.443982304,55.694728408],[12.444166888,55.694954548],[12.444303774,55.695116111],[12.444453024,55.69530511],[12.444535837,55.695406561],[12.444979793,55.695808511],[12.445347175,55.696117177],[12.445964387,55.696749846],[12.446255904,55.697185379],[12.44641032,55.697216719],[12.446705488,55.697392362],[12.446915017,55.697575074],[12.446976396,55.697530467],[12.447408201,55.697911109],[12.450206412,55.700915789],[12.452902507,55.703067911],[12.453314449,55.703798977],[12.453351399,55.704498561],[12.453462614,55.705196051],[12.453452598,55.705644732],[12.453491411,55.705674303],[12.453083378,55.705714182],[12.452527975,55.705720301],[12.45023333,55.705489971],[12.449330946,55.705382171],[12.44863751,55.705429643],[12.449486858,55.708183428],[12.450562463,55.71036636],[12.452638821,55.714036865],[12.452595602,55.714377896],[12.452592889,55.714372501],[12.452493704,55.714869395],[12.452421303,55.714967521],[12.452417878,55.714966904],[12.45079562,55.714944116],[12.450342856,55.714932467],[12.449503312,55.714927628],[12.448978148,55.714926973],[12.448286927,55.714893801],[12.44697757,55.714889311],[12.446292274,55.714850323],[12.44578921,55.714762202],[12.445128018,55.714644544],[12.443823373,55.714438452],[12.443688551,55.714347086],[12.4436931,55.714323612],[12.443562994,55.714322639],[12.441527783,55.713974388],[12.440560956,55.713861929],[12.440539957,55.713866919],[12.440522691,55.713867269],[12.439705587,55.713712141],[12.440059458,55.716212281],[12.439691871,55.717846454],[12.43934406,55.717858095],[12.439836069,55.719068387],[12.439999071,55.71982547],[12.437517971,55.720656656],[12.437724245,55.721251388],[12.438582446,55.721145736],[12.439201664,55.722812827],[12.438103043,55.72292522],[12.43835469,55.724142253],[12.437583039,55.724136671],[12.438011995,55.726273599],[12.437014207,55.72643756],[12.436330787,55.727435965],[12.437140088,55.727659024],[12.43709738,55.727931331],[12.437544456,55.728082018],[12.435261404,55.731956801],[12.437594388,55.732394131],[12.437742454,55.732339807],[12.438545523,55.731147467],[12.439787641,55.73114933],[12.439682233,55.729848698],[12.439886189,55.729853421],[12.439713408,55.728152659],[12.442392498,55.727463476],[12.442617257,55.727671177],[12.443036558,55.728338612],[12.443619268,55.729108662],[12.444974951,55.730283771],[12.446173182,55.730956846],[12.446746164,55.731316578],[12.447351644,55.73152937],[12.447032557,55.73188422],[12.446749635,55.732349128],[12.446403346,55.733013831],[12.44568553,55.733445253],[12.445219572,55.733671582],[12.444472261,55.733768719],[12.440269981,55.733987784],[12.439513303,55.733971815],[12.439592018,55.735568049],[12.437084171,55.735570032],[12.436742442,55.73477245],[12.436366444,55.73478086],[12.435665087,55.734110071],[12.434552009,55.733939001],[12.433593602,55.73492293],[12.433547752,55.735022852],[12.433234581,55.735469938],[12.433033006,55.735757461],[12.432017706,55.735655475],[12.431774213,55.736022984],[12.432256612,55.736105113],[12.432107237,55.736349158],[12.432522303,55.736393407],[12.431784546,55.737339951],[12.43173499,55.737399943],[12.431439278,55.737730868],[12.431340153,55.737847531],[12.431131111,55.738087224],[12.430958414,55.738291765],[12.431248948,55.738366946],[12.431054266,55.738589066],[12.430846365,55.738809667],[12.430639661,55.739080955],[12.431275351,55.73925486],[12.432506188,55.739582143],[12.432815448,55.739628415],[12.433966507,55.738511315],[12.435366618,55.738747338],[12.435279291,55.7388654],[12.436669434,55.738960048],[12.436399947,55.739185207],[12.436355033,55.73947494],[12.436054079,55.741060017],[12.439586287,55.741356238],[12.440414752,55.739465282],[12.445432206,55.739911246],[12.445306661,55.740548117],[12.445297488,55.740620174],[12.445193869,55.740806691],[12.445210434,55.741460435],[12.445379184,55.742177801],[12.445471726,55.742541637],[12.445592527,55.742889754],[12.445951168,55.743418239],[12.446154568,55.744077929],[12.446163354,55.74407939],[12.447029195,55.74478735],[12.4470416,55.744970645],[12.446789476,55.745261473],[12.446639714,55.745521732],[12.446631606,55.745535293],[12.446511674,55.745633775],[12.446257007,55.746191538],[12.446154947,55.746413031],[12.44577635,55.747095525],[12.445811403,55.747089449],[12.445805427,55.747093927],[12.445588887,55.748017911],[12.445701522,55.748524915],[12.446523033,55.748891327],[12.448468253,55.749366337],[12.450633449,55.746727669],[12.451218117,55.746175249],[12.455194611,55.746114422],[12.45546195,55.745912934],[12.453181603,55.745864795],[12.453008583,55.745413419],[12.453779271,55.744664468],[12.454446172,55.743765324],[12.4553274,55.742732552],[12.456649277,55.741685094],[12.458722905,55.740136161],[12.459941184,55.739280519],[12.461266975,55.738421831],[12.462447499,55.737749739],[12.463867292,55.736736276],[12.464846059,55.736221947],[12.465378661,55.736460328],[12.465015445,55.736955523],[12.464769603,55.738264144],[12.464618484,55.739110674],[12.464756234,55.740663696],[12.469431076,55.740733021],[12.469428885,55.740750735],[12.47138569,55.74042532],[12.471369975,55.740757566],[12.470693036,55.740776711],[12.47072697,55.741158599],[12.471173741,55.741094918],[12.470178908,55.741996677],[12.470700052,55.74187401],[12.471067884,55.741940177],[12.470729694,55.7432259],[12.47167973,55.743224555],[12.472066811,55.743225416],[12.472091803,55.742721949],[12.472143896,55.742723034],[12.472145585,55.742704664],[12.472533417,55.742690842],[12.472566797,55.742731834],[12.473013437,55.742741095],[12.473330587,55.742792019],[12.474133271,55.742701974],[12.474387042,55.74270305],[12.474831957,55.742655283],[12.475494447,55.742583482],[12.475940568,55.742534258],[12.476105306,55.742513808],[12.477905451,55.742598822],[12.480379023,55.742712024],[12.481063956,55.742751736],[12.481174625,55.742758774],[12.48237928,55.742815359],[12.483802856,55.742879026],[12.485231207,55.742945413],[12.486058001,55.742977314],[12.486141785,55.742957013],[12.486464304,55.742956794],[12.486911819,55.742957157],[12.486971456,55.742310284],[12.487053328,55.741433794],[12.487079444,55.741167954],[12.487101808,55.741168658],[12.487103597,55.741149545],[12.487344077,55.741176291],[12.487362998,55.741176888],[12.487433672,55.741057643],[12.487435098,55.741034751],[12.48744337,55.740556265],[12.487916903,55.740679989],[12.488537338,55.740857273],[12.489418709,55.741156897],[12.489774013,55.741112129],[12.489790956,55.741096471],[12.489795137,55.741096352],[12.490329689,55.741033667],[12.490248054,55.740981817],[12.490070513,55.740893374],[12.49009895,55.740887113],[12.490091132,55.740882147],[12.489892471,55.740813802],[12.489997132,55.740782879],[12.490193404,55.740738548],[12.490371589,55.74071278],[12.490510589,55.739552463],[12.49068037,55.738587223],[12.494946354,55.738451316],[12.495860718,55.738476011],[12.498469001,55.735862288],[12.49850683,55.735867312],[12.498616913,55.735753934],[12.498809205,55.735552541],[12.499268813,55.735060728],[12.499487164,55.734827072],[12.49949842,55.734830612],[12.499499995,55.734829035],[12.500202576,55.735027944],[12.500847772,55.735238905],[12.501630533,55.735488686],[12.502064396,55.735637657],[12.502423516,55.7357506],[12.50251989,55.735678205],[12.502523958,55.735674855],[12.502750768,55.73548818],[12.503587822,55.734800633],[12.503760735,55.73487713],[12.503891453,55.734834559],[12.503943686,55.734792953],[12.504168604,55.73473539],[12.504079511,55.734695769],[12.503896147,55.734622802],[12.503901401,55.73461656],[12.50384279,55.734590494],[12.503995773,55.734464897],[12.504155472,55.734333809],[12.504321045,55.734197863],[12.504338726,55.734183346],[12.504626268,55.733947238],[12.505513388,55.733223185],[12.506398751,55.732498206],[12.507232012,55.731816548],[12.50822302,55.731005014],[12.508428043,55.730818036],[12.508347183,55.730786431],[12.50800748,55.730673509],[12.508017944,55.730657744],[12.508013085,55.730655845],[12.508479938,55.729960416],[12.506804669,55.730128156],[12.506792836,55.73007748],[12.506366088,55.730107211],[12.506365399,55.730101488],[12.506364875,55.730101535],[12.506349817,55.730018113],[12.506262108,55.729514634],[12.50621949,55.729272971],[12.505325525,55.729314592],[12.505304309,55.729291632],[12.505263593,55.729294014],[12.505253251,55.729236376],[12.505208442,55.729187884],[12.5051385,55.729192235],[12.504714073,55.729242441],[12.504691076,55.729220065],[12.504663552,55.729221777],[12.504075391,55.728643172],[12.503924253,55.72783608],[12.503775945,55.727032497],[12.503963925,55.726721902],[12.504125523,55.726451421],[12.503888275,55.726332429],[12.503921302,55.726317208],[12.503868142,55.726285368],[12.503989941,55.726217307],[12.50357768,55.725926798],[12.503553891,55.725690084],[12.503521073,55.725396902],[12.503485461,55.725044254],[12.50341641,55.724688526],[12.503315248,55.724174587],[12.503021023,55.72417436],[12.50302159,55.724172627],[12.502643191,55.724238928],[12.50260378,55.724042849],[12.50206036,55.724057329],[12.501242726,55.724106648],[12.500889551,55.724165722],[12.500672207,55.724090346],[12.500658044,55.724091065],[12.50066231,55.724115638],[12.500056123,55.724121593],[12.499773122,55.724135945],[12.499463758,55.724095467],[12.499036574,55.720970221],[12.49903553,55.720962586],[12.498189326,55.721299195],[12.493964083,55.722979774],[12.492048351,55.72261257],[12.492049104,55.722612097],[12.49256532,55.722287694],[12.492961497,55.722038722],[12.494575251,55.721024534],[12.494647583,55.720979074],[12.493707409,55.720611897],[12.493699986,55.720608998],[12.492577894,55.721435067],[12.49057205,55.722568136],[12.490468332,55.722626722],[12.490284199,55.722731226],[12.489149331,55.723021591],[12.488402476,55.723374753],[12.488389929,55.723380686],[12.488308428,55.723429863],[12.487898419,55.723677256],[12.487889251,55.723682788],[12.487243449,55.724524573],[12.487227508,55.724545352],[12.487215275,55.724555592],[12.487297815,55.721848334],[12.487314153,55.721312421],[12.487310996,55.721199127],[12.487294821,55.720618726],[12.487190714,55.719963982],[12.487053845,55.71889806],[12.486757431,55.717841418],[12.486581642,55.717550391],[12.486546607,55.717492388],[12.486540921,55.717493073],[12.485857681,55.71757536],[12.485852178,55.717563411],[12.485632502,55.717086357],[12.485196484,55.716139453],[12.48518916,55.716123547],[12.484910421,55.716222597]]]]},"properties":{"gid":2,"id":2,"opland":"Renseanlæg Damhusåen"}}]}
