{"type":"FeatureCollection","metadata":{"projectKey":"svanemoellen","sourceUrl":"https://www.hofor.dk/baeredygtige-byer/udviklingsprojekter/skybrudssikring/svanemoelle-skybrudstunnel/","mapConfigUrl":"https://www.hofor.dk/septima/map_svanemoellen_skybrudstunnel/map_sst.json","retrievedAt":"2026-09-07","sourceCrs":"EPSG:25832","outputCrs":"EPSG:4326","counts":{"tunnel_samlet":20,"gravet_ledning":11,"toemmeledning":1,"byggeplads_skakt":16},"note":"HOFORs offentlige projektkort. Viser offentliggjort tracé og byggepladser, ikke en landmåling eller driftsstatus."},"features":[{"type":"Feature","id":"tunnel_samlet:1","properties":{"component":"tunnel_samlet","label":"Boret tunnelstrækning"},"geometry":{"type":"LineString","coordinates":[[12.5597282,55.7235882],[12.5596476,55.7236165],[12.5595652,55.7236432],[12.5594811,55.7236681],[12.5593955,55.7236913],[12.5593084,55.7237128],[12.55922,55.7237324],[12.5591305,55.7237502],[12.5590398,55.7237661],[12.5589481,55.7237802],[12.5588556,55.7237924],[12.5587624,55.7238026],[12.5586686,55.723811],[12.5585743,55.7238174],[12.5584796,55.7238218]]}},{"type":"Feature","id":"tunnel_samlet:2","properties":{"component":"tunnel_samlet","label":"Boret tunnelstrækning"},"geometry":{"type":"LineString","coordinates":[[12.5576964,55.7238506],[12.5574195,55.7238579],[12.5571423,55.7238594],[12.5568652,55.723855]]}},{"type":"Feature","id":"tunnel_samlet:3","properties":{"component":"tunnel_samlet","label":"Boret tunnelstrækning"},"geometry":{"type":"MultiLineString","coordinates":[[[12.5151188,55.7226656],[12.5163595,55.7243556],[12.5169824,55.7252041],[12.5172939,55.7256285],[12.5174496,55.7258406],[12.5175275,55.7259467],[12.5175666,55.7259998],[12.5175713,55.7260064],[12.5175738,55.7260096],[12.5175744,55.7260105],[12.5175749,55.7260111],[12.5175758,55.7260125],[12.5175836,55.7260229],[12.5175994,55.7260439],[12.5176153,55.7260648],[12.5176318,55.7260856],[12.5176484,55.7261064],[12.5176654,55.7261272],[12.5176827,55.726148],[12.5177003,55.7261687],[12.5177183,55.7261894],[12.5177365,55.72621],[12.5177551,55.7262306],[12.5177739,55.7262511],[12.5177931,55.7262715],[12.5178124,55.7262919],[12.5178323,55.7263123],[12.5178524,55.7263325],[12.5178727,55.7263527],[12.5178935,55.7263728],[12.5179144,55.7263929],[12.5179356,55.726413],[12.5179574,55.7264329],[12.5179792,55.7264527],[12.5180016,55.7264725],[12.5180239,55.7264922],[12.5180468,55.7265117],[12.5180698,55.7265312],[12.5180932,55.7265507],[12.5181169,55.7265701],[12.518141,55.7265893],[12.5181652,55.7266085],[12.5181898,55.7266276],[12.5182146,55.7266466],[12.5182397,55.7266655],[12.5182652,55.7266842],[12.5182909,55.7267029],[12.5183168,55.7267215],[12.5183432,55.72674],[12.5183697,55.7267583],[12.5183965,55.7267766],[12.5184236,55.7267948],[12.5184509,55.7268128],[12.5184786,55.7268307],[12.5185065,55.7268485],[12.5185346,55.7268661],[12.5185629,55.7268838],[12.5185917,55.7269012],[12.5186207,55.7269184],[12.5186498,55.7269356],[12.5186792,55.7269526],[12.5187089,55.7269695],[12.5187388,55.7269864],[12.5187691,55.7270029],[12.5187995,55.7270195],[12.5188301,55.7270359],[12.518861,55.7270521],[12.5188921,55.7270682],[12.5189234,55.7270842],[12.5189551,55.7271],[12.5189867,55.7271156],[12.5190187,55.7271312],[12.519051,55.7271466],[12.5190835,55.7271618],[12.5191161,55.7271769],[12.5191489,55.7271918],[12.519182,55.7272066],[12.5192152,55.7272212],[12.5192487,55.7272356],[12.5192823,55.72725],[12.5193161,55.7272641],[12.5193501,55.7272781],[12.5193844,55.7272919],[12.5194187,55.7273056],[12.5194533,55.7273191],[12.5194879,55.7273324],[12.5195229,55.7273456],[12.5195578,55.7273586],[12.5195932,55.7273714],[12.5196285,55.7273841],[12.519664,55.7273965],[12.5196997,55.7274089],[12.5197354,55.727421],[12.5197713,55.727433],[12.5198075,55.7274448],[12.5198437,55.7274565],[12.51988,55.727468],[12.5199165,55.7274793],[12.5199531,55.7274904],[12.5199899,55.7275014],[12.5200267,55.7275122],[12.5200637,55.7275227],[12.5201006,55.7275332],[12.5201377,55.7275434],[12.5201751,55.7275535],[12.5202123,55.7275634],[12.5202499,55.7275731],[12.5202874,55.7275827],[12.520325,55.727592],[12.5203626,55.7276012],[12.5204004,55.7276102],[12.5204382,55.7276191],[12.5204761,55.7276277],[12.5205141,55.7276361],[12.5205522,55.7276445],[12.5205902,55.7276526],[12.5206283,55.7276605],[12.5206665,55.7276683],[12.5207047,55.7276758],[12.520743,55.7276833],[12.5207813,55.7276904],[12.5208195,55.7276975],[12.5208388,55.7277009],[12.5208436,55.7277018],[12.5208448,55.727702],[12.5208451,55.7277021],[12.5208453,55.7277021],[12.5208456,55.7277022],[12.520847,55.7277024],[12.5208527,55.7277034],[12.5208637,55.7277054],[12.5209531,55.7277213],[12.5213103,55.7277849],[12.5214891,55.7278167],[12.5215336,55.7278247],[12.5215414,55.727826]]]}},{"type":"Feature","id":"tunnel_samlet:4","properties":{"component":"tunnel_samlet","label":"Boret tunnelstrækning"},"geometry":{"type":"MultiLineString","coordinates":[[[12.5217188,55.7278553],[12.5217206,55.7278554],[12.5217513,55.7278566],[12.5218738,55.7278616],[12.5223641,55.7278813],[12.5226091,55.7278913],[12.5226398,55.7278924],[12.5226551,55.7278931],[12.5226628,55.7278934],[12.5226666,55.7278936],[12.5226685,55.7278936],[12.5226695,55.7278937],[12.5226697,55.7278937],[12.5226698,55.7278937],[12.5226701,55.7278937],[12.5226711,55.7278937],[12.5226743,55.7278939],[12.5226812,55.7278941],[12.5226945,55.7278947],[12.5227477,55.7278967],[12.5228011,55.7278988],[12.5228543,55.7279008],[12.5229077,55.7279027],[12.5229611,55.7279045],[12.5230145,55.7279063],[12.5230679,55.727908],[12.5231212,55.7279097],[12.5231746,55.7279114],[12.5232281,55.727913],[12.5232813,55.7279144],[12.5233348,55.7279158],[12.5233883,55.7279173],[12.5234416,55.7279186],[12.5234951,55.7279199],[12.5235486,55.727921],[12.5236019,55.7279222],[12.5236556,55.7279233],[12.523709,55.7279243],[12.5237625,55.7279252],[12.523816,55.7279261],[12.5238694,55.727927],[12.523923,55.7279278],[12.5239765,55.7279285],[12.5240301,55.7279291],[12.5240835,55.7279298],[12.5241369,55.7279303],[12.5241905,55.7279308],[12.5242439,55.7279313],[12.5242975,55.7279316],[12.524351,55.7279319],[12.5244046,55.7279321],[12.5244582,55.7279323],[12.5245115,55.7279325],[12.5245652,55.7279326],[12.5246186,55.7279326],[12.5246723,55.7279325],[12.5247257,55.7279324],[12.5247794,55.7279322],[12.5248327,55.727932],[12.5248864,55.7279317],[12.5249399,55.7279313],[12.5249934,55.7279309],[12.5250469,55.7279304],[12.5251005,55.7279299],[12.525154,55.7279293],[12.5252075,55.7279287],[12.525261,55.7279279],[12.5253146,55.7279272],[12.525368,55.7279263],[12.5254215,55.7279255],[12.5254751,55.7279245],[12.5255286,55.7279235],[12.5255821,55.7279224],[12.5256354,55.7279213],[12.525689,55.7279201],[12.5257424,55.7279189],[12.525796,55.7279175],[12.5258494,55.7279162],[12.5259028,55.7279147],[12.5259564,55.7279133],[12.5260096,55.7279117],[12.5260632,55.7279101],[12.5261166,55.7279085],[12.5261701,55.7279067],[12.5262235,55.727905],[12.5262768,55.7279031],[12.5263302,55.7279012],[12.5263837,55.7278992],[12.5264369,55.7278972],[12.5264904,55.7278951],[12.5265436,55.727893],[12.5265971,55.7278908],[12.5266503,55.7278885],[12.5267038,55.7278862],[12.5267569,55.7278838],[12.5268104,55.7278814],[12.5268636,55.7278788],[12.5269169,55.7278763],[12.5269702,55.7278737],[12.5270233,55.727871],[12.5270766,55.7278683],[12.5271297,55.7278655],[12.527183,55.7278626],[12.5272096,55.7278612],[12.5272163,55.7278608],[12.5272196,55.7278606],[12.5272201,55.7278606],[12.5272207,55.7278606],[12.5272222,55.7278605],[12.5272248,55.7278604],[12.5272302,55.72786],[12.5272734,55.7278577],[12.5274456,55.7278484],[12.5276179,55.7278393],[12.5277902,55.7278304],[12.5279626,55.7278216],[12.528135,55.7278131],[12.5283076,55.7278047],[12.5284799,55.7277965],[12.5286525,55.7277886],[12.528825,55.7277808],[12.5289975,55.7277732],[12.5291702,55.7277658],[12.5293429,55.7277586],[12.5295155,55.7277516],[12.5296882,55.7277447],[12.529861,55.7277382],[12.5300336,55.7277318],[12.5302064,55.7277254],[12.5303792,55.7277195],[12.530552,55.7277136],[12.5307248,55.7277079],[12.5308975,55.7277025],[12.5310704,55.7276972],[12.5312433,55.7276921],[12.5314162,55.7276872],[12.5315891,55.7276825],[12.5317619,55.727678],[12.5319349,55.7276737],[12.5321077,55.7276696],[12.5322807,55.7276657],[12.5324537,55.7276619],[12.5324754,55.7276615],[12.532476,55.7276615],[12.5324763,55.7276615],[12.5324766,55.7276614],[12.532477,55.7276614],[12.5324785,55.7276614],[12.5324819,55.7276613],[12.5325083,55.7276608],[12.5325608,55.7276597],[12.5327708,55.7276553],[12.5331913,55.7276465],[12.534032,55.727629],[12.535686,55.7275944]]]}},{"type":"Feature","id":"tunnel_samlet:6","properties":{"component":"tunnel_samlet","label":"Boret tunnelstrækning"},"geometry":{"type":"MultiLineString","coordinates":[[[12.5359091,55.7275652],[12.5359263,55.7275611],[12.5365617,55.7274086],[12.5378326,55.7271038],[12.5403743,55.7264939],[12.5454576,55.7252741],[12.5556229,55.7228338],[12.5557581,55.7228014]]]}},{"type":"Feature","id":"tunnel_samlet:7","properties":{"component":"tunnel_samlet","label":"Boret tunnelstrækning"},"geometry":{"type":"MultiLineString","coordinates":[[[12.555982,55.7227751],[12.5561259,55.7227779],[12.5565407,55.7227859],[12.5573709,55.7228018],[12.559031,55.7228339],[12.5623512,55.7228979],[12.5689515,55.7230247]]]}},{"type":"Feature","id":"tunnel_samlet:8","properties":{"component":"tunnel_samlet","label":"Boret tunnelstrækning"},"geometry":{"type":"MultiLineString","coordinates":[[[12.5592548,55.7173318],[12.5575244,55.7162807],[12.5574782,55.7162526],[12.5574317,55.7162245],[12.557385,55.7161966],[12.5516191,55.7127495]]]}},{"type":"Feature","id":"tunnel_samlet:10","properties":{"component":"tunnel_samlet","label":"Boret tunnelstrækning"},"geometry":{"type":"MultiLineString","coordinates":[[[12.5515252,55.7126587],[12.5498669,55.7096499]]]}},{"type":"Feature","id":"tunnel_samlet:17","properties":{"component":"tunnel_samlet","label":"Boret tunnelstrækning"},"geometry":{"type":"MultiLineString","coordinates":[[[12.5497375,55.7095443],[12.544604,55.7073504],[12.5442338,55.7071873],[12.5438722,55.707018],[12.5435198,55.7068428],[12.5410567,55.7055816],[12.5405866,55.705359],[12.5400874,55.7051574],[12.5395623,55.7049782],[12.5378215,55.7044347]]]}},{"type":"Feature","id":"tunnel_samlet:19","properties":{"component":"tunnel_samlet","label":"Boret tunnelstrækning"},"geometry":{"type":"MultiLineString","coordinates":[[[12.5594119,55.7174387],[12.566916,55.7223596],[12.5671453,55.7224976],[12.5673942,55.7226242],[12.5676611,55.7227386],[12.5679442,55.7228399],[12.5682414,55.7229273],[12.5685506,55.7230004],[12.5688694,55.7230585],[12.5689315,55.7230666]]]}},{"type":"Feature","id":"tunnel_samlet:20","properties":{"component":"tunnel_samlet","label":"Boret tunnelstrækning"},"geometry":{"type":"MultiLineString","coordinates":[[[12.569259,55.7231064],[12.5695277,55.7231284],[12.5699348,55.7231632],[12.570334,55.7232204],[12.5707215,55.7232994],[12.5710194,55.7233618],[12.5713253,55.7234107],[12.5716371,55.7234456],[12.5719528,55.7234664],[12.5743146,55.7235678],[12.5749988,55.7235792],[12.5756817,55.7235545],[12.5763578,55.7234941],[12.5768079,55.7234541],[12.5772627,55.7234383],[12.5777183,55.7234467],[12.5781703,55.7234793],[12.5786149,55.7235361],[12.5790031,55.7235939],[12.5793938,55.7236465],[12.5797866,55.7236939],[12.5817319,55.7239153],[12.5825408,55.7239939],[12.5833563,55.7240463],[12.5841756,55.7240721],[12.5859562,55.7240996],[12.5863202,55.7241082],[12.5866839,55.7241228],[12.5870463,55.7241434],[12.5963848,55.7247518],[12.5981923,55.7248933],[12.5999864,55.7250813],[12.6017633,55.7253156],[12.6022539,55.725387]]]}},{"type":"Feature","id":"tunnel_samlet:21","properties":{"component":"tunnel_samlet","label":"Boret tunnelstrækning"},"geometry":{"type":"MultiLineString","coordinates":[[[12.5608895,55.7254146],[12.5608863,55.7254013]]]}},{"type":"Feature","id":"tunnel_samlet:22","properties":{"component":"tunnel_samlet","label":"Boret tunnelstrækning"},"geometry":{"type":"MultiLineString","coordinates":[[[12.5608863,55.7254013],[12.5605675,55.7241081]]]}},{"type":"Feature","id":"tunnel_samlet:23","properties":{"component":"tunnel_samlet","label":"Boret tunnelstrækning"},"geometry":{"type":"MultiLineString","coordinates":[[[12.5584786,55.7238219],[12.5576934,55.7238507]]]}},{"type":"Feature","id":"tunnel_samlet:24","properties":{"component":"tunnel_samlet","label":"Boret tunnelstrækning"},"geometry":{"type":"MultiLineString","coordinates":[[[12.5604615,55.7238435],[12.5602241,55.723407]]]}},{"type":"Feature","id":"tunnel_samlet:25","properties":{"component":"tunnel_samlet","label":"Boret tunnelstrækning"},"geometry":{"type":"MultiLineString","coordinates":[[[12.5602241,55.723407],[12.559728,55.7235882]]]}},{"type":"Feature","id":"tunnel_samlet:26","properties":{"component":"tunnel_samlet","label":"Boret tunnelstrækning"},"geometry":{"type":"MultiLineString","coordinates":[[[12.5568649,55.723855],[12.5560002,55.7238323]]]}},{"type":"Feature","id":"tunnel_samlet:27","properties":{"component":"tunnel_samlet","label":"Boret tunnelstrækning"},"geometry":{"type":"MultiLineString","coordinates":[[[12.5560002,55.7238323],[12.5558757,55.7228466]]]}},{"type":"Feature","id":"tunnel_samlet:28","properties":{"component":"tunnel_samlet","label":"Boret tunnelstrækning"},"geometry":{"type":"MultiLineString","coordinates":[[[12.5558757,55.7228466],[12.5558744,55.7228356]]]}},{"type":"Feature","id":"tunnel_samlet:29","properties":{"component":"tunnel_samlet","label":"Boret tunnelstrækning"},"geometry":{"type":"LineString","coordinates":[[12.5605675,55.7241081],[12.5604615,55.7238435]]}},{"type":"Feature","id":"gravet_ledning:1","properties":{"component":"gravet_ledning","label":"Gravet tunnelstrækning"},"geometry":{"type":"LineString","coordinates":[[12.5136377,55.7197964],[12.5145996,55.7212248],[12.5150302,55.7225146],[12.5152087,55.7226182]]}},{"type":"Feature","id":"gravet_ledning:2","properties":{"component":"gravet_ledning","label":"Gravet tunnelstrækning"},"geometry":{"type":"LineString","coordinates":[[12.5136377,55.7197964],[12.513574,55.7198052]]}},{"type":"Feature","id":"gravet_ledning:3","properties":{"component":"gravet_ledning","label":"Gravet tunnelstrækning"},"geometry":{"type":"LineString","coordinates":[[12.5168741,55.7257384],[12.5170602,55.7265693]]}},{"type":"Feature","id":"gravet_ledning:4","properties":{"component":"gravet_ledning","label":"Gravet tunnelstrækning"},"geometry":{"type":"LineString","coordinates":[[12.5169206,55.7257118],[12.51736,55.7256497]]}},{"type":"Feature","id":"gravet_ledning:5","properties":{"component":"gravet_ledning","label":"Gravet tunnelstrækning"},"geometry":{"type":"LineString","coordinates":[[12.5043296,55.7240518],[12.504342,55.7240041]]}},{"type":"Feature","id":"gravet_ledning:6","properties":{"component":"gravet_ledning","label":"Gravet tunnelstrækning"},"geometry":{"type":"LineString","coordinates":[[12.5040857,55.7238852],[12.5043335,55.723998]]}},{"type":"Feature","id":"gravet_ledning:7","properties":{"component":"gravet_ledning","label":"Gravet tunnelstrækning"},"geometry":{"type":"LineString","coordinates":[[12.5140168,55.7228182],[12.5150671,55.7227825]]}},{"type":"Feature","id":"gravet_ledning:8","properties":{"component":"gravet_ledning","label":"Gravet tunnelstrækning"},"geometry":{"type":"LineString","coordinates":[[12.514025,55.7228336],[12.5150653,55.7228002]]}},{"type":"Feature","id":"gravet_ledning:9","properties":{"component":"gravet_ledning","label":"Gravet tunnelstrækning"},"geometry":{"type":"LineString","coordinates":[[12.5043517,55.7240014],[12.5049055,55.7240637],[12.5049247,55.7240649],[12.5053668,55.7240559],[12.5053858,55.724055],[12.5060786,55.7239624],[12.5060975,55.7239593],[12.5074198,55.7236882],[12.5074384,55.7236852],[12.5088109,55.7234155],[12.5088294,55.7234125],[12.5100463,55.723172],[12.5100648,55.723169],[12.5104977,55.7230805],[12.5105164,55.7230776],[12.5111731,55.7229389],[12.5111918,55.722936],[12.5125466,55.72282],[12.5125662,55.7228196],[12.5126424,55.7228151],[12.5126615,55.7228142],[12.5139856,55.7228172]]}},{"type":"Feature","id":"gravet_ledning:10","properties":{"component":"gravet_ledning","label":"Gravet tunnelstrækning"},"geometry":{"type":"LineString","coordinates":[[12.5139567,55.7228321],[12.5126239,55.7228287],[12.5126047,55.7228275],[12.5111385,55.7229618],[12.5111198,55.7229647],[12.510506,55.7230946],[12.5104873,55.7230976],[12.5101214,55.7231712],[12.5101028,55.7231743],[12.5088732,55.7234178],[12.5088545,55.7234208],[12.50743,55.7237003],[12.5074113,55.7237033],[12.50618,55.7239611],[12.5061613,55.723964],[12.5054251,55.7240665],[12.505406,55.7240674],[12.5049502,55.7240777],[12.5049312,55.7240786],[12.5043934,55.7240169]]}},{"type":"Feature","id":"gravet_ledning:11","properties":{"component":"gravet_ledning","label":"Gravet tunnelstrækning"},"geometry":{"type":"LineString","coordinates":[[12.515102,55.7227746],[12.5151888,55.7226925]]}},{"type":"Feature","id":"toemmeledning:7","properties":{"component":"toemmeledning","label":"Rør til renseanlæg"},"geometry":{"type":"LineString","coordinates":[[12.6023804,55.7255685],[12.5840554,55.7172595],[12.5836088,55.7156067]]}},{"type":"Feature","id":"byggeplads_skakt:1","properties":{"component":"byggeplads_skakt","label":"Byggeplads Lersø Parkallé"},"geometry":{"type":"Point","coordinates":[12.5515463,55.7127125]}},{"type":"Feature","id":"byggeplads_skakt:2","properties":{"component":"byggeplads_skakt","label":"Byggeplads Lygten"},"geometry":{"type":"Point","coordinates":[12.5376794,55.7042439]}},{"type":"Feature","id":"byggeplads_skakt:3","properties":{"component":"byggeplads_skakt","label":"Byggeplads Svanemøllen Kaserne"},"geometry":{"type":"Point","coordinates":[12.5691016,55.7230698]}},{"type":"Feature","id":"byggeplads_skakt:4","properties":{"component":"byggeplads_skakt","label":"Byggeplads Dyssegårdsparken"},"geometry":{"type":"Point","coordinates":[12.5357984,55.727582]}},{"type":"Feature","id":"byggeplads_skakt:5","properties":{"component":"byggeplads_skakt","label":"Byggeplads Nordkanalen"},"geometry":{"type":"Point","coordinates":[12.5216217,55.7278566]}},{"type":"Feature","id":"byggeplads_skakt:6","properties":{"component":"byggeplads_skakt","label":"Byggeplads Søholmslund"},"geometry":{"type":"Point","coordinates":[12.5558849,55.7227816]}},{"type":"Feature","id":"byggeplads_skakt:7","properties":{"component":"byggeplads_skakt","label":"Byggeplads Ryparken"},"geometry":{"type":"Point","coordinates":[12.559199,55.7174011]}},{"type":"Feature","id":"byggeplads_skakt:8","properties":{"component":"byggeplads_skakt","label":"Byggeplads Rovsingsgade"},"geometry":{"type":"Point","coordinates":[12.5498174,55.7095915]}},{"type":"Feature","id":"byggeplads_skakt:9","properties":{"component":"byggeplads_skakt","label":"Byggeplads Rygårds Alle"},"geometry":{"type":"Point","coordinates":[12.5609625,55.7254174]}},{"type":"Feature","id":"byggeplads_skakt:10","properties":{"component":"byggeplads_skakt","label":"Byggeplads Studiebyen"},"geometry":{"type":"Point","coordinates":[12.5602322,55.7234045]}},{"type":"Feature","id":"byggeplads_skakt:11","properties":{"component":"byggeplads_skakt","label":"Byggeplads Lundeskovsvej"},"geometry":{"type":"Point","coordinates":[12.5560093,55.7238503]}},{"type":"Feature","id":"byggeplads_skakt:12","properties":{"component":"byggeplads_skakt","label":"Byggeplads Grønnemose Alle"},"geometry":{"type":"Point","coordinates":[12.515224,55.7226332]}},{"type":"Feature","id":"byggeplads_skakt:13","properties":{"component":"byggeplads_skakt","label":"Byggeplads Maglegårds Allé"},"geometry":{"type":"Point","coordinates":[12.513569,55.7197777]}},{"type":"Feature","id":"byggeplads_skakt:14","properties":{"component":"byggeplads_skakt","label":"Byggeplads Kirstens Allé"},"geometry":{"type":"Point","coordinates":[12.517384,55.7256468]}},{"type":"Feature","id":"byggeplads_skakt:15","properties":{"component":"byggeplads_skakt","label":"Byggeplads Fiskerihavnen"},"geometry":{"type":"Point","coordinates":[12.602605,55.7256686]}},{"type":"Feature","id":"byggeplads_skakt:16","properties":{"component":"byggeplads_skakt","label":"Byggeplads Strandvænget"},"geometry":{"type":"Point","coordinates":[12.5833832,55.7168316]}}]}
