{
  "type": "FeatureCollection",
  "metadata": {
    "projectKey": "tuse-naes",
    "precision": "schematic",
    "geometryRole": "project-area",
    "locationLabel": "Tuse Næs · fire navngivne delområder",
    "sourceUrl": "https://www.fors.dk/spildevand/spildevandsprojekter/kloakering-paa-tuse-naes/",
    "secondarySourceUrl": "https://www.fors.dk/nyheder/fors-skal-kloakere-tre-omraader-paa-tuse-naes/",
    "retrievedAt": "2026-09-07",
    "projectIds": ["fors:0"],
    "sharedOwners": ["FORS"],
    "note": "Skematisk områdevisning baseret på Fors' offentliggjorte projektkort og navngivne etaper. Polygonerne viser de berørte lokaliteter på oversigtsniveau og må ikke læses som matrikel-, projekterings- eller entreprisegrænser.",
    "basis": [
      "Etape 1: Søvej & Strandgården / Kastrup Strand",
      "Etape 2: Løserup Strand & Løserup",
      "Etape 3: Tobjerg Sommerland"
    ]
  },
  "features": [
    {"type":"Feature","id":"area:kastrup-strand","properties":{"component":"schematic_area","label":"Etape 1 · Søvej & Strandgården / Kastrup Strand"},"geometry":{"type":"Polygon","coordinates":[[[11.6488,55.7682],[11.6530,55.7666],[11.6598,55.7667],[11.6640,55.7691],[11.6632,55.7737],[11.6582,55.7755],[11.6512,55.7744],[11.6488,55.7682]]]}} ,
    {"type":"Feature","id":"area:loeserup-strand","properties":{"component":"schematic_area","label":"Etape 2 · Løserup Strand"},"geometry":{"type":"Polygon","coordinates":[[[11.7318,55.7950],[11.7370,55.7970],[11.7432,55.7958],[11.7463,55.7918],[11.7460,55.7840],[11.7415,55.7795],[11.7360,55.7815],[11.7330,55.7868],[11.7318,55.7950]]]}} ,
    {"type":"Feature","id":"area:loeserup","properties":{"component":"schematic_area","label":"Etape 2 · Løserup (separatkloakering)"},"geometry":{"type":"Polygon","coordinates":[[[11.7218,55.7672],[11.7260,55.7658],[11.7318,55.7672],[11.7320,55.7715],[11.7270,55.7732],[11.7225,55.7714],[11.7218,55.7672]]]}} ,
    {"type":"Feature","id":"area:tobjerg-sommerland","properties":{"component":"schematic_area","label":"Etape 3 · Tobjerg Sommerland"},"geometry":{"type":"Polygon","coordinates":[[[11.6815,55.7770],[11.6865,55.7752],[11.6943,55.7762],[11.6980,55.7800],[11.6965,55.7853],[11.6910,55.7880],[11.6840,55.7862],[11.6810,55.7820],[11.6815,55.7770]]]}}
  ]
}
