<?xml version="1.0" encoding="UTF-8"?>
<kml xmlns="http://www.opengis.net/kml/2.2">
  <Document>
    <name>Tour de France 2026 - Stage 16</name>
    <Style id="routeStyle">
      <LineStyle>
        <color>ff111111</color>
        <width>4</width>
      </LineStyle>
    </Style>
    <Placemark>
      <name>Tour de France 2026 - Stage 16</name>
      <styleUrl>#routeStyle</styleUrl>
      <LineString>
        <tessellate>1</tessellate>
        <coordinates>
6.595250000,46.400410000,392.000
6.595300000,46.400400000,392.000
6.595380000,46.400370000,392.000
6.595460000,46.400360000,392.000
6.595610000,46.400340000,392.000
6.595660000,46.400330000,393.000
6.595720000,46.400320000,393.000
6.595770000,46.400300000,393.000
6.595900000,46.400260000,394.000
6.595970000,46.400240000,394.000
6.596050000,46.400220000,395.000
6.596130000,46.400200000,395.000
6.596380000,46.400150000,396.000
6.596510000,46.400120000,396.000
6.597100000,46.400010000,398.000
6.597250000,46.399980000,399.000
6.597430000,46.399940000,400.000
6.597480000,46.399930000,401.000
6.597640000,46.399890000,401.000
6.597710000,46.399880000,402.000
6.597780000,46.399860000,402.000
6.597850000,46.399840000,403.000
6.597930000,46.399820000,403.000
6.598120000,46.399780000,404.000
6.598880000,46.399630000,404.000
6.598980000,46.399620000,405.000
6.599030000,46.399610000,406.000
6.599120000,46.399590000,406.000
6.599240000,46.399570000,406.000
6.599370000,46.399550000,407.000
6.599530000,46.399520000,407.000
6.599660000,46.399500000,407.000
6.599780000,46.399480000,408.000
6.599920000,46.399470000,408.000
6.600050000,46.399460000,408.000
6.600770000,46.399430000,409.000
6.600810000,46.399430000,410.000
6.600880000,46.399420000,410.000
6.601010000,46.399400000,410.000
6.601120000,46.399390000,411.000
6.601250000,46.399390000,411.000
6.601250000,46.399390000,411.000
6.601540000,46.399370000,411.000
6.602080000,46.399350000,412.000
6.602350000,46.399340000,412.000
6.602410000,46.399340000,413.000
6.602520000,46.399340000,413.000
6.602550000,46.399340000,413.000
6.602570000,46.399340000,413.000
6.602840000,46.399350000,414.000
6.602980000,46.399360000,414.000
6.603110000,46.399370000,414.000
6.603250000,46.399390000,415.000
6.603460000,46.399420000,415.000
6.603530000,46.399430000,415.000
6.603590000,46.399430000,415.000
6.603650000,46.399430000,416.000
6.603720000,46.399420000,416.000
6.603780000,46.399410000,416.000
6.603840000,46.399400000,416.000
6.603940000,46.399370000,417.000
6.604140000,46.399310000,417.000
6.604190000,46.399300000,418.000
6.604250000,46.399290000,418.000
6.604310000,46.399280000,418.000
6.604370000,46.399280000,418.000
6.604430000,46.399290000,419.000
6.604490000,46.399290000,419.000
6.604750000,46.399330000,419.000
6.604870000,46.399350000,420.000
6.604990000,46.399350000,420.000
6.605190000,46.399360000,421.000
6.605310000,46.399360000,421.000
6.605430000,46.399370000,422.000
6.606020000,46.399370000,423.000
6.606140000,46.399370000,424.000
6.606730000,46.399380000,425.000
6.607610000,46.399370000,427.000
6.607690000,46.399370000,429.000
6.607770000,46.399360000,430.000
6.607840000,46.399340000,431.000
6.607920000,46.399320000,432.000
6.607990000,46.399300000,432.000
6.608050000,46.399270000,433.000
6.608120000,46.399240000,433.000
6.608170000,46.399200000,433.000
6.608260000,46.399130000,434.000
6.608350000,46.399070000,434.000
6.608410000,46.399030000,435.000
6.608410000,46.399030000,435.000
6.608480000,46.398990000,435.000
6.608490000,46.398990000,436.000
6.608520000,46.398970000,436.000
6.608580000,46.398950000,436.000
6.608640000,46.398920000,436.000
6.608720000,46.398900000,436.000
6.608800000,46.398880000,437.000
6.608880000,46.398870000,437.000
6.608970000,46.398860000,437.000
6.609050000,46.398850000,437.000
6.610180000,46.398810000,438.000
6.610240000,46.398810000,439.000
6.610290000,46.398800000,439.000
6.610330000,46.398800000,440.000
6.610380000,46.398800000,440.000
6.610420000,46.398790000,440.000
6.610410000,46.398770000,440.000
6.610420000,46.398750000,441.000
6.610420000,46.398740000,441.000
6.610440000,46.398720000,441.000
6.610450000,46.398710000,441.000
6.610480000,46.398700000,441.000
6.610500000,46.398690000,441.000
6.610530000,46.398690000,441.000
6.610560000,46.398690000,441.000
6.610580000,46.398690000,441.000
6.610610000,46.398700000,441.000
6.610650000,46.398670000,441.000
6.610690000,46.398630000,441.000
6.610710000,46.398600000,442.000
6.610740000,46.398560000,442.000
6.610760000,46.398510000,442.000
6.610770000,46.398470000,442.000
6.610780000,46.398430000,442.000
6.610780000,46.398380000,442.000
6.610790000,46.398340000,442.000
6.610790000,46.398090000,443.000
6.610790000,46.398040000,443.000
6.610810000,46.398000000,444.000
6.610830000,46.397950000,444.000
6.610860000,46.397910000,444.000
6.610900000,46.397880000,444.000
6.610950000,46.397840000,445.000
6.611010000,46.397820000,445.000
6.611070000,46.397800000,445.000
6.611140000,46.397780000,445.000
6.611210000,46.397780000,445.000
6.611290000,46.397780000,446.000
6.611360000,46.397800000,446.000
6.611430000,46.397820000,446.000
6.611490000,46.397840000,446.000
6.611720000,46.397950000,447.000
6.611800000,46.397980000,447.000
6.611890000,46.398010000,447.000
6.611980000,46.398030000,448.000
6.612070000,46.398050000,448.000
6.612160000,46.398070000,448.000
6.612250000,46.398080000,449.000
6.612330000,46.398080000,449.000
6.612400000,46.398080000,449.000
6.612480000,46.398080000,449.000
6.612990000,46.398050000,450.000
6.613080000,46.398040000,451.000
6.613160000,46.398040000,451.000
6.613240000,46.398040000,452.000
6.613320000,46.398050000,452.000
6.613410000,46.398060000,452.000
6.613820000,46.398110000,453.000
6.614020000,46.398110000,454.000
6.614110000,46.398100000,455.000
6.614200000,46.398090000,455.000
6.614280000,46.398070000,456.000
6.614360000,46.398040000,456.000
6.614430000,46.398010000,457.000
6.614500000,46.397980000,457.000
6.614570000,46.397940000,458.000
6.614630000,46.397910000,458.000
6.614690000,46.397870000,458.000
6.614760000,46.397820000,459.000
6.614820000,46.397770000,459.000
6.614870000,46.397710000,459.000
6.614960000,46.397610000,460.000
6.615120000,46.397430000,461.000
6.615150000,46.397400000,461.000
6.615190000,46.397360000,462.000
6.615230000,46.397330000,462.000
6.615280000,46.397300000,462.000
6.615370000,46.397240000,463.000
6.615430000,46.397210000,463.000
6.615490000,46.397170000,463.000
6.615550000,46.397130000,464.000
6.615610000,46.397090000,464.000
6.615670000,46.397060000,464.000
6.615740000,46.397030000,464.000
6.615810000,46.397000000,465.000
6.615910000,46.396970000,465.000
6.615980000,46.396950000,465.000
6.616040000,46.396920000,465.000
6.616090000,46.396890000,466.000
6.616270000,46.396670000,466.000
6.616190000,46.396630000,467.000
6.616120000,46.396570000,467.000
6.616080000,46.396540000,467.000
6.616020000,46.396500000,468.000
6.615970000,46.396470000,468.000
6.615910000,46.396450000,468.000
6.615850000,46.396420000,468.000
6.615240000,46.396380000,469.000
6.615060000,46.396370000,470.000
6.614590000,46.396340000,471.000
6.614480000,46.396330000,471.000
6.614370000,46.396320000,472.000
6.614260000,46.396300000,473.000
6.614150000,46.396280000,473.000
6.614070000,46.396270000,474.000
6.613980000,46.396250000,474.000
6.613830000,46.396210000,474.000
6.613680000,46.396170000,475.000
6.613540000,46.396110000,475.000
6.613400000,46.396050000,476.000
6.613260000,46.395990000,477.000
6.613130000,46.395920000,477.000
6.612830000,46.395740000,478.000
6.612640000,46.395620000,479.000
6.612590000,46.395600000,479.000
6.612460000,46.395520000,480.000
6.612420000,46.395490000,480.000
6.612320000,46.395430000,481.000
6.612130000,46.395300000,482.000
6.611630000,46.394980000,483.000
6.611530000,46.394920000,484.000
6.611440000,46.394860000,485.000
6.611200000,46.394710000,486.000
6.610750000,46.394460000,487.000
6.610630000,46.394440000,488.000
6.610500000,46.394450000,489.000
6.610320000,46.394490000,489.000
6.609730000,46.394680000,490.000
6.609530000,46.394730000,491.000
6.609080000,46.394730000,492.000
6.608670000,46.394710000,494.000
6.608370000,46.394680000,495.000
6.608060000,46.394610000,496.000
6.607280000,46.394400000,497.000
6.607280000,46.394400000,498.000
6.606870000,46.394290000,499.000
6.606720000,46.394240000,500.000
6.606570000,46.394200000,500.000
6.606420000,46.394150000,501.000
6.606300000,46.394120000,501.000
6.606260000,46.394110000,502.000
6.606140000,46.394070000,502.000
6.606090000,46.394060000,502.000
6.605970000,46.394030000,503.000
6.605850000,46.393990000,503.000
6.605760000,46.393980000,503.000
6.605680000,46.393960000,503.000
6.605080000,46.393790000,504.000
6.604970000,46.393760000,505.000
6.604890000,46.393740000,505.000
6.604800000,46.393710000,506.000
6.604720000,46.393680000,506.000
6.604450000,46.393590000,507.000
6.604310000,46.393540000,508.000
6.604190000,46.393500000,508.000
6.604160000,46.393490000,509.000
6.604020000,46.393450000,510.000
6.603600000,46.393330000,511.000
6.603490000,46.393300000,511.000
6.603310000,46.393230000,512.000
6.603200000,46.393180000,513.000
6.603030000,46.393090000,514.000
6.602930000,46.393030000,515.000
6.602880000,46.393010000,515.000
6.602530000,46.392810000,516.000
6.602450000,46.392770000,517.000
6.602350000,46.392730000,518.000
6.602260000,46.392700000,519.000
6.602080000,46.392630000,520.000
6.601810000,46.392550000,521.000
6.600990000,46.392290000,523.000
6.600840000,46.392250000,525.000
6.600710000,46.392210000,526.000
6.600650000,46.392190000,527.000
6.600540000,46.392160000,528.000
6.600490000,46.392140000,529.000
6.600090000,46.392000000,530.000
6.600000000,46.391960000,531.000
6.599840000,46.391900000,532.000
6.599770000,46.391870000,532.000
6.599630000,46.391820000,533.000
6.599220000,46.391680000,534.000
6.599030000,46.391610000,535.000
6.599000000,46.391600000,535.000
6.598910000,46.391570000,536.000
6.598820000,46.391540000,536.000
6.597370000,46.391120000,538.000
6.595710000,46.390670000,543.000
6.595140000,46.390510000,547.000
6.594910000,46.390440000,550.000
6.594710000,46.390390000,552.000
6.594600000,46.390360000,554.000
6.594450000,46.390320000,555.000
6.594040000,46.390210000,557.000
6.593710000,46.390110000,558.000
6.593210000,46.389980000,559.000
6.592970000,46.389910000,560.000
6.592460000,46.389770000,561.000
6.592080000,46.389670000,563.000
6.591870000,46.389600000,564.000
6.591730000,46.389560000,565.000
6.591590000,46.389510000,566.000
6.591450000,46.389450000,567.000
6.591310000,46.389380000,568.000
6.591170000,46.389310000,568.000
6.591020000,46.389230000,569.000
6.590770000,46.389090000,570.000
6.590220000,46.388760000,572.000
6.590110000,46.388700000,573.000
6.589770000,46.388500000,575.000
6.589640000,46.388420000,576.000
6.589500000,46.388350000,577.000
6.589360000,46.388290000,578.000
6.589210000,46.388240000,579.000
6.589060000,46.388190000,580.000
6.588900000,46.388150000,581.000
6.588690000,46.388090000,582.000
6.587590000,46.387840000,584.000
6.587430000,46.387800000,586.000
6.587270000,46.387750000,587.000
6.587110000,46.387700000,588.000
6.586680000,46.387560000,590.000
6.586640000,46.387550000,591.000
6.585970000,46.387330000,593.000
6.585700000,46.387250000,594.000
6.585340000,46.387140000,596.000
6.583830000,46.386720000,600.000
6.583690000,46.386680000,602.000
6.583360000,46.386590000,604.000
6.583020000,46.386520000,606.000
6.581480000,46.386190000,608.000
6.581210000,46.386140000,610.000
6.580930000,46.386090000,612.000
6.580510000,46.386030000,614.000
6.579900000,46.385960000,617.000
6.579680000,46.385940000,618.000
6.579720000,46.385880000,620.000
6.579740000,46.385850000,621.000
6.579760000,46.385820000,622.000
6.579770000,46.385780000,622.000
6.579780000,46.385750000,623.000
6.579800000,46.385600000,624.000
6.579810000,46.385580000,624.000
6.579820000,46.385560000,624.000
6.579840000,46.385530000,625.000
6.579790000,46.385510000,625.000
6.579740000,46.385490000,625.000
6.579720000,46.385480000,626.000
6.579690000,46.385470000,626.000
6.579660000,46.385460000,626.000
6.579630000,46.385460000,626.000
6.579270000,46.385420000,627.000
6.579040000,46.385400000,628.000
6.578820000,46.385370000,629.000
6.578600000,46.385330000,630.000
6.578380000,46.385290000,630.000
6.578160000,46.385240000,631.000
6.577950000,46.385190000,632.000
6.577740000,46.385130000,633.000
6.577530000,46.385070000,634.000
6.577140000,46.384950000,635.000
6.577040000,46.384920000,636.000
6.576940000,46.384890000,637.000
6.576840000,46.384870000,638.000
6.576740000,46.384860000,638.000
6.576630000,46.384850000,639.000
6.576520000,46.384850000,639.000
6.576410000,46.384860000,639.000
6.576310000,46.384870000,639.000
6.576100000,46.384890000,639.000
6.575990000,46.384900000,639.000
6.575870000,46.384910000,639.000
6.575760000,46.384900000,639.000
6.575650000,46.384900000,639.000
6.575540000,46.384880000,639.000
6.575430000,46.384860000,639.000
6.575320000,46.384840000,639.000
6.575140000,46.384790000,639.000
6.573900000,46.384420000,639.000
6.573640000,46.384340000,640.000
6.573370000,46.384260000,640.000
6.573130000,46.384190000,641.000
6.572330000,46.383980000,643.000
6.572280000,46.383970000,644.000
6.572100000,46.383920000,645.000
6.569980000,46.383390000,648.000
6.569830000,46.383350000,651.000
6.569670000,46.383300000,653.000
6.569510000,46.383260000,654.000
6.569380000,46.383210000,655.000
6.569240000,46.383170000,656.000
6.569090000,46.383110000,656.000
6.568710000,46.382970000,657.000
6.568290000,46.382820000,657.000
6.568070000,46.382740000,658.000
6.567800000,46.382660000,659.000
6.567450000,46.382570000,659.000
6.567150000,46.382500000,660.000
6.566210000,46.382270000,662.000
6.566120000,46.382250000,663.000
6.565900000,46.382200000,664.000
6.565560000,46.382120000,665.000
6.565210000,46.382030000,666.000
6.565000000,46.381980000,667.000
6.564830000,46.381930000,668.000
6.564270000,46.381780000,668.000
6.564030000,46.381710000,669.000
6.563800000,46.381630000,669.000
6.563050000,46.381390000,669.000
6.562140000,46.381110000,669.000
6.561380000,46.380850000,671.000
6.561270000,46.380810000,672.000
6.561160000,46.380770000,673.000
6.560600000,46.380540000,674.000
6.560540000,46.380520000,675.000
6.560450000,46.380480000,676.000
6.560450000,46.380480000,677.000
6.560140000,46.380350000,678.000
6.559820000,46.380220000,679.000
6.559540000,46.380110000,680.000
6.559380000,46.380050000,680.000
6.559230000,46.380010000,681.000
6.557860000,46.379590000,680.000
6.556980000,46.379330000,680.000
6.556890000,46.379290000,680.000
6.556810000,46.379260000,680.000
6.556730000,46.379220000,680.000
6.556650000,46.379180000,680.000
6.556590000,46.379140000,680.000
6.556530000,46.379090000,680.000
6.556480000,46.379040000,681.000
6.556420000,46.378980000,681.000
6.556370000,46.378910000,681.000
6.556320000,46.378830000,681.000
6.556300000,46.378770000,682.000
6.556270000,46.378710000,682.000
6.556260000,46.378660000,682.000
6.556250000,46.378590000,682.000
6.556250000,46.378520000,682.000
6.556260000,46.378450000,683.000
6.556280000,46.378180000,683.000
6.556300000,46.378070000,683.000
6.556310000,46.377980000,684.000
6.556320000,46.377960000,684.000
6.556340000,46.377850000,684.000
6.556370000,46.377710000,685.000
6.556380000,46.377630000,685.000
6.556400000,46.377550000,685.000
6.556400000,46.377490000,685.000
6.556400000,46.377430000,686.000
6.556390000,46.377370000,686.000
6.556370000,46.377310000,686.000
6.556340000,46.377260000,686.000
6.556300000,46.377190000,686.000
6.556240000,46.377100000,686.000
6.556220000,46.377070000,686.000
6.556100000,46.376900000,686.000
6.556070000,46.376860000,686.000
6.556060000,46.376830000,686.000
6.556030000,46.376800000,686.000
6.555970000,46.376710000,686.000
6.555660000,46.376270000,687.000
6.555590000,46.376170000,687.000
6.555510000,46.376060000,687.000
6.555450000,46.376000000,687.000
6.555380000,46.375940000,687.000
6.555320000,46.375880000,688.000
6.555240000,46.375830000,688.000
6.555170000,46.375790000,688.000
6.554850000,46.375600000,689.000
6.554490000,46.375390000,690.000
6.554420000,46.375350000,691.000
6.554360000,46.375300000,691.000
6.554290000,46.375260000,692.000
6.554230000,46.375210000,692.000
6.554180000,46.375160000,693.000
6.554130000,46.375120000,693.000
6.554090000,46.375080000,693.000
6.553860000,46.374820000,694.000
6.553790000,46.374750000,695.000
6.553730000,46.374670000,695.000
6.553680000,46.374610000,696.000
6.553640000,46.374540000,696.000
6.553610000,46.374490000,696.000
6.553580000,46.374440000,697.000
6.553550000,46.374350000,697.000
6.553530000,46.374270000,698.000
6.553510000,46.374180000,698.000
6.553500000,46.374090000,699.000
6.553500000,46.374010000,699.000
6.553500000,46.373920000,700.000
6.553500000,46.373850000,700.000
6.553500000,46.373760000,701.000
6.553510000,46.373680000,701.000
6.553520000,46.373610000,702.000
6.553510000,46.373540000,702.000
6.553500000,46.373460000,703.000
6.553490000,46.373390000,703.000
6.553470000,46.373330000,704.000
6.553450000,46.373260000,704.000
6.553420000,46.373200000,704.000
6.553400000,46.373150000,705.000
6.553390000,46.373120000,705.000
6.553330000,46.373010000,706.000
6.553140000,46.372700000,707.000
6.553110000,46.372650000,707.000
6.552910000,46.372350000,709.000
6.552880000,46.372310000,709.000
6.552860000,46.372270000,710.000
6.552850000,46.372230000,711.000
6.552840000,46.372190000,711.000
6.552850000,46.372150000,712.000
6.552870000,46.372110000,712.000
6.552890000,46.372060000,712.000
6.552910000,46.372030000,713.000
6.552930000,46.371990000,713.000
6.552970000,46.371950000,713.000
6.553010000,46.371920000,713.000
6.553050000,46.371880000,714.000
6.553100000,46.371850000,714.000
6.553630000,46.371450000,715.000
6.553700000,46.371410000,716.000
6.553770000,46.371380000,717.000
6.553850000,46.371340000,718.000
6.553930000,46.371320000,718.000
6.554010000,46.371290000,719.000
6.554100000,46.371280000,720.000
6.554190000,46.371260000,720.000
6.554230000,46.371260000,720.000
6.554280000,46.371260000,721.000
6.554350000,46.371250000,721.000
6.554450000,46.371250000,721.000
6.554840000,46.371230000,722.000
6.555400000,46.371220000,724.000
6.555670000,46.371200000,725.000
6.556000000,46.371190000,727.000
6.556050000,46.371190000,728.000
6.556070000,46.371190000,729.000
6.556340000,46.371180000,730.000
6.556470000,46.371180000,731.000
6.556600000,46.371170000,731.000
6.556730000,46.371160000,732.000
6.556850000,46.371140000,733.000
6.556990000,46.371130000,733.000
6.557030000,46.371120000,734.000
6.557130000,46.371110000,734.000
6.557240000,46.371100000,734.000
6.557340000,46.371080000,735.000
6.557430000,46.371060000,735.000
6.557480000,46.371040000,735.000
6.557510000,46.371040000,735.000
6.557870000,46.370920000,736.000
6.557990000,46.370880000,736.000
6.558060000,46.370860000,737.000
6.558140000,46.370840000,737.000
6.558210000,46.370840000,737.000
6.558290000,46.370840000,738.000
6.558380000,46.370840000,738.000
6.558470000,46.370850000,738.000
6.558570000,46.370870000,739.000
6.558660000,46.370890000,739.000
6.558800000,46.370920000,739.000
6.558850000,46.370940000,739.000
6.558940000,46.370960000,740.000
6.558970000,46.370970000,740.000
6.559310000,46.371080000,740.000
6.559370000,46.371090000,741.000
6.559410000,46.371110000,741.000
6.559470000,46.371130000,742.000
6.559590000,46.371170000,742.000
6.559700000,46.371210000,743.000
6.560450000,46.371540000,744.000
6.560460000,46.371540000,746.000
6.560530000,46.371560000,747.000
6.560600000,46.371580000,747.000
6.560680000,46.371580000,748.000
6.560750000,46.371590000,749.000
6.560830000,46.371580000,749.000
6.560900000,46.371550000,749.000
6.560960000,46.371520000,750.000
6.561020000,46.371470000,750.000
6.561070000,46.371410000,751.000
6.561310000,46.371070000,752.000
6.561340000,46.371030000,753.000
6.561670000,46.370590000,755.000
6.561680000,46.370580000,756.000
6.561740000,46.370500000,757.000
6.561840000,46.370400000,758.000
6.562160000,46.370100000,759.000
6.562190000,46.370080000,760.000
6.562210000,46.370050000,761.000
6.562370000,46.369920000,762.000
6.562570000,46.369740000,763.000
6.562630000,46.369690000,764.000
6.562690000,46.369620000,764.000
6.562750000,46.369560000,765.000
6.562970000,46.369260000,766.000
6.563040000,46.369150000,767.000
6.563080000,46.369100000,767.000
6.563130000,46.369060000,768.000
6.563170000,46.369020000,768.000
6.563220000,46.368980000,768.000
6.563330000,46.368900000,769.000
6.563400000,46.368840000,769.000
6.563460000,46.368790000,769.000
6.563540000,46.368730000,770.000
6.563600000,46.368670000,770.000
6.563630000,46.368640000,770.000
6.563680000,46.368580000,771.000
6.563730000,46.368510000,771.000
6.563770000,46.368450000,771.000
6.563820000,46.368370000,771.000
6.563910000,46.368160000,772.000
6.563950000,46.368060000,772.000
6.563990000,46.367990000,773.000
6.564030000,46.367940000,773.000
6.564070000,46.367880000,773.000
6.564110000,46.367840000,774.000
6.564150000,46.367790000,774.000
6.564200000,46.367750000,774.000
6.564240000,46.367730000,775.000
6.564300000,46.367710000,775.000
6.564380000,46.367690000,775.000
6.564460000,46.367670000,775.000
6.564630000,46.367660000,776.000
6.565230000,46.367610000,777.000
6.565260000,46.367600000,777.000
6.565560000,46.367580000,778.000
6.565650000,46.367570000,779.000
6.565740000,46.367550000,779.000
6.565820000,46.367530000,780.000
6.565890000,46.367510000,780.000
6.565940000,46.367480000,780.000
6.566020000,46.367430000,781.000
6.566100000,46.367380000,781.000
6.566490000,46.367090000,782.000
6.566630000,46.367010000,783.000
6.566710000,46.366970000,783.000
6.566780000,46.366930000,784.000
6.566810000,46.366920000,784.000
6.566840000,46.366910000,784.000
6.566890000,46.366890000,784.000
6.566940000,46.366890000,785.000
6.566990000,46.366880000,785.000
6.567040000,46.366880000,785.000
6.567090000,46.366880000,785.000
6.567140000,46.366890000,785.000
6.567190000,46.366900000,786.000
6.567230000,46.366910000,786.000
6.567270000,46.366920000,786.000
6.567310000,46.366940000,786.000
6.567770000,46.367100000,787.000
6.567810000,46.367120000,787.000
6.567870000,46.367140000,787.000
6.568040000,46.367210000,788.000
6.568470000,46.367390000,789.000
6.568640000,46.367450000,789.000
6.568690000,46.367470000,790.000
6.568860000,46.367530000,790.000
6.569030000,46.367590000,791.000
6.569100000,46.367620000,791.000
6.569480000,46.367770000,792.000
6.569590000,46.367820000,792.000
6.569660000,46.367850000,792.000
6.569780000,46.367910000,792.000
6.569850000,46.367940000,793.000
6.569900000,46.367970000,793.000
6.569950000,46.368000000,793.000
6.570020000,46.368040000,793.000
6.570200000,46.368170000,793.000
6.570200000,46.368170000,793.000
6.570250000,46.368200000,794.000
6.570280000,46.368220000,794.000
6.570350000,46.368270000,794.000
6.570400000,46.368300000,794.000
6.570450000,46.368330000,794.000
6.570520000,46.368360000,794.000
6.570590000,46.368390000,794.000
6.570680000,46.368410000,794.000
6.570760000,46.368430000,794.000
6.570850000,46.368440000,795.000
6.571360000,46.368490000,795.000
6.571490000,46.368510000,795.000
6.571550000,46.368520000,795.000
6.571590000,46.368530000,795.000
6.571850000,46.368600000,795.000
6.571920000,46.368630000,795.000
6.572000000,46.368650000,795.000
6.572070000,46.368680000,795.000
6.572250000,46.368740000,795.000
6.572390000,46.368620000,795.000
6.572440000,46.368590000,795.000
6.572490000,46.368580000,795.000
6.572550000,46.368570000,795.000
6.572620000,46.368570000,795.000
6.572670000,46.368580000,795.000
6.572700000,46.368540000,795.000
6.572730000,46.368500000,795.000
6.572800000,46.368420000,795.000
6.572910000,46.368300000,795.000
6.572940000,46.368250000,795.000
6.572960000,46.368210000,795.000
6.572980000,46.368180000,795.000
6.573000000,46.368090000,795.000
6.573010000,46.368010000,795.000
6.573020000,46.367870000,795.000
6.573010000,46.367840000,795.000
6.572990000,46.367830000,796.000
6.572950000,46.367800000,796.000
6.572690000,46.367680000,796.000
6.572620000,46.367640000,796.000
6.572560000,46.367600000,796.000
6.572520000,46.367550000,796.000
6.572500000,46.367510000,796.000
6.572490000,46.367460000,796.000
6.572480000,46.367420000,796.000
6.572480000,46.367380000,796.000
6.572480000,46.367350000,796.000
6.572490000,46.367300000,796.000
6.572520000,46.367120000,796.000
6.572530000,46.367080000,796.000
6.572560000,46.366970000,796.000
6.572610000,46.366750000,796.000
6.572620000,46.366710000,796.000
6.572670000,46.366530000,796.000
6.572680000,46.366480000,796.000
6.572690000,46.366440000,796.000
6.572690000,46.366390000,796.000
6.572680000,46.366340000,796.000
6.572670000,46.366170000,796.000
6.572660000,46.366100000,797.000
6.572660000,46.366040000,797.000
6.572700000,46.365730000,797.000
6.572700000,46.365680000,798.000
6.572700000,46.365640000,798.000
6.572700000,46.365590000,798.000
6.572700000,46.365520000,798.000
6.572670000,46.365320000,799.000
6.572640000,46.365190000,799.000
6.572640000,46.365120000,800.000
6.572630000,46.365040000,800.000
6.572570000,46.364530000,801.000
6.572560000,46.364430000,802.000
6.572540000,46.364330000,802.000
6.572520000,46.364270000,803.000
6.572500000,46.364210000,803.000
6.572470000,46.364150000,803.000
6.572220000,46.363630000,804.000
6.572110000,46.363400000,804.000
6.572090000,46.363340000,805.000
6.572060000,46.363270000,805.000
6.572040000,46.363200000,806.000
6.571970000,46.362930000,806.000
6.571960000,46.362850000,806.000
6.571950000,46.362760000,806.000
6.571940000,46.362550000,807.000
6.571900000,46.361890000,807.000
6.571890000,46.361830000,807.000
6.571880000,46.361750000,807.000
6.571860000,46.361680000,807.000
6.571830000,46.361610000,807.000
6.571790000,46.361530000,807.000
6.571740000,46.361450000,807.000
6.571700000,46.361410000,807.000
6.571480000,46.361120000,807.000
6.571430000,46.361060000,807.000
6.571380000,46.360990000,807.000
6.571350000,46.360920000,807.000
6.571320000,46.360860000,807.000
6.571300000,46.360790000,807.000
6.571270000,46.360480000,807.000
6.571250000,46.360400000,807.000
6.571220000,46.360330000,807.000
6.571190000,46.360260000,807.000
6.571140000,46.360190000,807.000
6.570850000,46.359760000,807.000
6.570820000,46.359710000,807.000
6.570810000,46.359660000,807.000
6.570800000,46.359620000,807.000
6.570810000,46.359570000,807.000
6.570830000,46.359520000,807.000
6.571030000,46.359160000,807.000
6.571060000,46.359100000,807.000
6.571080000,46.359030000,807.000
6.571080000,46.358980000,807.000
6.571080000,46.358910000,807.000
6.571080000,46.358840000,807.000
6.571060000,46.358770000,807.000
6.571030000,46.358690000,807.000
6.570960000,46.358520000,807.000
6.570910000,46.358400000,807.000
6.570860000,46.358270000,806.000
6.570830000,46.358200000,806.000
6.570780000,46.358120000,806.000
6.570680000,46.357910000,806.000
6.570600000,46.357750000,805.000
6.570380000,46.357340000,805.000
6.570270000,46.357120000,804.000
6.570250000,46.357060000,804.000
6.570230000,46.357020000,804.000
6.570220000,46.356970000,804.000
6.570200000,46.356780000,804.000
6.570160000,46.356540000,804.000
6.570150000,46.356490000,804.000
6.570150000,46.356440000,804.000
6.570160000,46.356380000,804.000
6.570170000,46.356330000,804.000
6.570220000,46.356180000,804.000
6.570150000,46.356170000,804.000
6.570080000,46.356160000,804.000
6.570010000,46.356130000,804.000
6.569950000,46.356100000,804.000
6.569880000,46.356070000,804.000
6.569820000,46.356040000,804.000
6.569460000,46.355840000,804.000
6.569430000,46.355820000,804.000
6.569020000,46.355590000,804.000
6.568760000,46.355450000,804.000
6.568580000,46.355340000,804.000
6.568530000,46.355310000,803.000
6.568290000,46.355170000,803.000
6.567760000,46.354860000,801.000
6.567640000,46.354800000,800.000
6.567400000,46.354660000,799.000
6.567290000,46.354590000,799.000
6.567170000,46.354530000,798.000
6.567040000,46.354460000,797.000
6.566910000,46.354410000,797.000
6.566510000,46.354230000,796.000
6.566320000,46.354150000,795.000
6.566190000,46.354100000,794.000
6.566050000,46.354050000,793.000
6.565900000,46.354010000,793.000
6.565760000,46.353980000,792.000
6.565570000,46.353950000,792.000
6.565480000,46.353930000,791.000
6.565400000,46.353910000,791.000
6.565320000,46.353880000,790.000
6.565250000,46.353860000,790.000
6.565190000,46.353830000,790.000
6.565130000,46.353810000,789.000
6.565030000,46.353770000,789.000
6.564970000,46.353740000,789.000
6.564840000,46.353690000,788.000
6.564700000,46.353640000,788.000
6.564640000,46.353620000,787.000
6.564590000,46.353600000,787.000
6.564570000,46.353590000,787.000
6.564530000,46.353590000,787.000
6.564470000,46.353570000,786.000
6.564350000,46.353550000,786.000
6.564280000,46.353550000,786.000
6.564240000,46.353540000,786.000
6.564200000,46.353540000,785.000
6.564100000,46.353520000,785.000
6.563960000,46.353490000,785.000
6.563840000,46.353470000,784.000
6.563780000,46.353450000,784.000
6.563730000,46.353440000,784.000
6.563700000,46.353430000,783.000
6.563640000,46.353400000,783.000
6.563610000,46.353400000,783.000
6.563570000,46.353390000,783.000
6.563520000,46.353380000,782.000
6.563430000,46.353360000,782.000
6.563330000,46.353340000,782.000
6.563080000,46.353280000,781.000
6.562800000,46.353210000,780.000
6.562010000,46.353030000,779.000
6.561950000,46.353010000,778.000
6.561890000,46.352990000,777.000
6.561800000,46.352950000,776.000
6.561710000,46.352920000,775.000
6.561680000,46.352910000,775.000
6.561610000,46.352890000,774.000
6.561560000,46.352890000,774.000
6.561510000,46.352880000,774.000
6.561320000,46.352860000,773.000
6.561240000,46.352860000,773.000
6.560770000,46.352830000,772.000
6.560710000,46.352830000,771.000
6.560580000,46.352820000,770.000
6.560500000,46.352810000,770.000
6.559950000,46.352770000,769.000
6.559950000,46.352770000,768.000
6.559540000,46.352740000,767.000
6.558830000,46.352680000,765.000
6.558700000,46.352670000,764.000
6.558570000,46.352670000,762.000
6.558440000,46.352680000,761.000
6.558310000,46.352690000,760.000
6.557970000,46.352720000,759.000
6.557840000,46.352730000,757.000
6.557700000,46.352740000,756.000
6.557570000,46.352740000,755.000
6.557420000,46.352740000,754.000
6.557370000,46.352750000,753.000
6.557140000,46.352750000,752.000
6.557010000,46.352760000,751.000
6.556910000,46.352770000,750.000
6.556810000,46.352790000,749.000
6.556710000,46.352810000,749.000
6.556620000,46.352830000,748.000
6.556540000,46.352860000,747.000
6.556450000,46.352890000,747.000
6.556380000,46.352930000,746.000
6.556310000,46.352970000,745.000
6.556260000,46.353010000,745.000
6.556210000,46.353040000,744.000
6.556160000,46.353090000,744.000
6.555960000,46.353260000,743.000
6.555860000,46.353340000,742.000
6.555800000,46.353390000,741.000
6.555730000,46.353440000,740.000
6.555670000,46.353480000,740.000
6.555600000,46.353500000,739.000
6.555540000,46.353530000,739.000
6.555480000,46.353550000,738.000
6.555410000,46.353570000,738.000
6.555350000,46.353590000,737.000
6.555290000,46.353610000,737.000
6.555220000,46.353620000,736.000
6.555100000,46.353650000,736.000
6.554780000,46.353710000,735.000
6.554700000,46.353730000,734.000
6.554130000,46.353840000,733.000
6.554000000,46.353860000,731.000
6.553700000,46.353920000,730.000
6.553610000,46.353940000,729.000
6.553500000,46.353960000,728.000
6.553350000,46.354000000,727.000
6.553200000,46.354040000,726.000
6.553110000,46.354070000,726.000
6.553030000,46.354100000,725.000
6.552770000,46.354200000,724.000
6.552650000,46.354250000,723.000
6.552180000,46.354430000,722.000
6.551890000,46.354540000,721.000
6.551610000,46.354660000,719.000
6.551520000,46.354690000,718.000
6.551450000,46.354710000,717.000
6.551390000,46.354730000,716.000
6.551310000,46.354740000,716.000
6.551220000,46.354740000,715.000
6.551130000,46.354740000,714.000
6.550950000,46.354730000,714.000
6.550770000,46.354710000,713.000
6.550530000,46.354690000,711.000
6.550420000,46.354670000,710.000
6.550310000,46.354660000,709.000
6.550230000,46.354640000,708.000
6.550130000,46.354630000,708.000
6.550040000,46.354610000,707.000
6.550020000,46.354600000,706.000
6.549780000,46.354540000,705.000
6.549250000,46.354400000,704.000
6.549190000,46.354390000,702.000
6.549160000,46.354380000,701.000
6.549080000,46.354370000,700.000
6.548980000,46.354350000,700.000
6.548820000,46.354330000,699.000
6.548770000,46.354320000,698.000
6.548680000,46.354300000,698.000
6.548590000,46.354290000,698.000
6.548200000,46.354260000,697.000
6.548110000,46.354250000,696.000
6.548010000,46.354240000,696.000
6.547940000,46.354240000,695.000
6.547780000,46.354220000,695.000
6.547690000,46.354220000,694.000
6.547600000,46.354210000,694.000
6.547470000,46.354200000,693.000
6.546400000,46.354110000,692.000
6.546260000,46.354100000,691.000
6.546100000,46.354080000,690.000
6.545960000,46.354070000,689.000
6.545820000,46.354060000,688.000
6.545680000,46.354050000,688.000
6.545540000,46.354050000,687.000
6.545430000,46.354060000,687.000
6.545320000,46.354080000,686.000
6.545210000,46.354090000,686.000
6.545000000,46.354130000,686.000
6.544550000,46.354220000,685.000
6.544400000,46.354250000,684.000
6.544290000,46.354270000,684.000
6.544230000,46.354280000,683.000
6.544180000,46.354280000,683.000
6.544110000,46.354280000,683.000
6.544050000,46.354280000,683.000
6.543970000,46.354270000,682.000
6.543890000,46.354260000,682.000
6.543820000,46.354240000,682.000
6.543590000,46.354190000,682.000
6.543380000,46.354130000,681.000
6.542980000,46.354010000,681.000
6.542840000,46.353980000,681.000
6.542700000,46.353950000,680.000
6.542580000,46.353920000,680.000
6.542460000,46.353910000,680.000
6.542330000,46.353900000,680.000
6.542210000,46.353900000,679.000
6.542090000,46.353900000,679.000
6.541960000,46.353900000,679.000
6.541840000,46.353910000,679.000
6.541380000,46.353970000,678.000
6.541290000,46.353980000,678.000
6.541190000,46.353980000,678.000
6.541090000,46.353980000,677.000
6.540990000,46.353970000,676.000
6.540650000,46.353940000,675.000
6.540520000,46.353930000,673.000
6.540390000,46.353930000,672.000
6.540260000,46.353940000,671.000
6.540140000,46.353950000,669.000
6.539440000,46.354050000,666.000
6.539370000,46.354060000,664.000
6.539290000,46.354080000,662.000
6.539220000,46.354100000,661.000
6.539150000,46.354130000,659.000
6.539030000,46.354180000,658.000
6.538980000,46.354210000,657.000
6.538920000,46.354220000,656.000
6.538860000,46.354240000,656.000
6.538800000,46.354250000,655.000
6.538700000,46.354260000,654.000
6.538650000,46.354270000,653.000
6.538600000,46.354280000,653.000
6.538550000,46.354300000,653.000
6.538510000,46.354330000,652.000
6.538470000,46.354360000,652.000
6.538400000,46.354430000,652.000
6.538350000,46.354470000,651.000
6.538300000,46.354500000,651.000
6.538250000,46.354530000,651.000
6.538190000,46.354560000,651.000
6.538120000,46.354570000,650.000
6.537970000,46.354610000,650.000
6.537710000,46.354680000,650.000
6.537600000,46.354710000,649.000
6.537490000,46.354750000,649.000
6.537380000,46.354790000,648.000
6.537280000,46.354840000,648.000
6.537180000,46.354900000,647.000
6.537090000,46.354950000,647.000
6.537000000,46.355020000,646.000
6.536930000,46.355090000,646.000
6.536860000,46.355150000,646.000
6.536820000,46.355190000,645.000
6.536770000,46.355230000,645.000
6.536720000,46.355260000,645.000
6.536660000,46.355290000,644.000
6.536590000,46.355310000,644.000
6.536510000,46.355330000,644.000
6.536410000,46.355350000,643.000
6.536320000,46.355370000,643.000
6.536230000,46.355380000,643.000
6.536130000,46.355390000,642.000
6.536040000,46.355400000,642.000
6.535960000,46.355410000,642.000
6.535870000,46.355430000,641.000
6.535790000,46.355450000,641.000
6.535710000,46.355490000,641.000
6.535640000,46.355530000,641.000
6.535590000,46.355580000,640.000
6.535540000,46.355630000,640.000
6.535500000,46.355680000,640.000
6.535470000,46.355740000,639.000
6.535450000,46.355800000,639.000
6.535440000,46.355870000,639.000
6.535410000,46.356110000,638.000
6.535400000,46.356160000,637.000
6.535380000,46.356210000,637.000
6.535350000,46.356250000,637.000
6.535310000,46.356290000,636.000
6.535260000,46.356330000,636.000
6.535210000,46.356360000,636.000
6.535130000,46.356390000,635.000
6.534990000,46.356450000,635.000
6.534800000,46.356520000,635.000
6.534610000,46.356580000,634.000
6.534500000,46.356620000,633.000
6.534390000,46.356650000,632.000
6.534290000,46.356670000,631.000
6.534220000,46.356680000,630.000
6.534160000,46.356680000,629.000
6.534090000,46.356680000,628.000
6.534030000,46.356670000,628.000
6.533970000,46.356650000,627.000
6.533920000,46.356630000,627.000
6.533840000,46.356590000,626.000
6.533770000,46.356540000,625.000
6.533570000,46.356410000,624.000
6.533490000,46.356360000,623.000
6.533170000,46.356190000,621.000
6.533070000,46.356120000,619.000
6.532970000,46.356060000,618.000
6.532870000,46.355990000,616.000
6.532780000,46.355920000,615.000
6.532640000,46.355800000,613.000
6.532500000,46.355690000,612.000
6.532410000,46.355620000,611.000
6.532300000,46.355550000,611.000
6.532190000,46.355490000,610.000
6.532130000,46.355460000,609.000
6.532080000,46.355440000,609.000
6.532030000,46.355420000,609.000
6.531980000,46.355420000,608.000
6.531920000,46.355420000,608.000
6.531870000,46.355430000,608.000
6.531820000,46.355440000,608.000
6.531770000,46.355470000,608.000
6.531730000,46.355490000,607.000
6.531700000,46.355520000,607.000
6.531660000,46.355560000,607.000
6.531220000,46.356190000,606.000
6.531190000,46.356230000,605.000
6.531180000,46.356270000,604.000
6.531170000,46.356310000,604.000
6.531170000,46.356350000,604.000
6.531180000,46.356390000,603.000
6.531210000,46.356430000,603.000
6.531240000,46.356470000,603.000
6.531280000,46.356500000,603.000
6.531320000,46.356530000,602.000
6.531420000,46.356590000,602.000
6.531480000,46.356630000,602.000
6.531540000,46.356670000,602.000
6.531590000,46.356720000,601.000
6.531630000,46.356770000,601.000
6.531670000,46.356830000,601.000
6.531690000,46.356880000,601.000
6.531720000,46.356950000,600.000
6.531760000,46.357010000,600.000
6.531810000,46.357060000,600.000
6.531870000,46.357110000,599.000
6.532030000,46.357210000,599.000
6.532090000,46.357240000,599.000
6.532130000,46.357290000,598.000
6.532160000,46.357340000,598.000
6.532180000,46.357390000,598.000
6.532190000,46.357440000,598.000
6.532190000,46.357500000,597.000
6.532180000,46.357550000,597.000
6.532150000,46.357600000,597.000
6.532110000,46.357650000,597.000
6.532070000,46.357690000,596.000
6.531840000,46.357860000,596.000
6.531750000,46.357930000,595.000
6.531550000,46.358110000,594.000
6.531470000,46.358170000,593.000
6.531420000,46.358210000,592.000
6.531360000,46.358240000,591.000
6.531300000,46.358270000,590.000
6.531230000,46.358290000,590.000
6.531160000,46.358300000,589.000
6.531090000,46.358310000,588.000
6.531020000,46.358310000,588.000
6.530950000,46.358310000,587.000
6.530740000,46.358290000,586.000
6.530680000,46.358290000,585.000
6.530610000,46.358290000,584.000
6.530380000,46.358290000,583.000
6.530250000,46.358280000,582.000
6.530120000,46.358270000,581.000
6.529960000,46.358250000,579.000
6.529560000,46.358210000,577.000
6.529480000,46.358200000,576.000
6.529410000,46.358180000,575.000
6.529340000,46.358160000,574.000
6.529270000,46.358140000,573.000
6.529220000,46.358120000,572.000
6.529160000,46.358110000,572.000
6.529090000,46.358100000,571.000
6.529030000,46.358090000,571.000
6.528970000,46.358090000,571.000
6.528880000,46.358080000,570.000
6.528800000,46.358090000,570.000
6.528720000,46.358090000,570.000
6.528650000,46.358100000,569.000
6.528590000,46.358110000,569.000
6.528530000,46.358130000,569.000
6.528470000,46.358160000,569.000
6.528420000,46.358180000,568.000
6.528370000,46.358220000,568.000
6.528320000,46.358270000,568.000
6.528250000,46.358340000,567.000
6.528180000,46.358410000,567.000
6.528110000,46.358480000,567.000
6.528050000,46.358530000,566.000
6.527980000,46.358570000,566.000
6.527920000,46.358620000,565.000
6.527840000,46.358650000,565.000
6.527640000,46.358740000,565.000
6.527540000,46.358790000,564.000
6.527430000,46.358840000,563.000
6.527360000,46.358860000,563.000
6.527280000,46.358890000,563.000
6.527200000,46.358900000,562.000
6.527120000,46.358920000,562.000
6.527050000,46.358930000,561.000
6.526960000,46.358930000,561.000
6.526770000,46.358930000,560.000
6.526630000,46.358940000,559.000
6.526480000,46.358950000,558.000
6.526350000,46.358960000,557.000
6.526260000,46.358970000,557.000
6.526160000,46.358970000,556.000
6.526060000,46.358970000,555.000
6.526010000,46.358970000,554.000
6.525950000,46.358970000,554.000
6.525900000,46.358980000,553.000
6.525850000,46.359000000,553.000
6.525810000,46.359020000,553.000
6.525770000,46.359050000,552.000
6.525740000,46.359080000,552.000
6.525710000,46.359110000,551.000
6.525640000,46.359210000,551.000
6.525590000,46.359280000,550.000
6.525550000,46.359310000,550.000
6.525510000,46.359340000,549.000
6.525470000,46.359360000,549.000
6.525420000,46.359390000,548.000
6.525370000,46.359410000,548.000
6.525320000,46.359420000,547.000
6.525210000,46.359440000,547.000
6.525060000,46.359460000,546.000
6.524900000,46.359490000,545.000
6.524840000,46.359500000,544.000
6.524770000,46.359520000,544.000
6.524710000,46.359540000,543.000
6.524660000,46.359570000,543.000
6.524560000,46.359630000,542.000
6.524460000,46.359690000,541.000
6.524370000,46.359750000,541.000
6.524300000,46.359810000,540.000
6.524260000,46.359840000,539.000
6.524230000,46.359880000,539.000
6.524170000,46.359940000,538.000
6.524130000,46.359990000,538.000
6.524100000,46.360020000,537.000
6.524050000,46.360050000,537.000
6.524000000,46.360080000,536.000
6.523940000,46.360100000,536.000
6.523880000,46.360110000,535.000
6.523820000,46.360120000,535.000
6.523630000,46.360120000,534.000
6.523560000,46.360120000,534.000
6.523500000,46.360130000,533.000
6.523440000,46.360150000,533.000
6.523380000,46.360170000,532.000
6.523330000,46.360200000,532.000
6.523290000,46.360240000,531.000
6.523270000,46.360280000,531.000
6.523250000,46.360320000,530.000
6.523250000,46.360370000,530.000
6.523260000,46.360410000,529.000
6.523280000,46.360450000,529.000
6.523310000,46.360490000,529.000
6.523340000,46.360530000,528.000
6.523370000,46.360570000,528.000
6.523410000,46.360610000,527.000
6.523460000,46.360640000,527.000
6.523570000,46.360720000,527.000
6.523640000,46.360770000,526.000
6.523710000,46.360810000,526.000
6.523790000,46.360850000,526.000
6.523870000,46.360880000,526.000
6.523950000,46.360910000,526.000
6.524040000,46.360940000,525.000
6.524140000,46.360970000,525.000
6.524240000,46.360980000,525.000
6.524330000,46.360990000,525.000
6.524440000,46.360990000,525.000
6.524550000,46.360990000,524.000
6.524640000,46.360990000,524.000
6.524730000,46.361000000,524.000
6.524810000,46.361020000,524.000
6.524890000,46.361040000,524.000
6.524990000,46.361080000,524.000
6.525080000,46.361110000,523.000
6.525170000,46.361140000,523.000
6.525260000,46.361170000,523.000
6.525360000,46.361190000,523.000
6.525440000,46.361220000,523.000
6.525530000,46.361260000,522.000
6.525600000,46.361300000,522.000
6.525680000,46.361340000,522.000
6.525760000,46.361400000,522.000
6.525840000,46.361460000,522.000
6.525920000,46.361520000,521.000
6.525990000,46.361590000,521.000
6.526060000,46.361660000,520.000
6.526120000,46.361730000,520.000
6.526330000,46.361960000,519.000
6.526360000,46.362000000,518.000
6.526390000,46.362050000,518.000
6.526410000,46.362080000,517.000
6.526420000,46.362120000,517.000
6.526410000,46.362160000,517.000
6.526400000,46.362200000,516.000
6.526380000,46.362230000,516.000
6.526350000,46.362270000,516.000
6.526320000,46.362290000,516.000
6.526270000,46.362320000,515.000
6.526220000,46.362330000,515.000
6.526160000,46.362340000,515.000
6.526110000,46.362340000,515.000
6.526050000,46.362340000,514.000
6.525970000,46.362330000,514.000
6.525900000,46.362320000,514.000
6.525760000,46.362280000,514.000
6.525570000,46.362230000,513.000
6.525450000,46.362210000,512.000
6.525240000,46.362170000,512.000
6.525030000,46.362140000,511.000
6.524940000,46.362130000,510.000
6.524860000,46.362120000,509.000
6.524780000,46.362120000,508.000
6.524700000,46.362130000,507.000
6.524610000,46.362150000,506.000
6.524230000,46.362230000,504.000
6.524150000,46.362240000,503.000
6.524070000,46.362250000,502.000
6.523980000,46.362250000,500.000
6.523900000,46.362250000,499.000
6.523700000,46.362230000,498.000
6.523640000,46.362220000,497.000
6.523590000,46.362220000,496.000
6.523530000,46.362230000,495.000
6.523480000,46.362240000,495.000
6.523430000,46.362260000,494.000
6.523380000,46.362280000,494.000
6.523260000,46.362340000,493.000
6.523200000,46.362370000,492.000
6.523140000,46.362390000,491.000
6.523070000,46.362410000,490.000
6.523000000,46.362420000,490.000
6.522930000,46.362430000,489.000
6.522860000,46.362430000,488.000
6.522790000,46.362420000,488.000
6.522620000,46.362400000,487.000
6.522530000,46.362400000,486.000
6.522440000,46.362400000,485.000
6.522340000,46.362410000,485.000
6.522260000,46.362420000,484.000
6.522170000,46.362440000,484.000
6.522020000,46.362470000,483.000
6.521930000,46.362490000,483.000
6.521840000,46.362520000,483.000
6.521750000,46.362540000,482.000
6.521650000,46.362570000,482.000
6.521550000,46.362590000,481.000
6.521380000,46.362610000,481.000
6.521280000,46.362630000,481.000
6.521180000,46.362660000,480.000
6.521080000,46.362700000,480.000
6.521000000,46.362740000,479.000
6.520910000,46.362790000,479.000
6.520840000,46.362840000,479.000
6.520770000,46.362890000,478.000
6.520650000,46.363000000,478.000
6.520530000,46.363110000,477.000
6.520420000,46.363220000,477.000
6.520320000,46.363340000,475.000
6.520190000,46.363510000,474.000
6.520140000,46.363560000,472.000
6.520100000,46.363590000,471.000
6.520050000,46.363620000,470.000
6.520000000,46.363640000,469.000
6.519940000,46.363650000,468.000
6.519880000,46.363650000,467.000
6.519820000,46.363650000,466.000
6.519760000,46.363640000,465.000
6.519700000,46.363620000,464.000
6.519660000,46.363590000,464.000
6.519620000,46.363550000,463.000
6.519600000,46.363510000,462.000
6.519590000,46.363470000,461.000
6.519590000,46.363430000,461.000
6.519600000,46.363390000,460.000
6.519630000,46.363350000,459.000
6.519660000,46.363310000,458.000
6.519710000,46.363280000,458.000
6.519820000,46.363190000,456.000
6.519860000,46.363160000,455.000
6.519890000,46.363120000,454.000
6.519900000,46.363080000,454.000
6.519910000,46.363030000,453.000
6.519900000,46.362990000,452.000
6.519880000,46.362950000,451.000
6.519840000,46.362910000,450.000
6.519800000,46.362880000,450.000
6.519750000,46.362860000,449.000
6.519690000,46.362840000,448.000
6.519630000,46.362830000,447.000
6.519560000,46.362830000,447.000
6.519500000,46.362840000,446.000
6.519450000,46.362860000,445.000
6.519390000,46.362880000,445.000
6.519350000,46.362910000,444.000
6.519320000,46.362950000,444.000
6.519270000,46.363020000,444.000
6.519170000,46.363190000,444.000
6.519060000,46.363360000,443.000
6.518960000,46.363500000,443.000
6.518910000,46.363570000,443.000
6.518860000,46.363630000,443.000
6.518800000,46.363690000,443.000
6.518730000,46.363750000,443.000
6.518650000,46.363800000,443.000
6.518570000,46.363840000,443.000
6.518480000,46.363890000,443.000
6.518390000,46.363930000,443.000
6.518290000,46.363960000,443.000
6.518080000,46.364030000,443.000
6.517860000,46.364100000,443.000
6.517760000,46.364130000,443.000
6.517680000,46.364150000,442.000
6.517610000,46.364170000,442.000
6.517490000,46.364180000,442.000
6.517430000,46.364180000,441.000
6.517360000,46.364190000,441.000
6.517280000,46.364190000,440.000
6.517160000,46.364180000,439.000
6.517080000,46.364210000,439.000
6.517010000,46.364240000,438.000
6.516930000,46.364270000,438.000
6.516830000,46.364300000,437.000
6.516730000,46.364320000,436.000
6.516630000,46.364340000,436.000
6.516520000,46.364360000,435.000
6.516420000,46.364370000,434.000
6.516310000,46.364380000,433.000
6.516200000,46.364380000,433.000
6.516050000,46.364380000,432.000
6.515900000,46.364380000,431.000
6.514820000,46.364340000,428.000
6.514710000,46.364330000,426.000
6.513260000,46.364280000,427.000
6.513000000,46.364270000,429.000
6.512800000,46.364260000,430.000
6.512640000,46.364260000,431.000
6.512470000,46.364260000,432.000
6.512310000,46.364270000,433.000
6.512200000,46.364280000,434.000
6.512090000,46.364300000,434.000
6.511980000,46.364320000,435.000
6.511800000,46.364350000,435.000
6.511110000,46.364510000,436.000
6.511000000,46.364530000,437.000
6.510890000,46.364550000,438.000
6.510790000,46.364560000,438.000
6.510680000,46.364570000,438.000
6.510230000,46.364610000,439.000
6.510080000,46.364620000,439.000
6.510000000,46.364630000,440.000
6.509920000,46.364640000,440.000
6.509840000,46.364660000,440.000
6.509760000,46.364680000,441.000
6.509690000,46.364700000,441.000
6.509620000,46.364730000,441.000
6.509250000,46.364870000,441.000
6.509250000,46.364870000,441.000
6.509250000,46.364870000,442.000
6.509140000,46.364910000,442.000
6.509030000,46.364950000,442.000
6.508920000,46.364980000,442.000
6.508810000,46.365000000,442.000
6.508690000,46.365020000,442.000
6.508570000,46.365030000,442.000
6.507420000,46.365130000,442.000
6.506830000,46.365190000,443.000
6.506720000,46.365200000,443.000
6.506610000,46.365220000,443.000
6.506510000,46.365240000,443.000
6.506400000,46.365260000,443.000
6.506190000,46.365320000,443.000
6.506000000,46.365380000,443.000
6.505820000,46.365440000,443.000
6.505720000,46.365480000,443.000
6.505630000,46.365520000,443.000
6.505540000,46.365560000,443.000
6.505460000,46.365600000,443.000
6.505380000,46.365650000,442.000
6.505310000,46.365710000,442.000
6.505250000,46.365770000,442.000
6.505190000,46.365830000,442.000
6.505000000,46.366040000,442.000
6.504910000,46.366140000,442.000
6.504810000,46.366230000,442.000
6.504710000,46.366320000,442.000
6.504520000,46.366470000,441.000
6.504380000,46.366590000,441.000
6.504030000,46.366880000,441.000
6.503770000,46.367100000,440.000
6.503570000,46.367280000,440.000
6.503380000,46.367430000,440.000
6.503330000,46.367470000,439.000
6.503280000,46.367510000,439.000
6.503230000,46.367540000,439.000
6.503180000,46.367560000,439.000
6.503150000,46.367580000,439.000
6.503110000,46.367600000,439.000
6.503070000,46.367610000,439.000
6.502870000,46.367720000,439.000
6.502840000,46.367740000,439.000
6.502820000,46.367760000,439.000
6.502800000,46.367770000,439.000
6.502780000,46.367800000,439.000
6.502770000,46.367820000,439.000
6.502750000,46.367850000,439.000
6.502730000,46.367870000,439.000
6.502700000,46.367920000,439.000
6.502670000,46.367980000,439.000
6.502650000,46.368030000,439.000
6.502620000,46.368090000,439.000
6.502580000,46.368140000,439.000
6.502560000,46.368170000,439.000
6.502530000,46.368200000,439.000
6.502490000,46.368220000,439.000
6.502440000,46.368260000,439.000
6.502400000,46.368290000,439.000
6.502370000,46.368310000,439.000
6.502330000,46.368320000,439.000
6.502280000,46.368350000,439.000
6.502230000,46.368370000,439.000
6.502140000,46.368410000,439.000
6.501460000,46.368700000,439.000
6.501350000,46.368740000,439.000
6.501240000,46.368780000,439.000
6.501150000,46.368810000,439.000
6.500860000,46.368910000,440.000
6.500570000,46.369020000,440.000
6.500430000,46.369070000,440.000
6.500280000,46.369120000,440.000
6.500160000,46.369150000,440.000
6.500120000,46.369160000,441.000
6.500060000,46.369180000,441.000
6.499970000,46.369200000,441.000
6.499890000,46.369220000,441.000
6.499560000,46.369290000,441.000
6.499160000,46.369360000,441.000
6.499000000,46.369390000,442.000
6.498920000,46.369400000,442.000
6.498650000,46.369420000,442.000
6.498380000,46.369440000,442.000
6.498160000,46.369460000,442.000
6.497930000,46.369460000,442.000
6.497360000,46.369470000,442.000
6.497300000,46.369470000,442.000
6.497260000,46.369470000,442.000
6.497040000,46.369480000,442.000
6.496950000,46.369490000,442.000
6.496870000,46.369500000,442.000
6.496780000,46.369510000,442.000
6.496660000,46.369540000,442.000
6.496450000,46.369580000,442.000
6.496300000,46.369610000,442.000
6.496270000,46.369620000,442.000
6.494440000,46.369990000,442.000
6.494290000,46.370020000,442.000
6.494030000,46.370080000,441.000
6.493950000,46.370100000,441.000
6.493870000,46.370110000,441.000
6.493780000,46.370130000,441.000
6.493700000,46.370140000,440.000
6.493030000,46.370270000,440.000
6.492860000,46.370310000,439.000
6.492680000,46.370350000,439.000
6.492580000,46.370370000,438.000
6.492300000,46.370420000,438.000
6.491580000,46.370570000,437.000
6.491430000,46.370620000,437.000
6.491360000,46.370640000,436.000
6.491280000,46.370670000,436.000
6.491270000,46.370680000,436.000
6.491250000,46.370690000,436.000
6.491230000,46.370700000,436.000
6.491210000,46.370710000,436.000
6.491180000,46.370720000,436.000
6.491150000,46.370720000,436.000
6.491130000,46.370720000,436.000
6.491100000,46.370710000,436.000
6.491080000,46.370710000,436.000
6.491060000,46.370700000,436.000
6.491030000,46.370690000,436.000
6.491010000,46.370670000,436.000
6.491000000,46.370650000,436.000
6.490950000,46.370640000,436.000
6.490900000,46.370630000,436.000
6.490840000,46.370620000,436.000
6.490790000,46.370620000,436.000
6.490770000,46.370620000,436.000
6.490640000,46.370620000,436.000
6.490520000,46.370610000,436.000
6.490370000,46.370610000,436.000
6.490360000,46.370610000,436.000
6.489940000,46.370600000,436.000
6.488840000,46.370560000,437.000
6.488440000,46.370550000,437.000
6.488210000,46.370540000,437.000
6.488060000,46.370540000,438.000
6.488010000,46.370540000,438.000
6.487940000,46.370540000,438.000
6.487840000,46.370530000,438.000
6.487660000,46.370530000,438.000
6.487470000,46.370510000,438.000
6.487430000,46.370510000,438.000
6.487330000,46.370510000,438.000
6.487270000,46.370500000,439.000
6.487060000,46.370490000,439.000
6.486470000,46.370470000,439.000
6.486470000,46.370470000,439.000
6.486440000,46.370470000,439.000
6.486280000,46.370470000,439.000
6.486110000,46.370470000,439.000
6.485970000,46.370490000,439.000
6.485760000,46.370500000,439.000
6.485560000,46.370520000,439.000
6.485110000,46.370570000,439.000
6.484920000,46.370590000,438.000
6.484950000,46.370670000,438.000
6.484960000,46.370710000,438.000
6.484980000,46.370750000,437.000
6.485010000,46.370790000,437.000
6.485030000,46.370830000,437.000
6.485270000,46.371090000,437.000
6.485300000,46.371130000,436.000
6.485320000,46.371160000,436.000
6.485340000,46.371200000,436.000
6.485370000,46.371230000,436.000
6.485450000,46.371320000,436.000
6.485710000,46.371590000,435.000
6.486160000,46.372050000,435.000
6.486180000,46.372070000,434.000
6.486190000,46.372080000,434.000
6.486290000,46.372190000,434.000
6.486370000,46.372270000,433.000
6.486380000,46.372280000,433.000
6.486400000,46.372300000,433.000
6.486890000,46.372820000,433.000
6.487140000,46.373080000,432.000
6.487380000,46.373330000,432.000
6.488120000,46.374110000,431.000
6.488540000,46.374550000,430.000
6.488810000,46.374860000,430.000
6.489090000,46.375190000,429.000
6.489400000,46.375590000,428.000
6.489750000,46.376060000,427.000
6.489750000,46.376060000,426.000
6.489910000,46.376300000,425.000
6.490070000,46.376510000,424.000
6.490400000,46.376960000,424.000
6.490500000,46.377100000,423.000
6.490560000,46.377190000,423.000
6.490610000,46.377250000,423.000
6.490710000,46.377370000,423.000
6.491020000,46.377730000,423.000
6.491280000,46.378050000,423.000
6.491730000,46.378580000,423.000
6.491850000,46.378710000,422.000
6.491970000,46.378840000,422.000
6.492040000,46.378910000,422.000
6.492120000,46.378990000,422.000
6.492180000,46.379050000,422.000
6.492300000,46.379160000,422.000
6.492430000,46.379260000,422.000
6.492560000,46.379360000,422.000
6.492690000,46.379460000,422.000
6.492830000,46.379560000,421.000
6.492970000,46.379650000,421.000
6.493080000,46.379720000,421.000
6.493190000,46.379790000,421.000
6.493300000,46.379850000,421.000
6.493330000,46.379870000,421.000
6.493480000,46.379940000,421.000
6.493540000,46.379970000,421.000
6.493630000,46.380020000,421.000
6.493730000,46.380070000,420.000
6.493770000,46.380090000,420.000
6.493800000,46.380110000,420.000
6.493910000,46.380160000,420.000
6.493950000,46.380180000,420.000
6.493950000,46.380180000,420.000
6.494660000,46.380540000,420.000
6.494710000,46.380560000,420.000
6.494900000,46.380660000,420.000
6.494950000,46.380690000,419.000
6.495020000,46.380730000,419.000
6.495050000,46.380740000,419.000
6.495110000,46.380770000,419.000
6.495150000,46.380790000,419.000
6.495210000,46.380820000,419.000
6.495260000,46.380850000,419.000
6.495210000,46.380900000,419.000
6.495200000,46.380920000,419.000
6.495180000,46.380930000,419.000
6.495150000,46.380960000,419.000
6.495130000,46.380980000,419.000
6.495110000,46.380990000,419.000
6.495080000,46.381010000,419.000
6.495050000,46.381010000,419.000
6.495020000,46.381010000,419.000
6.494960000,46.381010000,419.000
6.494780000,46.381000000,419.000
6.494060000,46.380960000,419.000
6.493910000,46.380950000,419.000
6.493790000,46.380930000,419.000
6.493790000,46.380930000,419.000
6.493770000,46.380930000,419.000
6.493630000,46.380910000,419.000
6.493490000,46.380890000,419.000
6.493350000,46.380870000,419.000
6.493210000,46.380840000,419.000
6.493100000,46.380810000,419.000
6.493070000,46.380810000,419.000
6.493040000,46.380800000,419.000
6.492980000,46.380810000,419.000
6.492950000,46.380810000,419.000
6.492920000,46.380820000,419.000
6.492870000,46.380830000,419.000
6.492860000,46.380850000,419.000
6.492850000,46.380860000,419.000
6.492830000,46.380870000,419.000
6.492810000,46.380880000,419.000
6.492790000,46.380890000,419.000
6.492770000,46.380890000,419.000
6.492740000,46.380890000,419.000
6.492720000,46.380890000,419.000
6.492700000,46.380890000,419.000
6.492680000,46.380880000,419.000
6.492660000,46.380880000,419.000
6.492650000,46.380870000,419.000
6.492630000,46.380860000,419.000
6.492620000,46.380850000,419.000
6.492610000,46.380830000,419.000
6.492610000,46.380820000,419.000
6.492610000,46.380810000,419.000
6.492610000,46.380790000,419.000
6.492610000,46.380780000,419.000
6.492590000,46.380730000,419.000
6.492570000,46.380710000,419.000
6.492560000,46.380690000,419.000
6.492520000,46.380640000,419.000
6.492510000,46.380640000,419.000
6.492440000,46.380610000,419.000
6.492350000,46.380580000,419.000
6.492260000,46.380540000,419.000
6.492170000,46.380500000,419.000
6.492090000,46.380450000,419.000
6.491940000,46.380380000,419.000
6.491820000,46.380310000,419.000
6.491690000,46.380260000,419.000
6.491550000,46.380170000,419.000
6.491420000,46.380070000,419.000
6.491290000,46.379970000,419.000
6.491190000,46.379880000,419.000
6.491100000,46.379790000,419.000
6.491010000,46.379700000,419.000
6.490980000,46.379670000,419.000
6.490930000,46.379600000,419.000
6.490850000,46.379500000,419.000
6.490810000,46.379440000,419.000
6.490810000,46.379440000,419.000
6.490780000,46.379400000,419.000
6.490720000,46.379300000,419.000
6.490660000,46.379200000,419.000
6.490610000,46.379110000,419.000
6.490580000,46.379030000,419.000
6.490510000,46.378860000,419.000
6.490410000,46.378640000,419.000
6.490380000,46.378580000,419.000
6.490340000,46.378520000,419.000
6.490280000,46.378440000,419.000
6.490220000,46.378340000,419.000
6.490190000,46.378320000,419.000
6.490170000,46.378300000,419.000
6.490140000,46.378270000,419.000
6.490060000,46.378220000,419.000
6.490040000,46.378210000,419.000
6.490020000,46.378210000,419.000
6.489990000,46.378190000,419.000
6.489980000,46.378170000,419.000
6.489960000,46.378140000,419.000
6.489960000,46.378120000,419.000
6.489960000,46.378100000,419.000
6.489970000,46.378090000,419.000
6.489980000,46.378070000,419.000
6.489990000,46.378060000,419.000
6.490010000,46.378040000,419.000
6.490030000,46.378030000,419.000
6.490040000,46.378030000,419.000
6.490080000,46.377970000,419.000
6.490110000,46.377910000,419.000
6.490120000,46.377870000,419.000
6.490180000,46.377790000,419.000
6.490180000,46.377740000,419.000
6.490170000,46.377680000,420.000
6.490160000,46.377620000,420.000
6.490140000,46.377570000,420.000
6.490120000,46.377510000,420.000
6.490010000,46.377410000,420.000
6.489910000,46.377270000,420.000
6.489860000,46.377210000,420.000
6.489850000,46.377150000,421.000
6.489760000,46.377050000,421.000
6.489660000,46.376950000,421.000
6.489550000,46.376850000,421.000
6.489440000,46.376760000,422.000
6.489320000,46.376670000,422.000
6.489210000,46.376580000,422.000
6.488340000,46.375960000,423.000
6.487720000,46.375520000,424.000
6.487660000,46.375480000,425.000
6.487540000,46.375400000,425.000
6.487310000,46.375230000,426.000
6.487200000,46.375150000,427.000
6.487090000,46.375070000,427.000
6.486820000,46.374880000,428.000
6.486720000,46.374810000,428.000
6.486590000,46.374720000,428.000
6.486500000,46.374650000,429.000
6.486080000,46.374350000,429.000
6.485730000,46.374100000,430.000
6.485200000,46.373720000,430.000
6.485150000,46.373690000,430.000
6.485060000,46.373620000,431.000
6.484930000,46.373530000,431.000
6.484910000,46.373510000,431.000
6.484870000,46.373480000,431.000
6.484650000,46.373320000,431.000
6.484260000,46.373040000,431.000
6.484210000,46.373010000,431.000
6.484210000,46.373010000,431.000
6.484110000,46.372940000,431.000
6.484050000,46.372900000,431.000
6.483930000,46.372840000,431.000
6.483820000,46.372770000,431.000
6.483640000,46.372650000,431.000
6.483600000,46.372620000,431.000
6.483460000,46.372520000,431.000
6.483350000,46.372450000,430.000
6.483250000,46.372490000,430.000
6.483190000,46.372530000,430.000
6.483120000,46.372570000,430.000
6.482920000,46.372700000,430.000
6.482510000,46.372970000,430.000
6.482450000,46.373010000,430.000
6.482400000,46.373040000,430.000
6.482010000,46.373300000,430.000
6.481770000,46.373480000,430.000
6.481760000,46.373490000,430.000
6.481750000,46.373490000,430.000
6.481750000,46.373490000,430.000
6.481420000,46.373740000,430.000
6.481400000,46.373750000,430.000
6.481370000,46.373770000,430.000
6.481350000,46.373800000,430.000
6.481330000,46.373820000,430.000
6.481320000,46.373860000,430.000
6.481290000,46.373940000,430.000
6.481290000,46.373960000,430.000
6.481300000,46.373980000,430.000
6.481290000,46.374000000,430.000
6.481290000,46.374020000,430.000
6.481270000,46.374040000,430.000
6.481260000,46.374060000,430.000
6.481230000,46.374070000,430.000
6.481210000,46.374090000,430.000
6.481180000,46.374100000,430.000
6.481150000,46.374100000,430.000
6.481110000,46.374110000,430.000
6.481080000,46.374110000,430.000
6.481050000,46.374100000,430.000
6.481030000,46.374090000,430.000
6.481000000,46.374080000,430.000
6.480980000,46.374070000,430.000
6.480960000,46.374050000,430.000
6.480940000,46.374030000,430.000
6.480930000,46.374020000,430.000
6.480920000,46.374000000,430.000
6.480920000,46.373970000,430.000
6.480930000,46.373950000,430.000
6.480930000,46.373930000,430.000
6.480870000,46.373920000,430.000
6.480750000,46.373890000,430.000
6.480660000,46.373860000,430.000
6.480640000,46.373860000,430.000
6.480490000,46.373820000,430.000
6.480430000,46.373800000,430.000
6.480330000,46.373790000,430.000
6.480200000,46.373760000,430.000
6.480010000,46.373710000,430.000
6.479960000,46.373700000,430.000
6.479610000,46.373610000,430.000
6.479580000,46.373600000,430.000
6.479560000,46.373600000,430.000
6.479540000,46.373600000,430.000
6.479510000,46.373610000,430.000
6.479490000,46.373610000,430.000
6.479480000,46.373620000,430.000
6.479480000,46.373620000,430.000
6.479460000,46.373620000,430.000
6.479140000,46.373720000,430.000
6.479110000,46.373730000,430.000
6.479070000,46.373740000,430.000
6.479060000,46.373740000,430.000
6.479040000,46.373750000,430.000
6.479020000,46.373750000,430.000
6.479000000,46.373740000,430.000
6.478980000,46.373740000,430.000
6.478960000,46.373730000,430.000
6.478950000,46.373730000,430.000
6.478940000,46.373720000,430.000
6.478780000,46.373600000,430.000
6.478640000,46.373490000,430.000
6.478370000,46.373290000,430.000
6.478350000,46.373270000,429.000
6.478330000,46.373260000,429.000
6.478300000,46.373240000,429.000
6.478270000,46.373220000,429.000
6.478260000,46.373200000,429.000
6.478250000,46.373170000,429.000
6.478240000,46.373150000,429.000
6.478230000,46.373110000,429.000
6.478200000,46.373070000,429.000
6.478180000,46.373040000,429.000
6.478150000,46.373020000,429.000
6.478120000,46.372990000,429.000
6.478080000,46.372970000,429.000
6.478060000,46.372960000,429.000
6.478020000,46.372950000,429.000
6.478000000,46.372950000,429.000
6.477970000,46.372940000,429.000
6.477950000,46.372930000,429.000
6.477930000,46.372920000,429.000
6.477900000,46.372890000,429.000
6.477880000,46.372880000,429.000
6.477540000,46.372640000,429.000
6.477480000,46.372590000,428.000
6.477180000,46.372370000,428.000
6.477130000,46.372330000,428.000
6.477070000,46.372300000,428.000
6.477030000,46.372290000,428.000
6.476990000,46.372280000,427.000
6.476950000,46.372300000,427.000
6.476730000,46.372440000,427.000
6.476680000,46.372470000,427.000
6.476620000,46.372510000,427.000
6.476450000,46.372620000,427.000
6.476090000,46.372850000,426.000
6.476090000,46.372850000,426.000
6.475990000,46.372910000,425.000
6.475950000,46.372930000,425.000
6.475950000,46.372930000,425.000
6.475900000,46.372950000,425.000
6.475850000,46.372960000,425.000
6.475800000,46.372970000,424.000
6.475750000,46.372980000,424.000
6.475700000,46.372970000,424.000
6.475650000,46.372970000,424.000
6.475600000,46.372960000,424.000
6.475560000,46.372940000,424.000
6.475510000,46.372930000,423.000
6.475460000,46.372920000,423.000
6.475400000,46.372910000,423.000
6.475390000,46.372920000,423.000
6.475360000,46.372930000,423.000
6.475340000,46.372940000,423.000
6.475320000,46.372940000,423.000
6.475290000,46.372940000,423.000
6.475270000,46.372940000,423.000
6.475240000,46.372930000,423.000
6.475220000,46.372930000,422.000
6.475200000,46.372920000,422.000
6.475180000,46.372910000,422.000
6.475150000,46.372900000,422.000
6.475110000,46.372880000,422.000
6.475080000,46.372880000,422.000
6.474960000,46.372850000,422.000
6.474910000,46.372840000,422.000
6.474860000,46.372840000,421.000
6.474810000,46.372820000,421.000
6.474760000,46.372810000,421.000
6.474710000,46.372800000,421.000
6.474670000,46.372780000,421.000
6.474510000,46.372710000,421.000
6.473770000,46.372410000,420.000
6.473680000,46.372370000,419.000
6.473460000,46.372280000,418.000
6.471700000,46.371440000,415.000
6.471530000,46.371360000,413.000
6.471480000,46.371340000,412.000
6.471450000,46.371330000,411.000
6.471430000,46.371320000,411.000
6.471410000,46.371310000,410.000
6.471380000,46.371310000,410.000
6.471350000,46.371300000,410.000
6.471320000,46.371300000,409.000
6.471300000,46.371300000,409.000
6.471280000,46.371300000,409.000
6.471260000,46.371300000,409.000
6.471240000,46.371300000,409.000
6.471220000,46.371300000,409.000
6.471210000,46.371310000,409.000
6.471190000,46.371320000,409.000
6.471180000,46.371320000,409.000
6.471160000,46.371330000,409.000
6.471150000,46.371340000,409.000
6.471140000,46.371350000,409.000
6.471130000,46.371360000,408.000
6.471120000,46.371370000,408.000
6.471110000,46.371390000,408.000
6.471110000,46.371400000,408.000
6.471110000,46.371420000,408.000
6.471110000,46.371430000,408.000
6.471120000,46.371440000,408.000
6.471120000,46.371460000,408.000
6.471130000,46.371470000,408.000
6.471140000,46.371480000,408.000
6.471150000,46.371500000,408.000
6.471170000,46.371510000,408.000
6.471210000,46.371530000,408.000
6.471320000,46.371580000,408.000
6.471540000,46.371680000,407.000
6.471730000,46.371760000,407.000
6.471920000,46.371850000,407.000
6.472020000,46.371910000,406.000
6.472120000,46.371970000,406.000
6.472210000,46.372030000,405.000
6.472300000,46.372090000,405.000
6.472360000,46.372130000,405.000
6.472380000,46.372150000,405.000
6.472560000,46.372280000,404.000
6.472560000,46.372280000,404.000
6.472850000,46.372500000,404.000
6.472910000,46.372540000,403.000
6.473020000,46.372620000,403.000
6.473120000,46.372690000,402.000
6.473210000,46.372760000,402.000
6.473280000,46.372800000,401.000
6.473380000,46.372870000,401.000
6.473490000,46.372920000,401.000
6.473600000,46.372970000,400.000
6.473710000,46.373020000,400.000
6.473960000,46.373130000,399.000
6.474310000,46.373260000,399.000
6.474310000,46.373270000,398.000
6.474310000,46.373270000,398.000
6.474560000,46.373360000,397.000
6.475320000,46.373670000,396.000
6.475570000,46.373790000,395.000
6.475760000,46.373870000,394.000
6.475860000,46.373920000,393.000
6.475900000,46.373940000,392.000
6.475970000,46.373970000,392.000
6.476000000,46.373990000,391.000
6.476580000,46.374270000,390.000
6.477240000,46.374590000,388.000
6.477280000,46.374620000,387.000
6.477490000,46.374720000,386.000
6.477780000,46.374870000,385.000
6.477920000,46.374940000,384.000
6.478030000,46.374990000,383.000
6.478110000,46.375030000,383.000
6.478230000,46.375100000,382.000
6.478390000,46.375170000,382.000
6.478560000,46.375260000,381.000
6.478600000,46.375290000,381.000
6.478640000,46.375310000,380.000
6.478670000,46.375340000,380.000
6.478690000,46.375370000,380.000
6.478700000,46.375380000,380.000
6.478860000,46.375640000,379.000
6.478880000,46.375680000,379.000
6.478900000,46.375730000,379.000
6.478920000,46.375770000,378.000
6.478930000,46.375800000,378.000
6.478940000,46.375840000,378.000
6.478960000,46.375900000,378.000
6.478980000,46.375960000,377.000
6.478990000,46.376030000,377.000
6.479010000,46.376090000,377.000
6.479030000,46.376120000,377.000
6.479030000,46.376120000,377.000
6.479040000,46.376140000,377.000
6.479400000,46.376890000,377.000
6.479420000,46.376920000,377.000
6.479440000,46.376950000,377.000
6.479460000,46.376980000,377.000
6.479480000,46.377000000,377.000
6.479500000,46.377030000,377.000
6.479540000,46.377060000,377.000
6.479570000,46.377080000,377.000
6.479590000,46.377100000,377.000
6.479630000,46.377120000,377.000
6.479660000,46.377140000,377.000
6.479710000,46.377160000,377.000
6.479760000,46.377180000,377.000
6.480030000,46.377290000,377.000
6.480120000,46.377330000,377.000
6.480190000,46.377360000,377.000
6.480250000,46.377390000,377.000
6.480300000,46.377420000,377.000
6.480350000,46.377450000,377.000
6.480400000,46.377480000,377.000
6.480440000,46.377510000,377.000
6.480480000,46.377540000,377.000
6.480510000,46.377580000,377.000
6.480580000,46.377660000,377.000
6.480610000,46.377690000,377.000
6.480640000,46.377730000,377.000
6.480670000,46.377770000,377.000
6.480700000,46.377820000,377.000
6.480720000,46.377850000,377.000
6.480730000,46.377870000,377.000
6.480740000,46.377910000,377.000
6.480840000,46.378100000,377.000
6.480850000,46.378130000,377.000
6.480900000,46.378210000,377.000
6.480910000,46.378230000,376.000
6.480920000,46.378240000,376.000
6.480920000,46.378260000,376.000
6.480930000,46.378290000,376.000
6.480930000,46.378340000,376.000
6.480930000,46.378410000,376.000
6.480950000,46.378420000,376.000
6.480960000,46.378430000,376.000
6.480970000,46.378440000,376.000
6.480980000,46.378450000,376.000
6.480990000,46.378460000,376.000
6.480990000,46.378470000,376.000
6.480990000,46.378490000,376.000
6.480980000,46.378500000,376.000
6.480970000,46.378510000,376.000
6.480960000,46.378520000,376.000
6.480950000,46.378530000,376.000
6.480940000,46.378540000,376.000
6.480920000,46.378550000,376.000
6.480970000,46.378630000,376.000
6.481110000,46.378920000,375.000
6.481280000,46.379270000,375.000
6.481370000,46.379470000,375.000
6.481600000,46.379980000,375.000
6.481910000,46.380660000,375.000
6.482040000,46.380970000,375.000
6.482040000,46.380970000,375.000
6.482080000,46.381060000,375.000
6.482160000,46.381200000,375.000
6.482250000,46.381340000,375.000
6.482650000,46.382000000,375.000
6.482790000,46.382240000,375.000
6.482820000,46.382310000,375.000
6.482860000,46.382420000,375.000
6.482930000,46.382700000,375.000
6.483070000,46.383240000,375.000
6.483090000,46.383310000,376.000
6.483090000,46.383330000,376.000
6.483100000,46.383350000,376.000
6.483130000,46.383410000,376.000
6.483150000,46.383430000,376.000
6.483150000,46.383450000,376.000
6.483190000,46.383610000,376.000
6.483200000,46.383640000,376.000
6.483200000,46.383670000,376.000
6.483210000,46.383710000,376.000
6.483210000,46.383740000,376.000
6.483220000,46.383780000,376.000
6.483220000,46.383820000,376.000
6.483220000,46.383860000,376.000
6.483220000,46.383900000,376.000
6.483210000,46.383940000,377.000
6.483210000,46.384030000,377.000
6.483180000,46.384790000,377.000
6.483180000,46.384860000,377.000
6.483180000,46.384920000,378.000
6.483190000,46.384970000,378.000
6.483190000,46.385010000,378.000
6.483200000,46.385060000,378.000
6.483200000,46.385080000,378.000
6.483210000,46.385110000,378.000
6.483210000,46.385150000,379.000
6.483220000,46.385180000,379.000
6.483230000,46.385240000,379.000
6.483240000,46.385280000,379.000
6.483250000,46.385320000,379.000
6.483260000,46.385360000,380.000
6.483270000,46.385400000,380.000
6.483280000,46.385430000,380.000
6.483290000,46.385460000,380.000
6.483300000,46.385500000,380.000
6.483320000,46.385530000,381.000
6.483390000,46.385710000,381.000
6.483410000,46.385740000,381.000
6.483430000,46.385780000,382.000
6.483450000,46.385810000,382.000
6.483480000,46.385850000,382.000
6.483650000,46.386110000,383.000
6.483880000,46.386450000,384.000
6.483900000,46.386480000,385.000
6.483920000,46.386500000,385.000
6.483940000,46.386520000,385.000
6.483960000,46.386540000,386.000
6.483980000,46.386560000,386.000
6.484060000,46.386640000,386.000
6.484090000,46.386660000,387.000
6.484120000,46.386690000,387.000
6.484150000,46.386710000,387.000
6.484200000,46.386740000,387.000
6.484260000,46.386770000,387.000
6.484310000,46.386800000,387.000
6.484350000,46.386820000,388.000
6.484400000,46.386840000,388.000
6.484450000,46.386870000,388.000
6.484500000,46.386890000,388.000
6.484540000,46.386900000,388.000
6.484590000,46.386920000,388.000
6.484650000,46.386940000,388.000
6.484700000,46.386950000,388.000
6.484750000,46.386970000,388.000
6.484800000,46.386980000,388.000
6.484860000,46.386990000,388.000
6.484910000,46.387000000,388.000
6.484970000,46.387010000,388.000
6.485030000,46.387010000,388.000
6.485080000,46.387010000,388.000
6.485140000,46.387020000,388.000
6.485190000,46.387020000,388.000
6.485240000,46.387020000,389.000
6.485370000,46.387020000,389.000
6.485540000,46.387010000,389.000
6.485640000,46.387010000,389.000
6.485720000,46.387000000,389.000
6.485880000,46.386990000,389.000
6.486230000,46.386980000,389.000
        </coordinates>
      </LineString>
    </Placemark>
  </Document>
</kml>
