<?xml version="1.0" encoding="UTF-8"?>
<kml xmlns="http://www.opengis.net/kml/2.2">
  <Document>
    <name>Tour de France 2026 - Stage 01</name>
    <Style id="routeStyle">
      <LineStyle>
        <color>ff111111</color>
        <width>4</width>
      </LineStyle>
    </Style>
    <Placemark>
      <name>Tour de France 2026 - Stage 01</name>
      <styleUrl>#routeStyle</styleUrl>
      <LineString>
        <tessellate>1</tessellate>
        <coordinates>
2.219320000,41.406310000,11.000
2.219230000,41.406240000,10.000
2.218600000,41.405780000,10.000
2.218040000,41.405370000,9.000
2.216900000,41.404470000,8.000
2.216230000,41.403960000,8.000
2.215900000,41.403710000,7.000
2.214440000,41.402600000,8.000
2.214160000,41.402340000,8.000
2.213530000,41.401830000,8.000
2.213120000,41.401560000,8.000
2.212790000,41.401370000,8.000
2.212390000,41.401170000,7.000
2.211940000,41.400940000,7.000
2.211640000,41.400760000,7.000
2.211320000,41.400550000,7.000
2.211320000,41.400550000,7.000
2.211150000,41.400420000,7.000
2.210750000,41.400110000,7.000
2.210330000,41.399750000,7.000
2.210020000,41.399430000,8.000
2.209340000,41.398610000,9.000
2.209220000,41.398420000,11.000
2.208980000,41.398130000,12.000
2.208770000,41.397810000,12.000
2.208690000,41.397640000,12.000
2.208540000,41.397200000,12.000
2.208420000,41.396930000,11.000
2.208310000,41.396710000,10.000
2.208200000,41.396550000,9.000
2.208030000,41.396350000,8.000
2.207780000,41.396140000,8.000
2.206710000,41.395340000,7.000
2.206560000,41.395250000,7.000
2.206420000,41.395150000,6.000
2.205790000,41.394620000,6.000
2.205760000,41.394560000,6.000
2.205390000,41.394140000,6.000
2.205230000,41.393930000,6.000
2.205060000,41.393660000,7.000
2.204830000,41.393230000,7.000
2.204560000,41.392790000,7.000
2.204290000,41.392500000,8.000
2.204100000,41.392380000,8.000
2.203880000,41.392180000,8.000
2.203130000,41.391760000,8.000
2.203090000,41.391730000,8.000
2.202680000,41.391580000,8.000
2.202010000,41.391360000,9.000
2.201640000,41.391220000,9.000
2.201250000,41.391030000,10.000
2.200810000,41.390760000,10.000
2.200430000,41.390430000,11.000
2.200430000,41.390430000,12.000
2.200290000,41.390310000,12.000
2.200160000,41.390160000,12.000
2.199960000,41.390290000,12.000
2.199910000,41.390320000,12.000
2.199910000,41.390320000,12.000
2.199490000,41.390650000,12.000
2.197920000,41.391790000,12.000
2.197940000,41.391780000,12.000
2.197880000,41.391820000,12.000
2.197880000,41.391820000,12.000
2.198840000,41.392650000,12.000
2.198830000,41.392650000,12.000
2.198930000,41.392740000,12.000
2.199280000,41.393040000,12.000
2.199900000,41.393560000,12.000
2.200920000,41.394460000,11.000
2.201260000,41.394760000,11.000
2.201630000,41.394480000,10.000
2.201760000,41.394380000,10.000
2.201760000,41.394380000,10.000
2.202010000,41.394180000,9.000
2.202130000,41.394090000,9.000
2.202200000,41.394040000,8.000
2.202280000,41.393990000,8.000
2.203610000,41.395080000,7.000
2.203610000,41.395080000,6.000
2.204940000,41.396170000,6.000
2.205050000,41.396250000,6.000
2.205110000,41.396270000,6.000
2.205180000,41.396270000,6.000
2.205280000,41.396300000,6.000
2.205320000,41.396340000,6.000
2.205340000,41.396390000,6.000
2.205320000,41.396470000,6.000
2.206220000,41.397220000,7.000
2.206340000,41.397330000,7.000
2.207460000,41.398400000,8.000
2.207570000,41.398530000,8.000
2.207580000,41.398570000,9.000
2.207600000,41.398590000,9.000
2.208030000,41.398990000,9.000
2.208040000,41.399010000,9.000
2.208230000,41.399190000,9.000
2.208230000,41.399190000,8.000
2.208350000,41.399300000,8.000
2.208390000,41.399360000,8.000
2.208490000,41.399460000,8.000
2.209300000,41.400150000,8.000
2.209540000,41.400330000,7.000
2.210150000,41.400790000,8.000
2.210390000,41.400960000,8.000
2.210750000,41.401230000,8.000
2.210750000,41.401230000,9.000
2.211530000,41.401830000,9.000
2.212660000,41.402690000,9.000
2.213790000,41.403520000,9.000
2.214930000,41.404420000,9.000
2.215610000,41.404920000,10.000
2.216390000,41.405490000,10.000
2.217140000,41.406030000,10.000
2.218130000,41.406760000,10.000
2.218130000,41.406760000,10.000
2.218210000,41.406820000,10.000
2.218350000,41.406940000,9.000
2.218350000,41.406940000,9.000
2.218350000,41.406940000,9.000
2.218350000,41.406940000,9.000
2.218150000,41.407110000,8.000
2.216830000,41.408080000,6.000
2.216830000,41.408080000,5.000
2.216630000,41.408230000,4.000
2.216580000,41.408260000,4.000
2.216540000,41.408290000,3.000
2.216520000,41.408310000,3.000
2.215110000,41.409380000,2.000
2.215050000,41.409420000,2.000
2.214470000,41.409890000,3.000
2.214280000,41.410030000,4.000
2.214200000,41.410090000,4.000
2.214050000,41.410210000,5.000
2.213900000,41.410290000,6.000
2.213050000,41.410940000,7.000
2.211910000,41.411800000,8.000
2.210790000,41.412650000,7.000
2.210270000,41.413050000,7.000
2.209660000,41.413510000,7.000
2.209110000,41.413930000,7.000
2.208540000,41.414350000,7.000
2.207310000,41.415280000,9.000
2.206280000,41.416070000,11.000
2.205410000,41.416730000,14.000
2.205170000,41.416910000,16.000
2.205140000,41.416940000,18.000
2.204980000,41.417050000,19.000
2.204920000,41.417100000,20.000
2.204670000,41.417270000,21.000
2.204300000,41.417560000,22.000
2.204220000,41.417610000,23.000
2.203780000,41.417960000,23.000
2.203520000,41.418160000,22.000
2.202810000,41.418690000,21.000
2.202660000,41.418800000,20.000
2.202340000,41.419040000,19.000
2.201610000,41.419590000,19.000
2.201450000,41.419710000,19.000
2.201390000,41.419720000,18.000
2.200270000,41.418870000,18.000
2.199260000,41.418120000,18.000
2.199260000,41.418120000,18.000
2.199150000,41.418040000,18.000
2.198670000,41.417680000,18.000
2.198600000,41.417620000,18.000
2.198020000,41.417190000,18.000
2.197490000,41.416790000,19.000
2.197400000,41.416730000,19.000
2.196870000,41.416330000,20.000
2.196350000,41.415940000,20.000
2.196270000,41.415880000,21.000
2.195750000,41.415490000,21.000
2.194580000,41.414610000,22.000
2.193460000,41.413760000,22.000
2.192320000,41.412920000,22.000
2.191250000,41.412130000,20.000
2.191170000,41.412060000,19.000
2.190920000,41.411850000,19.000
2.189390000,41.410690000,20.000
2.189280000,41.410610000,21.000
2.188740000,41.410200000,22.000
2.187770000,41.409470000,23.000
2.187310000,41.409120000,24.000
2.187200000,41.409040000,25.000
2.187010000,41.408900000,26.000
2.186860000,41.408790000,27.000
2.186800000,41.408710000,27.000
2.186740000,41.408570000,28.000
2.186500000,41.408370000,29.000
2.185750000,41.407810000,31.000
2.185100000,41.407310000,33.000
2.185050000,41.407280000,34.000
2.185050000,41.407280000,35.000
2.184530000,41.406910000,35.000
2.183380000,41.406030000,33.000
2.182230000,41.405190000,33.000
2.181110000,41.404360000,34.000
2.180010000,41.403540000,36.000
2.178880000,41.404400000,38.000
2.178380000,41.404780000,40.000
2.178380000,41.404780000,41.000
2.177770000,41.405230000,42.000
2.177070000,41.404720000,44.000
2.176670000,41.404430000,45.000
2.175730000,41.403720000,46.000
2.175730000,41.403720000,47.000
2.175600000,41.403620000,47.000
2.174780000,41.403010000,48.000
2.174300000,41.402650000,48.000
2.173830000,41.402300000,48.000
2.173190000,41.401820000,49.000
2.172240000,41.401100000,49.000
2.172030000,41.400940000,50.000
2.170930000,41.400110000,50.000
2.170180000,41.399570000,50.000
2.169940000,41.399370000,50.000
2.169640000,41.399160000,50.000
2.169510000,41.399070000,50.000
2.169200000,41.398820000,50.000
2.169120000,41.398750000,50.000
2.169050000,41.398700000,50.000
2.168660000,41.398430000,50.000
2.167660000,41.397670000,50.000
2.167380000,41.397470000,49.000
2.166390000,41.396720000,49.000
2.165250000,41.395860000,49.000
2.164110000,41.395010000,50.000
2.164720000,41.394550000,51.000
2.164720000,41.394550000,51.000
2.164810000,41.394480000,52.000
2.165220000,41.394160000,52.000
2.166360000,41.393300000,51.000
2.165040000,41.392300000,50.000
2.164870000,41.392190000,50.000
2.164760000,41.392090000,49.000
2.163510000,41.391160000,50.000
2.163350000,41.391030000,50.000
2.162800000,41.390610000,50.000
2.161870000,41.389920000,48.000
2.161240000,41.389420000,46.000
2.160850000,41.389130000,44.000
2.160850000,41.389130000,42.000
2.160300000,41.388730000,42.000
2.159600000,41.388200000,43.000
2.159090000,41.387810000,44.000
2.158470000,41.387350000,44.000
2.158240000,41.387170000,45.000
2.157320000,41.386490000,46.000
2.157150000,41.386370000,46.000
2.156750000,41.386060000,46.000
2.156270000,41.385690000,45.000
2.156190000,41.385640000,45.000
2.155080000,41.384790000,43.000
2.154080000,41.384040000,44.000
2.153820000,41.383840000,44.000
2.152810000,41.383090000,45.000
2.151700000,41.382240000,45.000
2.150670000,41.381480000,45.000
2.150420000,41.381300000,44.000
2.149970000,41.380950000,44.000
2.149390000,41.380520000,43.000
2.148260000,41.379670000,43.000
2.148090000,41.379530000,42.000
2.147160000,41.378830000,41.000
2.146650000,41.378480000,40.000
2.145990000,41.378010000,39.000
2.146990000,41.377270000,40.000
2.147110000,41.377180000,40.000
2.147220000,41.377090000,40.000
2.147560000,41.376840000,41.000
2.147560000,41.376840000,41.000
2.147840000,41.376630000,42.000
2.148140000,41.376380000,42.000
2.148220000,41.376250000,42.000
2.148440000,41.376080000,43.000
2.148460000,41.376040000,43.000
2.148740000,41.375850000,43.000
2.148850000,41.375750000,43.000
2.148920000,41.375660000,44.000
2.148940000,41.375580000,44.000
2.148920000,41.375480000,44.000
2.148790000,41.375380000,44.000
2.148750000,41.375360000,44.000
2.148680000,41.375310000,44.000
2.148580000,41.375180000,44.000
2.148540000,41.375110000,44.000
2.148530000,41.374970000,44.000
2.148550000,41.374910000,44.000
2.148610000,41.374800000,44.000
2.148710000,41.374700000,43.000
2.148770000,41.374660000,43.000
2.148910000,41.374600000,43.000
2.149030000,41.374580000,42.000
2.149070000,41.374580000,42.000
2.149290000,41.374520000,42.000
2.149390000,41.374460000,41.000
2.149490000,41.374370000,41.000
2.149630000,41.374160000,40.000
2.150300000,41.373170000,39.000
2.150480000,41.372900000,38.000
2.151060000,41.372070000,38.000
2.151290000,41.371730000,38.000
2.151260000,41.371650000,38.000
2.151270000,41.371620000,38.000
2.151330000,41.371580000,38.000
2.151410000,41.371570000,38.000
2.151440000,41.371580000,38.000
2.151480000,41.371600000,39.000
2.151510000,41.371660000,39.000
2.151630000,41.371740000,39.000
2.152050000,41.371900000,39.000
2.152240000,41.371970000,39.000
2.152240000,41.371970000,39.000
2.152610000,41.372110000,40.000
2.153540000,41.372450000,40.000
2.154030000,41.371710000,41.000
2.154060000,41.371660000,42.000
2.154460000,41.371070000,43.000
2.154570000,41.370900000,44.000
2.154720000,41.370670000,45.000
2.154850000,41.370480000,46.000
2.154930000,41.370420000,46.000
2.155040000,41.370390000,47.000
2.155270000,41.370400000,47.000
2.155490000,41.370440000,48.000
2.155490000,41.370440000,48.000
2.155520000,41.370440000,48.000
2.155960000,41.370450000,49.000
2.156410000,41.370370000,49.000
2.156760000,41.370280000,50.000
2.157200000,41.370230000,51.000
2.158140000,41.370220000,53.000
2.158250000,41.370200000,55.000
2.158380000,41.370100000,56.000
2.158430000,41.370040000,58.000
2.158410000,41.369900000,59.000
2.158330000,41.369590000,60.000
2.158300000,41.369390000,62.000
2.158310000,41.368920000,64.000
2.158250000,41.368740000,65.000
2.158110000,41.368530000,66.000
2.157980000,41.368440000,67.000
2.157790000,41.368390000,67.000
2.157720000,41.368380000,67.000
2.157550000,41.368380000,67.000
2.157340000,41.368480000,67.000
2.156750000,41.368860000,66.000
2.156520000,41.368970000,65.000
2.156150000,41.369110000,66.000
2.156010000,41.369130000,67.000
2.155830000,41.369080000,68.000
2.155780000,41.369010000,69.000
2.155760000,41.368950000,69.000
2.155790000,41.368860000,70.000
2.155860000,41.368800000,71.000
2.156530000,41.368250000,74.000
2.156700000,41.368080000,76.000
2.156730000,41.368030000,78.000
2.156730000,41.368030000,80.000
2.156920000,41.367700000,82.000
2.157010000,41.367590000,84.000
2.157240000,41.367450000,86.000
2.157470000,41.367360000,88.000
2.157870000,41.367320000,90.000
2.158160000,41.367330000,93.000
2.158450000,41.367410000,95.000
2.158610000,41.367460000,97.000
2.158800000,41.367490000,99.000
2.159010000,41.367480000,100.000
2.159090000,41.367410000,100.000
2.158510000,41.367070000,101.000
2.158050000,41.366850000,101.000
2.157780000,41.366720000,102.000
2.157450000,41.366590000,102.000
2.157160000,41.366500000,102.000
2.157160000,41.366500000,103.000
2.156770000,41.366360000,103.000
2.156400000,41.366260000,103.000
2.155980000,41.366180000,104.000
2.155410000,41.366100000,105.000
2.154960000,41.366070000,105.000
2.154470000,41.366070000,105.000
2.153620000,41.366110000,103.000
2.153060000,41.366180000,100.000
2.152660000,41.366250000,98.000
2.152240000,41.366340000,95.000
2.151520000,41.366500000,93.000
2.151160000,41.366550000,91.000
2.150840000,41.366590000,89.000
2.150430000,41.366590000,88.000
2.149990000,41.366550000,86.000
2.149350000,41.366440000,85.000
2.148960000,41.366290000,83.000
2.148260000,41.365910000,82.000
2.147860000,41.365720000,81.000
2.147450000,41.365580000,80.000
2.147080000,41.365480000,79.000
2.146610000,41.365470000,78.000
2.146250000,41.365500000,77.000
2.146020000,41.365540000,76.000
2.145830000,41.365590000,75.000
2.145780000,41.365480000,74.000
2.145750000,41.365370000,73.000
2.145810000,41.365300000,73.000
2.146030000,41.364850000,72.000
2.146160000,41.364240000,70.000
2.146160000,41.364240000,69.000
2.146160000,41.364230000,68.000
2.146170000,41.363900000,67.000
2.146070000,41.363480000,65.000
2.146080000,41.363290000,63.000
2.146110000,41.363210000,61.000
2.146170000,41.363130000,60.000
2.146250000,41.363040000,59.000
2.146440000,41.362960000,58.000
2.147060000,41.362730000,56.000
2.147370000,41.362580000,54.000
2.147650000,41.362420000,53.000
2.148120000,41.362060000,53.000
2.148490000,41.361760000,52.000
2.148760000,41.361510000,52.000
2.148960000,41.361280000,52.000
2.149190000,41.360910000,52.000
2.149290000,41.360640000,52.000
2.149290000,41.360640000,52.000
2.149330000,41.360540000,52.000
2.149510000,41.360190000,53.000
2.149650000,41.360050000,53.000
2.149730000,41.359970000,53.000
2.149830000,41.359940000,53.000
2.150000000,41.359900000,54.000
2.150180000,41.359870000,54.000
2.150330000,41.359870000,54.000
2.151030000,41.360100000,56.000
2.151320000,41.360210000,58.000
2.151570000,41.360340000,61.000
2.151770000,41.360490000,63.000
2.151970000,41.360690000,65.000
2.152420000,41.361130000,69.000
2.152710000,41.361330000,72.000
2.152710000,41.361330000,74.000
2.152760000,41.361370000,75.000
2.153090000,41.361580000,77.000
2.153440000,41.361740000,79.000
2.154030000,41.361940000,81.000
2.154320000,41.362010000,83.000
2.154460000,41.362050000,85.000
2.155150000,41.362250000,89.000
2.155680000,41.362420000,93.000
2.155980000,41.362550000,97.000
2.156340000,41.362740000,101.000
2.156680000,41.362990000,106.000
2.156850000,41.363120000,108.000
2.156940000,41.363230000,110.000
2.157120000,41.363440000,111.000
2.157370000,41.363810000,111.000
2.157410000,41.363890000,111.000
        </coordinates>
      </LineString>
    </Placemark>
  </Document>
</kml>
